PROVINCIA,COMUNE,ID_AGISCO,DENOMINAZIONE,INDIRIZZO,NOTE,TIPOLOGIA SITO/ATTIVITA',LONGITUDINE,LATITUDINE,LOCATION,PRECISIONE_LOCATION
MANTOVA,,MN009.0001,CENTRALE TERMOELETTRICA ENEL- EUROGEN,VIA COLOMBO 2,,aree industriali in attività,,,,nd
MILANO,PERO,MI170.0055,TRANSFLUID,"VIA VINCENZO MONTI, 19",,aree industriali dismesse,9.09648851,45.5097687,POINT (9.09648851 45.5097687),alta
MILANO,PIOLTELLO,MI175.0018,AREA MAGNI PIETRO E C,"VIA GABRIELE D' ANNUNZIO, 6",,aree industriali dismesse,9.32599738,45.4974908,POINT (9.32599738 45.4974908),alta
VARESE,CITTIGLIO,VA051.0002,Fallimento CONCERIA FRASCHINI e ARES srl - ex- ACQUATECH SRL,STRADA STATALE 394,,aree industriali dismesse,8.6701013,45.89062207,POINT (8.6701013 45.89062207),alta
BERGAMO,TERNO D ISOLA,BG213.0001,"ditta FBM HUDSON, con Chignolo d'Isola","VIA VALTRIGHE, 5",,aree industriali in attività,9.53960189,45.69013417,POINT (9.53960189 45.69013417),alta
PAVIA,CASEI GEROLA,PV033.0006,ARGINI EX ZUCCHERIFICIO,STRADA PROVINCIALE 206 VOGHERA NOVARA,,operazioni di recupero rifiuti,8.91244462,45.02824894,POINT (8.91244462 45.02824894),alta
MILANO,OPERA,MI159.0017,SOCIETÀ RETTAGLIATA SERVIZI SPA INCORPORATA IN SIRAM SPA,"VIA CAMICIE ROSSE, 2/4",,impianti di stoccaggio o adduzione carburanti,9.20915939,45.37288746,POINT (9.20915939 45.37288746),alta
MILANO,CASSINA DE PECCHI,MI060.0001,"FRAZIONE SANT'AGATA, CONSORZIO CONSAGA",LOCALITA' C.NA S.MORO,(*),impianti di stoccaggio o adduzione carburanti,9.39494352,45.50972657,POINT (9.39494352 45.50972657),alta
BRESCIA,MONTIRONE,BS114.0001,EX CAVA BONOMELLI,"VIA PEDRONA, 47",,smaltimenti non autorizzati - abbandono rifiuti,10.24726724,45.44208772,POINT (10.24726724 45.44208772),alta
MONZA E DELLA BRIANZA,CORNATE D ADDA,MI088.0004,Area Imm.re Villa Paradiso,"VIA VILLA PARADISO, 1",(*),attività minerarie o estrattive,9.48516865,45.64723131,POINT (9.48516865 45.64723131),alta
BRESCIA,CALCINATO,BS032.0001,DISCARICA ABUSIVA LOC. GAVARDINA,VIA GAVARDINA,,smaltimenti non autorizzati - abbandono rifiuti,10.39047775,45.47136289,POINT (10.39047775 45.47136289),alta
MILANO,MILANO,MI146.2291,Area di Piazza del Carmine,"PIAZZA DEL CARMINE, 4",,altri siti non meglio specificati,9.18544945,45.47042895,POINT (9.18544945 45.47042895),alta
MILANO,BRESSO,MI032.0005,NEMA Srl - Ex LOMBARDA TRASFORMATORI,"VIA GUGLIELMO MARCONI, 7",,aree industriali dismesse,9.1887056,45.53976155,POINT (9.1887056 45.53976155),alta
PAVIA,VALLE LOMELLINA,PV168.0001,Area S.I.F.,LOCALITA' STAZIONE,,aree industriali dismesse,8.66769012,45.15192622,POINT (8.66769012 45.15192622),alta
VARESE,LAVENO - MOMBELLO,VA087.0001,Area ex Ceramica Lago,VIA DE ANGELIS,(*),aree industriali dismesse,8.61781991,45.91113561,POINT (8.61781991 45.91113561),alta
MILANO,BARANZATE,MI250.0030,Società Dipharma Francis S.r.l.,"VIA BISSONE, 5",,aree industriali in attività,9.11620494,45.52049063,POINT (9.11620494 45.52049063),alta
MILANO,OPERA,MI159.0006,Centro Stoccaggio Rifiuti SVR,"VIA ROMAGNA, 19/21",,aree industriali dismesse,9.21585946,45.37094956,POINT (9.21585946 45.37094956),alta
LODI,CRESPIATICA,LO025.0002,BERETTA (EX FINITALIA),"VIA NINO DALL' ORO, 32",,aree industriali dismesse,9.57467607,45.35867126,POINT (9.57467607 45.35867126),alta
VARESE,COMABBIO,VA054.0002,AREA GLIMM SRL,"VIA BONGIASCA, 624",,aree industriali dismesse,8.67967637,45.77815872,POINT (8.67967637 45.77815872),alta
MILANO,MILANO,MI146.3866,VEAS S.R.L.,"VIA LODOVICO IL MORO, 81",,altri siti non meglio specificati,9.14170483,45.44464937,POINT (9.14170483 45.44464937),alta
MILANO,MILANO,MI146.1151,Area Ex Seis,"VIA CLETTO ARRIGHI, 19",,aree industriali dismesse,9.24898992,45.48282446,POINT (9.24898992 45.48282446),alta
LECCO,MOLTENO,LC051.0001,PV TAMOIL 6074,"VIALE LOMBARDIA, 12",,impianti di stoccaggio o adduzione carburanti,9.29288619,45.78240749,POINT (9.29288619 45.78240749),alta
VARESE,UBOLDO,VA130.0006,Area SICAD SpA (ex Contardo),"VIA CADUTI DELLA LIBERAZIONE, 57",,altri siti non meglio specificati,8.99400987,45.60265613,POINT (8.99400987 45.60265613),alta
BERGAMO,ALBINO,BG004.0003,Area lungo il fiume Serio,VIA ALESSANDRO PERTINI,(*),discariche abusive o incontrollate,9.81368137,45.76291977,POINT (9.81368137 45.76291977),alta
MONZA E DELLA BRIANZA,MONZA,MI149.0073,IMPIANTO DEPOSITO E SELEZIONE MATERIALI FERROSI,"VIA DELLA GUERRINA, 20",,impianti di stoccaggio rifiuti,9.3009007,45.58727015,POINT (9.3009007 45.58727015),alta
MILANO,MILANO,MI146.4255,AREA VIA COMPAGNONI,"VIA GIUSEPPE COMPAGNONI, 12",,aree industriali dismesse,9.22150489,45.46448195,POINT (9.22150489 45.46448195),alta
MILANO,RHO,MI182.0024,"Immob. EDERA S.r.l. e IPR, ex area ACNA, ex Chimica Bianchi","VIA MAGENTA, 77",,aree industriali in attività,9.03755483,45.52165925,POINT (9.03755483 45.52165925),alta
BERGAMO,ZANICA,BG245.0006,Area ex ditta Cavalleri,LOCALITA' PADERGNONE,,altri siti non meglio specificati,9.68755206,45.64069879,POINT (9.68755206 45.64069879),alta
MILANO,MILANO,MI146.2466,RESIDENCE GIANNINO - ex area artigianale,"VIA FRATELLI VIVARINI, 5",,altri siti non meglio specificati,9.18002007,45.43888174,POINT (9.18002007 45.43888174),alta
MILANO,BUCCINASCO,MI036.0010,"Area ""ex SOLFRENE"" - Area Posteggio",VIALE LOMBARDIA,,aree industriali dismesse,9.11971328,45.42145617,POINT (9.11971328 45.42145617),alta
MILANO,LEGNANO,MI118.0009,VOLONTERIO FEDELE S.R.L.,"VIA CADORE, 32",,aree industriali in attività,8.90443784,45.60514034,POINT (8.90443784 45.60514034),alta
COMO,COMO,CO075.0030,CONDOMINIO - Sversamento accidentale da serbatoi interrati,"VIA NAPO TORRIANI, 30/32",,rilasci accidentali o dolosi di sostanze,9.07972985,45.8066239,POINT (9.07972985 45.8066239),alta
MILANO,MILANO,MI146.4031,Area industriale dismessa,VIA TRILUSSA,,aree industriali dismesse,9.1366061,45.51427734,POINT (9.1366061 45.51427734),alta
MILANO,MILANO,MI146.4322,Area proprietà privata,"VIALE ABRUZZI, 42",,aree industriali dismesse,9.21724172,45.47916635,POINT (9.21724172 45.47916635),alta
MONZA E DELLA BRIANZA,CORREZZANA,MI092.0001,Antibioticos S.p.A.,"VIA LUIGI EINAUDI, 8",,aree industriali dismesse,9.30045323,45.6695882,POINT (9.30045323 45.6695882),alta
BRESCIA,FIESSE,BS071.0001,EX CAVE ROCCA - ABBANDONO RIFIUTI,LOCALITA' CASCINA PIAVE,,smaltimenti non autorizzati - abbandono rifiuti,10.3331522,45.22699537,POINT (10.3331522 45.22699537),bassa
MILANO,SAN GIULIANO MILANESE,MI195.0026,Ditta Zincheria Musso,"VIA LOMBARDIA, 15",,aree industriali in attività,9.25384194,45.39694217,POINT (9.25384194 45.39694217),alta
MILANO,TURBIGO,MI226.0001,"PRATI DELLA FOLLA, EX DISCARICA BAROZZA",LOCALITA' PRATI DELLA FOLLA S.N.C.,,aree di spagliamento reflui fognari,8.73391698,45.52387761,POINT (8.73391698 45.52387761),alta
LECCO,CALCO,LC012.0001,PV SHELL N. 12 DITTA C.P.P.,"VIA NAZIONALE, 5",,impianti di stoccaggio o adduzione carburanti,9.41586768,45.72449995,POINT (9.41586768 45.72449995),alta
MANTOVA,MARMIROLO,MN033.0007,Area ex cava La Ferranda,"STRADA SOAVE, 24",,altri siti non meglio specificati,10.75235735,45.21696674,POINT (10.75235735 45.21696674),alta
MILANO,VIMODRONE,MI242.0008,Area ex Cinema Astor,"VIA PIAVE,TURATI,PAPA GIOVANNI XXIII",(*),altri siti non meglio specificati,9.28720479,45.51454179,POINT (9.28720479 45.51454179),bassa
BERGAMO,ARDESIO,BG012.0001,LOC. PIÀ SPIS,LOC.PIA' SPIS,(*),rilasci accidentali o dolosi di sostanze,9.89684399,45.94016786,POINT (9.89684399 45.94016786),bassa
VARESE,CARAVATE,VA031.0002,AREA INDUSTRIALE EX INDA,"VIA XXV APRILE, 53",,aree industriali dismesse,8.6458065,45.87441805,POINT (8.6458065 45.87441805),alta
MILANO,MILANO,MI146.0438,P.V. SHELL 49344,"VIA SANTA RITA DA CASCIA, 2/4",,impianti di stoccaggio o adduzione carburanti,9.14821969,45.44234315,POINT (9.14821969 45.44234315),alta
BRESCIA,GARDONE VALTROMPIA,BS075.0003,FABBRICA PIETRO BERETTA SpA,"VIA PIETRO BERETTA, 2",,aree industriali in attività,10.18466124,45.69030369,POINT (10.18466124 45.69030369),alta
LODI,CORNEGLIANO LAUDENSE,LO021.0003,Area Soc. LIVIANA in prossimità roggia Codogna,VIA MARESCALCA,,altri siti non meglio specificati,9.4889619,45.29510605,POINT (9.4889619 45.29510605),alta
MILANO,CISLIANO,MI078.0004,OLEODOTTO ENI,LOCALITA' CASCINA MISCHIA S.P.114,,altri siti non meglio specificati,8.96808276,45.42685648,POINT (8.96808276 45.42685648),alta
VARESE,CARONNO PERTUSELLA,VA034.0009,DISCARICA ABUSIVA Rifiuti speciali,STRADA PODERALE IN FREGIO A S.P.N.16 (RHO-SARONNO),,discariche abusive o incontrollate,9.0456647,45.59569931,POINT (9.0456647 45.59569931),bassa
MILANO,MILANO,MI146.0357,Autoparco PRU LEONI/PIETRASANTA,"VIA POMPEO LEONI, 2-29",,aree industriali dismesse,9.19444033,45.4460136,POINT (9.19444033 45.4460136),alta
MILANO,MILANO,MI146.3495,PRELIOS SGR,"VIA GIACOMO MEDICI DEL VASCELLO, 14",,aree industriali dismesse,9.23888589,45.4426424,POINT (9.23888589 45.4426424),alta
MILANO,MILANO,MI146.2902,PIAZZA LUIGI DI SAVOIA,"PIAZZA LUIGI DI SAVOIA, 28/30",(*),impianti di stoccaggio o adduzione carburanti,9.20755705,45.48602655,POINT (9.20755705 45.48602655),alta
LODI,SANT ANGELO LODIGIANO,LO050.0007,AREA EX SINTERAMA - EX SAMADOVAL,VIALE ZARA ANGOLO VIA GARIBALDI,,aree industriali dismesse,9.40537335,45.24493774,POINT (9.40537335 45.24493774),alta
MILANO,ROZZANO,MI189.0050,AREA ECOLAB PRODUCTION ITALY,"VIA ACHILLE GRANDI, 9/11",,aree industriali in attività,9.17019469,45.38170495,POINT (9.17019469 45.38170495),alta
CREMONA,CREMONA,CR036.0014,Area ex Armaguerra,VIA CASTELLEONE,,aree industriali dismesse,10.00987279,45.14381435,POINT (10.00987279 45.14381435),alta
MILANO,MILANO,MI146.0221,EX ANSALDO- subarea 2,"VIALE SARCA, 336",(*),aree industriali dismesse,9.21448617,45.52564294,POINT (9.21448617 45.52564294),alta
SONDRIO,VALDIDENTRO,SO071.0004,Area in località Pecè,VIA LUNGO VIOLA,,altri siti non meglio specificati,10.29909487,46.48867362,POINT (10.29909487 46.48867362),alta
BERGAMO,BERGAMO,BG024.0043,NUOVO ISTITUTO ITALIANO ARTI GRAFICHE,VIA PER ZANICA,,aree industriali in attività,9.6732206,45.68626323,POINT (9.6732206 45.68626323),alta
MILANO,CORBETTA,MI085.0005,SOCIETÀ LATTUADA GIUSEPPE & FIGLI,VIA SAN SEBASTIANO,,aree industriali dismesse,8.9179149,45.46633398,POINT (8.9179149 45.46633398),alta
MILANO,COLOGNO MONZESE,MI081.0014,PV 4038 TOTAL FINA ELF - COLOGNO EST,TANGENZIALE EST,(*),impianti di stoccaggio o adduzione carburanti,9.26320598,45.53274767,POINT (9.26320598 45.53274767),alta
BERGAMO,MOZZANICA,BG142.0002,ROHM AND HAAS ITALIA SRL,STRADA STATALE 11,,aree industriali in attività,9.6899234,45.47977665,POINT (9.6899234 45.47977665),alta
MILANO,MILANO,MI146.4150,FABRICA IMMOBILIARE MILANO S.G.R. (EX SIEROTERAPICO)- RIMOZIONE SERBATOI,VIA SEGANTINI/LIGURIA 64,,aree industriali dismesse,9.16822409,45.4439417,POINT (9.16822409 45.4439417),alta
MILANO,MILANO,MI146.4247,AREA VIA SOMALIA 3,"VIA SOMALIA, 3",,aree industriali dismesse,9.14170913,45.49350649,POINT (9.14170913 45.49350649),alta
BRESCIA,ORZINUOVI,BS125.0003,AREA INDUSTRIALE NUOVA ODO SPA,"VIALE FRANCESCO CRISPI, 3",,aree industriali in attività,9.92664381,45.40203166,POINT (9.92664381 45.40203166),alta
MILANO,MILANO,MI146.3131,AREA DI VIA ADRIANO (ALER),"VIA PUBLIO ELIO ADRIANO, 60",,serbatoi carburante per riscaldamento,9.24640957,45.51222803,POINT (9.24640957 45.51222803),alta
MONZA E DELLA BRIANZA,VIMERCATE,MI241.0002,CAVA BRIOSCHI,VIA DEL BURAGHINO,,smaltimenti non autorizzati - abbandono rifiuti,9.37143766,45.60401879,POINT (9.37143766 45.60401879),alta
MILANO,SETTIMO MILANESE,MI211.0008,AREA DI PROPRIETA' IMMOBILIARE SETTIMO PORDOI S.r.l.,"VIA PORDOI, 9",(*),,9.06477208,45.48693661,POINT (9.06477208 45.48693661),alta
MILANO,MILANO,MI146.1448,"SCUOLE COMUNALI, DISMISSIONE SERBATOIO","PIAZZA SAN GIUSEPPE, 10",,,9.206064,45.5267131,POINT (9.206064 45.5267131),alta
PAVIA,CODEVILLA,PV051.0002,DEPOSITO OLI MINERALI sversamento,"VIA TORRAZZA COSTE, 21",,impianti di stoccaggio o adduzione carburanti,9.06043714,44.96728268,POINT (9.06043714 44.96728268),alta
MILANO,SENAGO,MI206.0005,CONDOMINIO - Sversamento accidentale da serbatoi interrati,"VIA VINCENZO BELLINI, 6",(*),rilasci accidentali o dolosi di sostanze,9.10640657,45.57443481,POINT (9.10640657 45.57443481),alta
MONZA E DELLA BRIANZA,BIASSONO,MI023.0005,Area di Via Garibaldi,"VIA GIUSEPPE GARIBALDI, 13",,aree industriali dismesse,9.26967607,45.63109188,POINT (9.26967607 45.63109188),alta
VARESE,LONATE POZZOLO,VA090.0009,CANTIERE EX TESSITURA SOLBIATI,VIA GIORDANO E GIOVANNI GIASSI,,aree industriali dismesse,8.75866532,45.58682316,POINT (8.75866532 45.58682316),alta
VARESE,VARESE,VA133.0039,Azienda agricola,"VIA VETTA D' ITALIA, 40",,smaltimenti non autorizzati - abbandono rifiuti,8.85996732,45.82534785,POINT (8.85996732 45.82534785),alta
MILANO,BINASCO,MI024.0011,AREA EX MACELLO,"VIA BINASCO, 76",,aree industriali dismesse,9.10410479,45.3320926,POINT (9.10410479 45.3320926),bassa
MILANO,MILANO,MI146.4181,AREA DI PROPRIETÀ COMUNALE ISTITUTO IC BORSI,"VIA MATILDE VISCONTINI, 7",,serbatoi carburante per riscaldamento,9.105601,45.4915505,POINT (9.105601 45.4915505),alta
BRESCIA,REZZATO,BS161.0003,Cromatura Staff,"VIA PIETRO GOBETTI, 9/11",,aree industriali in attività,10.30906036,45.5215663,POINT (10.30906036 45.5215663),alta
VARESE,SARONNO,VA119.0049,AREA EX PARMA E FIGLI,"VIA GUGLIELMO MARCONI, 75",,aree industriali dismesse,9.04247769,45.62385885,POINT (9.04247769 45.62385885),alta
MILANO,RHO,MI182.0100,ARKEMA SRL,"VIA PREGNANA, 63",,,9.03077051,45.52436753,POINT (9.03077051 45.52436753),alta
PAVIA,PAVIA,PV110.0002,Area di via Marconi,"VIA GUGLIELMO MARCONI, 1",(*),rilasci accidentali o dolosi di sostanze,9.16115414,45.19311229,POINT (9.16115414 45.19311229),alta
COMO,COMO,CO075.0065,AREA EX. TINTORIA LOMBARDA - ALER,VIA GABRIELE CASTELLINI,,aree industriali dismesse,9.09043767,45.79756491,POINT (9.09043767 45.79756491),alta
MILANO,LACCHIARELLA,MI115.0003,"SIGEMI, IMPIANTO STOCCAGGIO- CASCINA CROCINA",S.P.N.40 KM 4+700,,impianti di stoccaggio o adduzione carburanti,9.15759075,45.31805198,POINT (9.15759075 45.31805198),bassa
VARESE,FAGNANO OLONA,VA067.0004,Sversamento di idrocarburi nel Fiume Olona,VIA CRISTOFORO COLOMBO,(*),rilasci accidentali o dolosi di sostanze,8.87952923,45.66932736,POINT (8.87952923 45.66932736),alta
COMO,LUISAGO,CO135.0009,LUISAGO FILTEX,"VIA LUIGI GALVANI, 3",,aree industriali in attività,9.0396239,45.76173389,POINT (9.0396239 45.76173389),alta
BERGAMO,CIVIDATE AL PIANO,BG076.0001,ditta Nuova L.G.Z. srl,LOCALITA' CASCINA BOSCO,,aree industriali dismesse,9.83829018,45.54505528,POINT (9.83829018 45.54505528),alta
MONZA E DELLA BRIANZA,NOVA MILANESE,MI156.0001,ex CROMOTECNICA,"VIA SILVIO PELLICO, 4",,aree industriali dismesse,9.20468747,45.59168275,POINT (9.20468747 45.59168275),alta
MILANO,SESTO SAN GIOVANNI,MI209.0028,SOCIETA' E.C.I.S. S.R.L. LOTTO 2SS4 CIMEP,VIA MANTOVA-PACE-MILANO,(*),smaltimenti non autorizzati - abbandono rifiuti,9.24363649,45.52813116,POINT (9.24363649 45.52813116),alta
PAVIA,TRIVOLZIO,PV163.0002,SVERSAMENTO IDROCARBURI DA EFFRAZIONE OLEODOTTO ENI,AREA AGRICOLA,,rilasci accidentali o dolosi di sostanze,9.0467845,45.26208137,POINT (9.0467845 45.26208137),bassa
MILANO,MAGNAGO,MI131.0009,AREA FOCREM,"VIA ARTURO TOSCANINI, 4",,aree industriali dismesse,8.78473244,45.57099579,POINT (8.78473244 45.57099579),alta
BERGAMO,BERGAMO,BG024.0020,EX TINTORIA OROBICA,"VIA FRATELLI ROTA, 14",(*),aree industriali dismesse,9.6316676,45.6941006,POINT (9.6316676 45.6941006),alta
VARESE,CASTELLANZA,VA042.0018,PERSTORP SPA,"VIA DEL SEMPIONE, 13",,aree industriali in attività,8.88163056,45.61580483,POINT (8.88163056 45.61580483),alta
MANTOVA,BORGO VIRGILIO,MN005.0008,"P.V. ESSO 1280, S.S. 62 km 169+966","VIA AL FORTE, 8/A",,impianti di stoccaggio o adduzione carburanti,10.75430595,45.05422264,POINT (10.75430595 45.05422264),alta
MANTOVA,MANTOVA,MN030.0025,Area CLAIPA,"VIA SANTA MARTA, 15",,aree industriali dismesse,10.80050508,45.15091337,POINT (10.80050508 45.15091337),alta
MILANO,ABBIATEGRASSO,MI002.0006,Ex-DISCARICA Comunale RSU (area ex-depuratore),LOCALITA' CASCINA FONTANA,,discariche autorizzate,8.9012808,45.34209723,POINT (8.9012808 45.34209723),bassa
MILANO,MILANO,MI146.4282,IMMOBILE USO RESIDENZIALE,"VIA LORENTEGGIO, 181-183",,altri siti non meglio specificati,9.1308578,45.44803589,POINT (9.1308578 45.44803589),alta
MILANO,MILANO,MI146.0310,ex PLATING PLAST - PROPRIETA' IMMOBILIARE FRANTO SRL,"VIA SAN FAUSTINO, 44",,aree industriali dismesse,9.24179799,45.47375744,POINT (9.24179799 45.47375744),alta
BERGAMO,CASTELLI CALEPIO,BG062.0002,"Faini Bigiotteria Porto, ROTOGALVANO SNC, ERGA S.P.A.GRUPPO ENEL",LOCALITA' PORTO,,altri siti non meglio specificati,9.91495269,45.64861307,POINT (9.91495269 45.64861307),alta
BERGAMO,BERGAMO,BG024.0078,AREA VIA BRONZETTI 20,"VIA FRATELLI BRONZETTI, 20",(*),aree industriali dismesse,9.68708157,45.70301586,POINT (9.68708157 45.70301586),alta
MILANO,PESCHIERA BORROMEO,MI171.0025,EX NUOVA THERMO PHOENIX SRL,"VIA IV NOVEMBRE, 19",,,9.2827533,45.44103674,POINT (9.2827533 45.44103674),alta
LODI,LODI,LO031.0036,AREA EX SICC - SETTORE DI PROPRIETÀ COMUNALE,VIA PIETRO FERRABINI,,aree industriali dismesse,9.50932754,45.32141507,POINT (9.50932754 45.32141507),alta
MILANO,CORMANO,MI086.0031,Stabilimento Nexans Wires,"VIA DEL LAVORO, 12",,aree industriali dismesse,9.15724125,45.55181149,POINT (9.15724125 45.55181149),alta
BERGAMO,GORLE,BG115.0001,Ex FARMOL S.P.A. E FERRETTICASA,VIA MONTE BIANCO,(*),aree industriali dismesse,9.71312989,45.69396363,POINT (9.71312989 45.69396363),alta
MILANO,TREZZANO SUL NAVIGLIO,MI220.0041,AREA EX CARTERIA,VIA MARCHESINA,,aree industriali dismesse,9.07271685,45.4189626,POINT (9.07271685 45.4189626),alta
BERGAMO,BERGAMO,BG024.0103,P.V. Q8 N. 1467,"VIA GIOSUE' CARDUCCI, 4",,impianti di stoccaggio o adduzione carburanti,9.66095155,45.68777818,POINT (9.66095155 45.68777818),alta
MILANO,MILANO,MI146.4289,INFRASTRUTTURE LOMBARDE,"VIA GIAMBELLINO, 150",,altri siti non meglio specificati,9.13083275,45.4449875,POINT (9.13083275 45.4449875),alta
COMO,LUISAGO,CO135.0003,P.V. ERG CO211 - RIMOZIONE SERBATOI,VIA RISORGIMENTO-SS DEI GIOVI,,impianti di stoccaggio o adduzione carburanti,9.05215403,45.76025199,POINT (9.05215403 45.76025199),alta
MILANO,SOLARO,MI213.0016,DISCARICA SNIA,,,discariche abusive o incontrollate,9.0805429,45.61489106,POINT (9.0805429 45.61489106),bassa
MONZA E DELLA BRIANZA,SEREGNO,MB039.0007,AREA VIA MONTELLO (EX SOMASCHINI),VIA MONTELLO-MONTE NERO,,impianti di stoccaggio o adduzione carburanti,9.21539089,45.64892176,POINT (9.21539089 45.64892176),alta
MILANO,CERRO MAGGIORE,MI072.0014,EX CROMOS TNF SPA,S.S.BUSTESE 527,,aree industriali dismesse,8.9639566,45.57860073,POINT (8.9639566 45.57860073),bassa
MILANO,MILANO,MI146.3280,AREA VIA DEI CANZI 18,"VIA DEI CANZI, 18",,aree industriali dismesse,9.24276367,45.47919631,POINT (9.24276367 45.47919631),alta
BRESCIA,DARFO BOARIO TERME,BS065.0004,EX AREA INDUSTRIALE ITALSIDER,"VIA AGOSTINO BONARA, 12",,aree industriali in attività,10.17946374,45.88458226,POINT (10.17946374 45.88458226),alta
MILANO,MILANO,MI146.4330,EX POLIGONO TIRO A SEGNO NAZIONALE,"PIAZZALE FRANCESCO ACCURSIO, 21",,altri siti non meglio specificati,9.14437877,45.4929623,POINT (9.14437877 45.4929623),alta
MILANO,MILANO,MI146.3860,AREA VIA GALLARATE,"VIA GALLARATE, 430",(*),serbatoi carburante per riscaldamento,9.10290084,45.5055335,POINT (9.10290084 45.5055335),alta
PAVIA,SPESSA,PV152.0001,ex Stabilimento RIVOL,LOCALITA' SOSTEGNO,,aree industriali dismesse,9.33095425,45.12444619,POINT (9.33095425 45.12444619),bassa
VARESE,LUINO,VA092.0012,AREA SEGRADA ETTORE,"VIA DUMENZA, 20",,smaltimenti non autorizzati - abbandono rifiuti,8.75894065,46.0104005,POINT (8.75894065 46.0104005),alta
MILANO,SESTO SAN GIOVANNI,MI209.0061,AREA SACRI,"VIA CADORE, 38",,aree industriali dismesse,9.25909326,45.54816016,POINT (9.25909326 45.54816016),alta
MONZA E DELLA BRIANZA,BRUGHERIO,MI034.0002,MAGNAGHI AEROSPACE SPA,"VIA SAN MAURIZIO AL LAMBRO, 27",,aree industriali in attività,9.29109949,45.54757809,POINT (9.29109949 45.54757809),alta
PAVIA,BORGO SAN SIRO,PV018.0001,"SARPI METALLI, COMETAL SRL",CASCINA CASON POLO,(*),aree industriali dismesse,8.93608952,45.24166341,POINT (8.93608952 45.24166341),alta
BRESCIA,LONATO DEL GARDA,BS092.0001,DISCARICA TRIVELLINO,LOCALITA' TRIVELLINO,,discariche abusive o incontrollate,10.46937959,45.44923111,POINT (10.46937959 45.44923111),alta
MILANO,BOLLATE,MI027.0078,PV ENI N. 2157,VIA IV NOVEMBRE,,impianti di stoccaggio o adduzione carburanti,9.11867035,45.54195974,POINT (9.11867035 45.54195974),alta
VARESE,SOLBIATE OLONA,VA122.0009,EX FONDERIA BIANCHI & NIPOTI SRL,"VIA CESARE BATTISTI, 73",,aree industriali dismesse,8.88283885,45.65919203,POINT (8.88283885 45.65919203),alta
MILANO,BUSTO GAROLFO,MI041.0008,Ditta Rimoldi Necchi srl,"VIA MONTEBELLO, 33",,aree industriali dismesse,8.85427974,45.5546309,POINT (8.85427974 45.5546309),alta
CREMONA,ANNICCO,CR003.0002,P.V. 2091 - TAMOIL,"PIAZZA GIUSEPPE GARIBALDI, 2",,impianti di stoccaggio o adduzione carburanti,9.88236745,45.2438382,POINT (9.88236745 45.2438382),alta
MILANO,MILANO,MI146.4203,IMMOBILE DI PROPRIETÀ SOCIETÀ LOFT INN SRL,"VIA GIUSEPPE MEDA, 25",,aree industriali dismesse,9.1789632,45.44284469,POINT (9.1789632 45.44284469),alta
MILANO,MILANO,MI146.0947,Area di Via Chiesa Rossa - Sversamento,"VIA DELLA CHIESA ROSSA, 267",,rilasci accidentali o dolosi di sostanze,9.16323454,45.41329275,POINT (9.16323454 45.41329275),alta
BRESCIA,TRENZANO,BS190.0003,TOTAL-ERG PV N. NI004193,"VIA VITTORIO VENETO MATTINA, 43",,impianti di stoccaggio o adduzione carburanti,10.01997031,45.47798688,POINT (10.01997031 45.47798688),alta
PAVIA,LARDIRAGO,PV080.0001,Corso d'acqua superficiale in fregio alla S.P. 2/sottosuolo,"VIA PER MELEGNANO, 2",,rilasci accidentali o dolosi di sostanze,9.2520508,45.24237643,POINT (9.2520508 45.24237643),bassa
VARESE,GALLARATE,VA070.0048,AREA VIA PUGLIA/VIA FILZI,VIA PUGLIA/FILZI,,altri siti non meglio specificati,8.79796871,45.64964117,POINT (8.79796871 45.64964117),alta
MILANO,MILANO,MI146.4266,AREA VIA VERRO,"VIA BERNARDINO VERRO, 43/A",,aree industriali dismesse,9.19279929,45.43860834,POINT (9.19279929 45.43860834),alta
MILANO,PARABIAGO,MI168.0036,STABILIMENTO RANCILIO,"VIA DELLA REPUBBLICA, 40",,aree industriali in attività,8.95090936,45.53400029,POINT (8.95090936 45.53400029),alta
SONDRIO,ALBOSAGGIA,SO002.0002,AREA VIA MARINI,VIA MARINI,,altri siti non meglio specificati,9.8313809,46.15040572,POINT (9.8313809 46.15040572),alta
COMO,OLTRONA DI SAN MAMETTE,CO169.0002,DITTA STAR SPA,"VIA CARLO DOMINIONI, 2",,aree industriali dismesse,8.97018809,45.75781866,POINT (8.97018809 45.75781866),alta
BERGAMO,BERGAMO,BG024.0131,CONSORZIO DI BONIFICA DELLA MEDIA PIANURA BERGAMASCA - VASCA DI LAMINAZIONE,VIA ASTINO,,altri siti non meglio specificati,9.64589857,45.7064377,POINT (9.64589857 45.7064377),alta
MILANO,MEDIGLIA,MI139.0009,MAPEI - parco serbatoi,S.P.SP 159 1,,aree industriali in attività,9.34159255,45.41167773,POINT (9.34159255 45.41167773),bassa
VARESE,BRUNELLO,VA023.0001,AREA INDUSTRIALE CBM s.r.l.. - CLS s.r.l.,VIA CAMPO DI MAGGIO,,aree industriali in attività,8.80217576,45.76792617,POINT (8.80217576 45.76792617),alta
BERGAMO,COSTA VOLPINO,BG086.0001,Ex DISCARICA DI SCORIE ACCIAIERIE PISOGNE,LOCALITA' PIZZO,,discariche abusive o incontrollate,10.10217025,45.81269758,POINT (10.10217025 45.81269758),alta
BRESCIA,BOVEZZO,BS025.0001,Area SLM/ex Stefana,"VIA CONICCHIO, 42",,aree industriali dismesse,10.24945944,45.59953615,POINT (10.24945944 45.59953615),bassa
MILANO,MILANO,MI146.1059,GUSTI OFFICINE,"VIA CESARE AJRAGHI, 30",(*),aree industriali dismesse,9.14817532,45.49724183,POINT (9.14817532 45.49724183),alta
MANTOVA,BAGNOLO SAN VITO,MN003.0008,STAZIONE SERVIZIO ESSO 12A6 LOCALITÀ SAN BIAGIO,S.S.413,,impianti di stoccaggio o adduzione carburanti,10.89801695,45.0762976,POINT (10.89801695 45.0762976),bassa
MONZA E DELLA BRIANZA,MONZA,MB033.0070,AREA DI V.LE FOSCOLO,"VIALE UGO FOSCOLO, 45",,aree industriali dismesse,9.28904311,45.57660451,POINT (9.28904311 45.57660451),alta
VARESE,CASALE LITTA,VA036.0002,RIMOZIONE SERBATOI PRESSO EX AZIENDA AGRICOLA,,,serbatoi carburante per riscaldamento,8.7339871,45.75885658,POINT (8.7339871 45.75885658),bassa
MILANO,MAGNAGO,MI131.0001,EX VASCHE DI SPAGLIAMENTO FOGNATURA COMUNALE,,,,8.80930319,45.58020735,POINT (8.80930319 45.58020735),bassa
MILANO,ABBIATEGRASSO,MI002.0038,PV FREMAR LATO DESTRO,VIALE PAPA PAOLO VI,,impianti di stoccaggio o adduzione carburanti,8.91996124,45.40121989,POINT (8.91996124 45.40121989),alta
BRESCIA,PUEGNAGO SUL GARDA,BS158.0003,CASCINA DOSSO,VIA DOSSO,,rilasci accidentali o dolosi di sostanze,10.52034021,45.57640064,POINT (10.52034021 45.57640064),alta
LECCO,LECCO,LC042.0029,EX PAGANI,VIA BELFIORE,,aree industriali dismesse,9.40531418,45.85208482,POINT (9.40531418 45.85208482),alta
MANTOVA,CASTEL D ARIO,MN014.0002,AREA AGRICOLA,"VIA G. CARAZZA, 4",,altri siti non meglio specificati,10.97743379,45.18458766,POINT (10.97743379 45.18458766),alta
MILANO,MILANO,MI146.0420,"Ex Calchi e Taeggi e Carmagnani, ex cava Geregnano tra le vie: Lorenteggio, Gonin, Giordani e Bisceglie",VIE CALCHI TAEGGI/BISCEGLIE,,discariche abusive o incontrollate,9.10897015,45.45321424,POINT (9.10897015 45.45321424),alta
BERGAMO,MOZZANICA,BG142.0003,EX CAVA BERGAMINI,STRADA STATALE 11,,discariche abusive o incontrollate,9.6899234,45.47977665,POINT (9.6899234 45.47977665),alta
MANTOVA,SERRAVALLE A PO,MN062.0003,SE.PRE. SVERSAMENTO RIFIUTI LIQUIDI DA CISTERNETTE,"VIA MANTOVANA, 57",,rilasci accidentali o dolosi di sostanze,11.07695258,45.06456624,POINT (11.07695258 45.06456624),alta
BERGAMO,TREVIGLIO,BG219.0026,AREE ESTERNE BASLINI,VIA DI MEZZO,(*),altri siti non meglio specificati,9.58520442,45.51833767,POINT (9.58520442 45.51833767),alta
LODI,LODI VECCHIO,LO032.0003,TRELLEBORG - EX REEVES ITALIA S.P.A.,STRADA PROVINCIALE 140,,aree industriali in attività,9.41225351,45.30727236,POINT (9.41225351 45.30727236),alta
BERGAMO,BREMBATE,BG037.0002,ex D.I.M.,"VIA GRIGNANO, 33",(*),smaltimenti non autorizzati - abbandono rifiuti,9.55157917,45.60881859,POINT (9.55157917 45.60881859),alta
LECCO,BULCIAGO,LC011.0001,HONEYWELL TEVA P. F. C. SRL,STRADA BRIANTEA KM 36 N83,,aree industriali in attività,9.29876199,45.75269855,POINT (9.29876199 45.75269855),alta
MILANO,MILANO,MI146.1807,PII Area ex parcheggio Innocenti,"VIA RAFFAELE RUBATTINO, 84",,aree industriali dismesse,9.25673528,45.47837754,POINT (9.25673528 45.47837754),alta
VARESE,RANCO,VA116.0001,CAMPO SPORTIVO COMUNALE,FRAZIONE UPONNE,,smaltimenti non autorizzati - abbandono rifiuti,8.58685349,45.79117054,POINT (8.58685349 45.79117054),alta
MILANO,MILANO,MI146.2802,ACI - P.V. BARACCA/TOTI,PIAZZALE FRANCESCO BARACCA,,impianti di stoccaggio o adduzione carburanti,9.16614825,45.4664205,POINT (9.16614825 45.4664205),alta
COMO,CAPIAGO INTIMIANO,CO043.0002,DISMISSIONE SERBATOI INTERRATI Ex P.V. Q8 1482,"CORSO ARIBERTO DA INTIMIANO, 34",(*),impianti di stoccaggio o adduzione carburanti,9.13036604,45.76367692,POINT (9.13036604 45.76367692),alta
MONZA E DELLA BRIANZA,CARATE BRIANZA,MI048.0002,AREA DITTA OPTIMA S.r.l.,"VIA TAGLIAMENTO, 43",(*),aree industriali in attività,9.24650807,45.66815645,POINT (9.24650807 45.66815645),alta
MONZA E DELLA BRIANZA,VAREDO,MI231.0003,"EX SNIA (AREA NORD, STABILIMENTO)",STRADA STATALE 35 DEI GIOVI,,aree industriali dismesse,9.17323895,45.59120695,POINT (9.17323895 45.59120695),alta
COMO,FINO MORNASCO,CO102.0006,COGNIS S.P.A - BASF Italia s.p.a.- CON COMUNE DI CASSINA RIZZARDI,"VIA GIOVAN BATTISTA SCALABRINI, 34",,aree industriali in attività,9.03996319,45.743572,POINT (9.03996319 45.743572),alta
MILANO,MILANO,MI146.4337,"AREA EX RICHARD GINORI, VIA MORIMONDO 26 - RED BRICK BLOCK MAPP.76, FG.515","VIA MORIMONDO, 26",,aree industriali dismesse,9.1494002,45.44420069,POINT (9.1494002 45.44420069),alta
MILANO,MILANO,MI146.0372,GRUPPO DOLLMAR & C,"VIA BARONA, 31",,aree industriali dismesse,9.15130414,45.43444953,POINT (9.15130414 45.43444953),alta
MILANO,ABBIATEGRASSO,MI002.0007,Area Impianto di Termodistruzione Comunale,VIA FILIPPO MARIA VISCONTI,,impianti di stoccaggio rifiuti,8.94999262,45.39777087,POINT (8.94999262 45.39777087),alta
MILANO,CINISELLO BALSAMO,MI077.0104,AREA VIA MARCHE/VIALE EMILIA,"VIALE MARCHE, 1",,aree industriali dismesse,9.2259367,45.54830064,POINT (9.2259367 45.54830064),alta
MILANO,NERVIANO,MI154.0031,EX GARBOLI REP,VIA LOUIS PASTEUR,,aree industriali dismesse,8.98786254,45.5468551,POINT (8.98786254 45.5468551),alta
LECCO,BARZAGO,LC005.0003,EX P.V. Q8 - KUWAIT PETROLEUM SPA,"STRADA STATALE BRIANTEA, 29",,impianti di stoccaggio o adduzione carburanti,9.32716746,45.75038008,POINT (9.32716746 45.75038008),alta
MILANO,PESCHIERA BORROMEO,MI171.0001,DEPOSITO HUB EX AGIP PETROLI B,LOCALITA' AEROPORTO DI LINATE,,impianti di stoccaggio o adduzione carburanti,9.27207334,45.44535786,POINT (9.27207334 45.44535786),alta
LODI,GUARDAMIGLIO,LO029.0001,AREA DISMESSA EX ECOPROGRAM S.R.L.,LOCALITA' CASCINA CAMPO TRAVERSI,,aree industriali dismesse,9.6579904,45.11259032,POINT (9.6579904 45.11259032),alta
MILANO,MILANO,MI146.2606,AREA Corso di P.TA TICINESE,"CORSO DI PORTA TICINESE, 32",,aree industriali dismesse,9.1809546,45.45792602,POINT (9.1809546 45.45792602),alta
PAVIA,SAN MARTINO SICCOMARIO,PV137.0003,P.V. TOTAL 1142,STRADA PROVINCIALE 596 DEI CAIROLI,,impianti di stoccaggio o adduzione carburanti,9.09365931,45.15653258,POINT (9.09365931 45.15653258),alta
BRESCIA,CASTENEDOLO,BS043.0010,ESSO PV 1009,"VIA GIACOMO MATTEOTTI, 187/A",,impianti di stoccaggio o adduzione carburanti,10.30252424,45.4683745,POINT (10.30252424 45.4683745),alta
LECCO,VERCURAGO,LC086.0001,EX AREA SA.FI.LO,"VIA PIRELLI, 1",,aree industriali dismesse,9.42677965,45.81152874,POINT (9.42677965 45.81152874),bassa
BRESCIA,GARDONE VALTROMPIA,BS075.0006,Galvanotechnik s.r.l.,"VIA VALTROMPIA, 29",,aree industriali in attività,10.19495385,45.69911799,POINT (10.19495385 45.69911799),alta
MILANO,MILANO,MI146.3658,AREA AMSA,"VIA OLGETTINA, 25-35",,discariche autorizzate,9.26712114,45.51084041,POINT (9.26712114 45.51084041),alta
VARESE,TERNATE,VA126.0001,WHIRPOOL EUROPE srl,LOCALITA' CASSINETTA-BIANDRONNO,,aree industriali in attività,8.6978141,45.7864518,POINT (8.6978141 45.7864518),bassa
MILANO,BUBBIANO,MI035.0003,PETROLCHIMICA ITALIANA,VIA CESARE CAVALLOTTI,,aree industriali dismesse,9.01559999,45.32692524,POINT (9.01559999 45.32692524),alta
MILANO,MILANO,MI146.4304,AREA DI VIA SAN FAUSTINO,"VIA SAN FAUSTINO, 65",,aree industriali dismesse,9.24232099,45.4773539,POINT (9.24232099 45.4773539),alta
PAVIA,BRONI,PV024.0010,Sversamento accidentale,AUTOSTRADA PIAZZOLA AUTOSTRADA A21-KM 122 DIREZIONE TORINO,,rilasci accidentali o dolosi di sostanze,9.24543775,45.06946449,POINT (9.24543775 45.06946449),bassa
BERGAMO,VERDELLINO,BG232.0005,CDS Azienda Galvanica,"VIA LISBONA, 20",,aree industriali dismesse,9.60918347,45.59300934,POINT (9.60918347 45.59300934),alta
MILANO,BUCCINASCO,MI036.0012,Soc.Primavera,"VIA FRATELLI CERVI, 6",,aree industriali dismesse,9.1227568,45.4200834,POINT (9.1227568 45.4200834),alta
PAVIA,PAVIA,PV110.0005,EX NECA,"VIA LUIGI ROBECCHI BRICHETTI, 7",,aree industriali dismesse,9.14240715,45.18795857,POINT (9.14240715 45.18795857),alta
VARESE,GAZZADA SCHIANNO,VA073.0007,PV Q8 1683 (MARES SRL),"VIA ROMA, 17",,impianti di stoccaggio o adduzione carburanti,8.82465239,45.78114721,POINT (8.82465239 45.78114721),alta
MILANO,MILANO,MI146.2363,PV IP 43873,"VIA PAOLO REMBRANDT, 25",,impianti di stoccaggio o adduzione carburanti,9.1364254,45.46737066,POINT (9.1364254 45.46737066),alta
MILANO,MILANO,MI146.0979,AREA EX COSTANTE SESINO S.p.A.,"VIA DOBERDO', 28",(*),aree industriali dismesse,9.22311802,45.51923287,POINT (9.22311802 45.51923287),alta
MONZA E DELLA BRIANZA,LIMBIATE,MI121.0008,Europeir S.r.l. - Area 1,VIE SALERNO-PO,,attività minerarie o estrattive,9.13508816,45.60649775,POINT (9.13508816 45.60649775),alta
BRESCIA,PISOGNE,BS143.0002,EX COMPLESSO INDUSTRIALE - METAL FRA S.R.L.,"VIA MILANO, 20",,aree industriali dismesse,10.1076378,45.81281235,POINT (10.1076378 45.81281235),alta
MILANO,CORSICO,MI093.0003,P.V. ESSO 0426,"VIA MILANO, 7/9",(*),altri siti non meglio specificati,9.11274784,45.43543165,POINT (9.11274784 45.43543165),alta
MILANO,SAN ZENONE AL LAMBRO,MI202.0002,"P.V. ESSO 0502, A.d.s. San Zenone Est autostrada A1-ROC. MI S.r.l.",AUTOSTRADA A1 BO-MI KM 15+100,,impianti di stoccaggio o adduzione carburanti,9.36701505,45.30588025,POINT (9.36701505 45.30588025),bassa
MANTOVA,ASOLA,MN002.0001,FLUCOSIT - EX AREA INDUSTRIALE,STRADA PROVINCIALE 68,,aree industriali dismesse,10.45885912,45.24149082,POINT (10.45885912 45.24149082),alta
BERGAMO,ROMANO DI LOMBARDIA,BG183.0006,EXIDE TECHNOLOGIES - AREA EX BARACCHE,"VIALE DANTE ALIGHIERI, 100",,aree industriali in attività,9.74625646,45.52769515,POINT (9.74625646 45.52769515),alta
MILANO,PADERNO DUGNANO,MI166.0053,P.V. ESSO N. 0324 PADERNO DUGNANO,"VIA CARLO ERBA, 14",,impianti di stoccaggio o adduzione carburanti,9.19066324,45.57060429,POINT (9.19066324 45.57060429),alta
VARESE,CARONNO PERTUSELLA,VA034.0002,EX SITAI INOX S.r.l.,"VIA ASIAGO, 244",,aree industriali dismesse,9.03844279,45.59934132,POINT (9.03844279 45.59934132),alta
MILANO,SEGRATE,MI205.0069,AREA MERCITALIA,"VIA RIVOLTANA, 50/A",,,9.29609351,45.47696139,POINT (9.29609351 45.47696139),alta
MILANO,TURBIGO,MI226.0038,STAZIONE SOLLEVAMENTO,"VIA NOVARA, 47",,aree industriali in attività,8.72718949,45.52052589,POINT (8.72718949 45.52052589),alta
LECCO,CALOLZIOCORTE,LC013.0016,PARCO VIA DI VITTORIO,VIA GIUSEPPE DI VITTORIO,(*),altri siti non meglio specificati,9.43630502,45.79311294,POINT (9.43630502 45.79311294),alta
MANTOVA,CASTIGLIONE DELLE STIVIERE,MN017.0016,AUTOLAVAGGIO DITTA BERTANI TRASPORTI SpA,"VIA CONTE CAMILLO BENSO DI CAVOUR, 58",,aree industriali in attività,10.47993537,45.39003444,POINT (10.47993537 45.39003444),alta
VARESE,BESNATE,VA012.0008,AREA VIA TOSCANINI,VIA ARTURO TOSCANINI,,discariche abusive o incontrollate,8.76683533,45.69379125,POINT (8.76683533 45.69379125),alta
MILANO,MILANO,MI146.0644,PRU Pompeo Leoni/Pietrasanta area ex Pirelli,"VIA GIUSEPPE RIPAMONTI, 88",,aree industriali dismesse,9.19888259,45.44296056,POINT (9.19888259 45.44296056),alta
BRESCIA,MONTICELLI BRUSATI,BS112.0001,ERCOS SPA,VIA BRESCIA,,aree industriali dismesse,10.0972065,45.63444101,POINT (10.0972065 45.63444101),bassa
MONZA E DELLA BRIANZA,MONZA,MI149.0053,AREA DI VIA BLANDORIA,VIA DELLA BLANDORIA,,aree agricole oggetto di spandimento incontrollato,9.29421283,45.59543152,POINT (9.29421283 45.59543152),alta
MILANO,CORSICO,MI093.0035,AREA EX BURGO,VIA GUGLIELMO OBERDAN,,aree industriali dismesse,9.1049818,45.4304389,POINT (9.1049818 45.4304389),alta
BRESCIA,BAGNOLO MELLA,BS009.0004,Ex Consorzio agrario fabbrica concimi,"VIA GUGLIELMO MARCONI, 22",,aree industriali dismesse,10.18109194,45.42638625,POINT (10.18109194 45.42638625),alta
BRESCIA,MONTICHIARI,BS113.0003,Ex Cava Accini,LOCALITA' TERMINONI,,discariche abusive o incontrollate,10.38811479,45.40366539,POINT (10.38811479 45.40366539),bassa
MILANO,RESCALDINA,MI181.0003,DITTA COLOMBO SPA,"VIA GRIGNA, 32",,aree industriali in attività,8.96421985,45.61676805,POINT (8.96421985 45.61676805),alta
MILANO,LEGNANO,MI118.0064,EX OFFICINE GALVANICHE ZANZOTTERA,"VIA CRISTOFORO COLOMBO, 28",,aree industriali dismesse,8.90712017,45.59525422,POINT (8.90712017 45.59525422),alta
BRESCIA,GAMBARA,BS073.0004,GALVANICA SKIN DI MORENI PIERINO,CASCINA AURORA CORVIONE,,aree industriali dismesse,10.33654155,45.27152609,POINT (10.33654155 45.27152609),alta
LODI,CASALPUSTERLENGO,LO010.0004,Area ex Samor,VIALE GENERALE LUIGI CADORNA,,aree industriali dismesse,9.64719205,45.18389658,POINT (9.64719205 45.18389658),alta
MILANO,MILANO,MI146.0011,"ex Distillerie Lombarde di Catrame, CASCINA ROSSA SRL","VIA ENRICO COSENZ, 54",,aree industriali dismesse,9.16299434,45.50703726,POINT (9.16299434 45.50703726),alta
BERGAMO,ALME,BG005.0003,PV Q8 N. 1412,"VIALE ANTONIO LOCATELLI, 19",,altri siti non meglio specificati,9.62071578,45.73986857,POINT (9.62071578 45.73986857),alta
LODI,MONTANASO LOMBARDO,LO040.0006,SOTTOSTAZIONE TERNA,VIA EMILIA,,aree industriali in attività,9.4514101,45.32476265,POINT (9.4514101 45.32476265),alta
PAVIA,VOGHERA,PV182.0005,EX DITTA GROVE DRESSER ITALIA SRL - COOPER CAMERON VALVES,"VIA ITALO BETTO, 11",,discariche abusive o incontrollate,9.04234124,45.00068977,POINT (9.04234124 45.00068977),alta
MILANO,MILANO,MI146.3374,"PV CARBURANTI ACI, DISMESSO","VIA RAVENNA, 25",,impianti di stoccaggio o adduzione carburanti,9.21995234,45.43488028,POINT (9.21995234 45.43488028),alta
MILANO,MILANO,MI146.4075,AREA DI VIA FARINI,"VIA CARLO FARINI, 68",,aree industriali in attività,9.18415342,45.49614206,POINT (9.18415342 45.49614206),alta
MANTOVA,PEGOGNAGA,MN039.0006,PV TAMOIL 1293,"VIA GUGLIELMO MARCONI, 4",,impianti di stoccaggio o adduzione carburanti,10.85770906,44.99704546,POINT (10.85770906 44.99704546),alta
BERGAMO,TREVIGLIO,BG219.0007,INDUSTRIE CHIMICHE ING. BONELLI S.P.A.,"VIA CASIRATE VECCHIA, 4",,aree industriali in attività,9.58643074,45.51308714,POINT (9.58643074 45.51308714),alta
CREMONA,OFFANENGO,CR062.0001,STABILIMENTO BOSCH VHIT SPA,"VIA CIRCONVALLAZIONE SUD, 22",,aree industriali in attività,9.73990474,45.37627223,POINT (9.73990474 45.37627223),alta
MANTOVA,MANTOVA,MN030.0065,CORTILE SEDE ARPA,"VIALE DEL RISORGIMENTO, 43",(*),altri siti non meglio specificati,10.79013355,45.1492582,POINT (10.79013355 45.1492582),alta
MANTOVA,CASTIGLIONE DELLE STIVIERE,MN017.0006,RUBINETTERIA RAPETTI EX AREA INDUSTRIALE,VIA SAN MARTINO DELLA BATTAGLIA,,aree industriali dismesse,10.50081158,45.38505076,POINT (10.50081158 45.38505076),alta
LECCO,MISSAGLIA,LC049.0005,"""SPREAFICO CARNI EX AREA INDUSTRIALE ""","CORSO EUROPA, 21",(*),aree industriali dismesse,9.34433042,45.70474775,POINT (9.34433042 45.70474775),alta
MILANO,MILANO,MI146.0626,MILANFER S.r.l.,"VIA SELVANESCO, 57",,operazioni di recupero rifiuti,9.18718218,45.41639975,POINT (9.18718218 45.41639975),alta
BERGAMO,BAGNATICA,BG018.0002,DISCARICA ABUSIVA,VIA QUINTO ALPINI,,discariche abusive o incontrollate,9.77879135,45.65085224,POINT (9.77879135 45.65085224),alta
VARESE,MALNATE,VA096.0003,EX CAVA CATTANEO,STRADA STATALE 342,,smaltimenti non autorizzati - abbandono rifiuti,8.88047458,45.79919749,POINT (8.88047458 45.79919749),alta
LODI,CRESPIATICA,LO025.0001,N.E.T. ex RA.BO International,"VIA DANTE ALIGHIERI, 51",,aree industriali dismesse,9.57712698,45.3501884,POINT (9.57712698 45.3501884),alta
BERGAMO,RANICA,BG178.0003,PUNTO 5 S.R.L.,"VIA GUGLIELMO MARCONI, 125",,impianti di stoccaggio o adduzione carburanti,9.71351449,45.72030509,POINT (9.71351449 45.72030509),alta
MILANO,COLOGNO MONZESE,MI081.0079,EX STOPPANI - SITO DI INTERESSE REGIONALE - VEDI STOPPANI IN COMUNE DI BRUGHERIO,"VIALE LOMBARDIA, 2",,aree industriali in attività,9.2748126,45.5349547,POINT (9.2748126 45.5349547),alta
BRESCIA,GAMBARA,BS073.0006,ENEL TRASFORMATORE PTP N. 22667,VIA BRESCIA-CASCINA SAN POLO,,rilasci accidentali o dolosi di sostanze,10.3119318,45.23399989,POINT (10.3119318 45.23399989),bassa
MILANO,MILANO,MI146.3537,AREA PROPRIETÀ SOLEIL SRL,"VIA CADUTI DI MARCINELLE, 11",,aree industriali dismesse,9.2486295,45.48087779,POINT (9.2486295 45.48087779),alta
VARESE,UBOLDO,VA130.0015,CAVA FUSI,S.P.527,,operazioni di recupero rifiuti,8.99329289,45.61222777,POINT (8.99329289 45.61222777),bassa
MILANO,MILANO,MI146.0356,DEPOSITO EX AUTOMAROCCHI SPA - SHELL ITALIA,"VIA DELLA CHIESA ROSSA, 277",,aree industriali in attività,9.16323454,45.41329275,POINT (9.16323454 45.41329275),alta
MILANO,ROZZANO,MI189.0080,"Area sita presso Comprensorio Milanofiori, DISPERSIONE GASOLIO",STRADA 8 PALAZZO N MILANOFIORI,,rilasci accidentali o dolosi di sostanze,9.16423985,45.38397635,POINT (9.16423985 45.38397635),bassa
LODI,SANT ANGELO LODIGIANO,LO050.0001,Ex DITTA ELETTROGALVANICA CELLA snc,"VIA FILIPPO TURATI, 3/5",(*),aree industriali dismesse,9.39576678,45.23108503,POINT (9.39576678 45.23108503),alta
MILANO,MILANO,MI146.4120,CA.LUPO SRL,"CORSO DI PORTA VITTORIA, 51",,aree industriali dismesse,9.20551679,45.46235225,POINT (9.20551679 45.46235225),alta
MILANO,RESCALDINA,MI181.0013,AREA DI VIA F.LLI ROSSELLINI,VIA F.LLI ROSSELLINI 2,(*),altri siti non meglio specificati,8.9539305,45.6169821,POINT (8.9539305 45.6169821),bassa
MILANO,MILANO,MI146.4225,CONSORZIO AGRARIO EX,"VIA GIUSEPPE RIPAMONTI, 37",,aree industriali dismesse,9.19881139,45.44410928,POINT (9.19881139 45.44410928),alta
MONZA E DELLA BRIANZA,VERANO BRIANZA,MI234.0001,"Area cimiteriale, abbandono rifiuti",,,smaltimenti non autorizzati - abbandono rifiuti,9.22356495,45.6846635,POINT (9.22356495 45.6846635),bassa
VARESE,SARONNO,VA119.0002,AREA MMOBILIARE G.B. SARONNO SPA,"VIA MILANO, 11",,aree industriali dismesse,9.03363653,45.61733229,POINT (9.03363653 45.61733229),alta
BERGAMO,VERDELLINO,BG232.0006,RUBINETTERIE MARIANI S.R.L.,"VIALE BERLINO, 2/4",,aree industriali in attività,9.6173187,45.59450715,POINT (9.6173187 45.59450715),alta
CREMONA,CREMONA,CR036.0008,TAMOIL RAFFINAZIONE SPA,PIAZZALE CADUTI DEL LAVORO,,aree industriali in attività,9.99780912,45.13288137,POINT (9.99780912 45.13288137),alta
MONZA E DELLA BRIANZA,CORNATE D ADDA,MI088.0005,AREA EX CASCHI NAVA (EMC3),VIA NAZARIO SAURO E GRAMSCI 5,(*),aree industriali dismesse,9.46168907,45.64944114,POINT (9.46168907 45.64944114),alta
PAVIA,CASSOLNOVO,PV035.0004,OLEODOTTO SARPOM,FRAZIONE VILLANOVA,,impianti di stoccaggio o adduzione carburanti,8.7939065,45.36836881,POINT (8.7939065 45.36836881),bassa
MILANO,COLOGNO MONZESE,MI081.0113,AREA DI VIA CAMPANIA,"VIALE CAMPANIA, 12/14",,altri siti non meglio specificati,9.2824374,45.53824935,POINT (9.2824374 45.53824935),alta
LECCO,CALOLZIOCORTE,LC013.0006,EX PV Q8 NUMERO 1403,"CORSO DANTE ALIGHIERI, 39",(*),impianti di stoccaggio o adduzione carburanti,9.42712459,45.80382847,POINT (9.42712459 45.80382847),alta
MILANO,CASTANO PRIMO,MI062.0002,AREE SPAGLIAMENTO FOGNATURA,LOCALITA' MALVAGLIO-SOMELLI,,aree di spagliamento reflui fognari,8.77010372,45.54514098,POINT (8.77010372 45.54514098),alta
MILANO,MILANO,MI146.4157,AREA DI VIA BONCOMPAGNI,"VIA CARLO BONCOMPAGNI, 101",,aree industriali dismesse,9.23695905,45.43558235,POINT (9.23695905 45.43558235),alta
BRESCIA,CALVISANO,BS034.0001,EX ACCIAIERIA SISVA srl,"VIA BRESCIA, 33",,aree industriali dismesse,10.34049349,45.35351185,POINT (10.34049349 45.35351185),alta
MILANO,SETTIMO MILANESE,MI211.0006,IBA PNEUMATICI SRL,"VIA MELEGNANO, 26",(*),aree industriali in attività,9.07264502,45.46398462,POINT (9.07264502 45.46398462),alta
MONZA E DELLA BRIANZA,VIMERCATE,MI241.0013,CONSORZIO AGRARIO - PUNTO VENDITA,"VIALE LUIGI RONCHI, 5",,aree industriali dismesse,9.36515551,45.61241277,POINT (9.36515551 45.61241277),alta
MILANO,BARANZATE,MI250.0033,NEOPHARMED SPA,"VIA MONTE PORDOI, 18",,aree industriali dismesse,9.1170112,45.5273901,POINT (9.1170112 45.5273901),bassa
VARESE,LAVENO - MOMBELLO,VA087.0002,CERAMICA INDUSTRIALE DI LAVENO VERBANO COOP. a.r.l. - ex RICHARD GINORI,VIA XXV APRILE,(*),discariche autorizzate,8.62874886,45.89760165,POINT (8.62874886 45.89760165),alta
VARESE,CROSIO DELLA VALLE,VA057.0002,P.V. AGIP 2848,"VIA RISORGIMENTO, 12",,impianti di stoccaggio o adduzione carburanti,8.76697522,45.76265637,POINT (8.76697522 45.76265637),alta
MONZA E DELLA BRIANZA,BESANA IN BRIANZA,MI021.0009,P.V. ESSO 0026,"VIALE KENNEDY, 21",,impianti di stoccaggio o adduzione carburanti,9.27428745,45.69164733,POINT (9.27428745 45.69164733),bassa
PAVIA,PAVIA,PV110.0010,"PUNTO VENDITA CARBURANTE AGIP PETROLI, PV 2280","VIALE BRAMANTE, 50",,impianti di stoccaggio o adduzione carburanti,9.14343434,45.1695294,POINT (9.14343434 45.1695294),alta
MONZA E DELLA BRIANZA,MONZA,MI149.0078,COSMALVER,"VIALE SICILIA, 114",,aree industriali in attività,9.31744699,45.58034296,POINT (9.31744699 45.58034296),alta
MANTOVA,MANTOVA,MN030.0044,P.V. AGIP 2094,LOCALITA' LUNETTA,,impianti di stoccaggio o adduzione carburanti,10.81752638,45.1629124,POINT (10.81752638 45.1629124),alta
LODI,LODI VECCHIO,LO032.0002,SOCIETA' SIGEMI SRL,LOCALITA' PEZZOLO,,rilasci accidentali o dolosi di sostanze,9.41614675,45.30013353,POINT (9.41614675 45.30013353),bassa
SONDRIO,VALDISOTTO,SO072.0003,VIA ALLE SCUOLE - Località OGA,VIA ALLE SCUOLE,,altri siti non meglio specificati,10.34722433,46.46293664,POINT (10.34722433 46.46293664),alta
MILANO,BUCCINASCO,MI036.0002,area comunale,VIA RESISTENZA ND,,smaltimenti non autorizzati - abbandono rifiuti,9.11265704,45.42247514,POINT (9.11265704 45.42247514),alta
BERGAMO,BONATE SOTTO,BG031.0004,EX VALLI & VALLI,"VIA XXV APRILE, 22",,aree industriali dismesse,9.55492671,45.66743161,POINT (9.55492671 45.66743161),alta
BERGAMO,CISANO BERGAMASCO,BG074.0002,EX PELLEGRINI,"VIA GIUSEPPE MAZZINI, 20",,aree industriali dismesse,9.47729356,45.73978957,POINT (9.47729356 45.73978957),alta
MILANO,MILANO,MI146.0226,P.V. SHELL 49274,"VIA DELLA CHIESA ROSSA, 157",(*),impianti di stoccaggio o adduzione carburanti,9.16909229,45.42513982,POINT (9.16909229 45.42513982),alta
BRESCIA,VILLA CARCINA,BS199.0011,TIMKEN ITALIA SRL,"VIA FIUME MELLA, 13",,aree industriali in attività,10.19616074,45.64142237,POINT (10.19616074 45.64142237),alta
PAVIA,PAVIA,PV110.0004,EX AREA MARELLI - FIVRE,"VIA FABIO FILZI, 1",,aree industriali dismesse,9.14917005,45.19075454,POINT (9.14917005 45.19075454),alta
MILANO,MILANO,MI146.4269,AREA VIA FAUCHÈ,"VIA GIOVANNI BATTISTA FAUCHE', 9",,aree industriali dismesse,9.16515515,45.48492981,POINT (9.16515515 45.48492981),alta
MILANO,CORNAREDO,MI087.0003,DITTA LUBRA S.p.A.,"VIA EDISON, 4",(*),aree industriali in attività,9.03398597,45.48462368,POINT (9.03398597 45.48462368),alta
MANTOVA,GOITO,MN026.0014,RSA,"VIA CESARE BATTISTI, 17",,rilasci accidentali o dolosi di sostanze,10.66894081,45.2562551,POINT (10.66894081 45.2562551),alta
BERGAMO,TORRE PALLAVICINA,BG217.0001,Ex CAVA TELGATA Srl,,,attività minerarie o estrattive,9.85958345,45.44849611,POINT (9.85958345 45.44849611),bassa
MILANO,MELEGNANO,MI140.0011,PROPRIETA' G.M. SRL E TREROSSI SAS (parte dell'ex sito industriale CHIMICA SARONIO),VIALE DELLA REPUBBLICA,(*),aree industriali dismesse,9.31604966,45.35790827,POINT (9.31604966 45.35790827),alta
COMO,VERCANA,CO239.0002,Dismissione serbatoio gasolio,"VIA PROVINCIALE, 11",,rilasci accidentali o dolosi di sostanze,9.33500234,46.15963128,POINT (9.33500234 46.15963128),alta
MILANO,LAINATE,MI116.0021,AMCOR,"VIA DON LUIGI STURZO, 38",,aree industriali dismesse,9.03665599,45.57937574,POINT (9.03665599 45.57937574),alta
MILANO,SEGRATE,MI205.0003,"SOCIETA' IMMOBILIARE CORSO MAGENTA SRL, IMMOBILIARE GRECO",VIA OLGIA,(*),aree industriali dismesse,9.26915278,45.49183444,POINT (9.26915278 45.49183444),alta
MILANO,OPERA,MI159.0022,FAGIOLI SPA,"VIA VIGENTINA, 2",,aree industriali dismesse,9.20904265,45.36630225,POINT (9.20904265 45.36630225),alta
MILANO,MILANO,MI146.0028,BOVISA GASOMETRI (EX MONTEDISON/AEM) EX SIN,"VIA PRIVATA GIAMPIETRINO, 24",,aree industriali dismesse,9.15933654,45.46819153,POINT (9.15933654 45.46819153),bassa
LODI,VILLANOVA DEL SILLARO,LO060.0001,ex cava BARGANO,FRAZIONE BARGANO,,attività minerarie o estrattive,9.4703768,45.24376078,POINT (9.4703768 45.24376078),bassa
MONZA E DELLA BRIANZA,USMATE VELATE,MI227.0003,P.V. AGIP n. 2326 AdS Vimercate Ovest,TANGENZIALE EST MILANO A51,,impianti di stoccaggio o adduzione carburanti,9.36537335,45.64163315,POINT (9.36537335 45.64163315),alta
BERGAMO,BERGAMO,BG024.0140,MANGIMI M3,VIA SAN GIOVANNI BOSCO,,aree industriali dismesse,9.6710797,45.6884643,POINT (9.6710797 45.6884643),alta
BRESCIA,MONTICHIARI,BS113.0012,"Telecom Italia S.p.a., PERDITA SERBATOIO","VIALE GUGLIELMO MARCONI, 52/54",(*),rilasci accidentali o dolosi di sostanze,10.38549034,45.41458162,POINT (10.38549034 45.41458162),alta
COMO,CARUGO,CO048.0004,AREA EX NESPOLI,"VIA LUIGI CADORNA, 5",,aree industriali dismesse,9.19323473,45.70910832,POINT (9.19323473 45.70910832),alta
PAVIA,FERRERA ERBOGNONE,PV062.0005,Serbatoio S16 del deposito,"STRADA PROVINCIALE 28 PER PIEVE DEL CAIRO, 35",(*),aree industriali in attività,8.85450175,45.08000726,POINT (8.85450175 45.08000726),bassa
MILANO,TRUCCAZZANO,MI224.0004,Edificio di VIA MILANO,"VIA MILANO, 10",(*),,9.49372817,45.49860913,POINT (9.49372817 45.49860913),alta
BERGAMO,CANONICA D ADDA,BG049.0004,PERQUIS & C. S.R.L.,"VIA FARA, 6",,aree industriali dismesse,9.53722844,45.57401083,POINT (9.53722844 45.57401083),alta
BRESCIA,BOTTICINO,BS023.0001,EX DOROTEX,"VIA GIUSEPPE GARIBALDI, 34",,aree industriali dismesse,10.30565446,45.52680165,POINT (10.30565446 45.52680165),alta
VARESE,LUINO,VA092.0009,AREA PRESIDIO OSPEDALIERO FOND. MACCHI - LUINO,"VIA CARLO FORLANINI, 6",,serbatoi carburante per riscaldamento,8.7452556,45.9965612,POINT (8.7452556 45.9965612),alta
MILANO,MILANO,MI146.1148,METROTRAMVIA TESTI-BICOCCA-VIALE MONZA,VIA ANASSAGORA ANG.TREMELLONI,,discariche abusive o incontrollate,9.23078004,45.51731185,POINT (9.23078004 45.51731185),alta
LECCO,LECCO,LC042.0030,OTOMEC SRL,"VIA PADRE DOMENICO MAZZUCCONI, 12",,aree industriali dismesse,9.40006293,45.86825996,POINT (9.40006293 45.86825996),alta
PAVIA,VARZI,PV171.0003,Ex Vallestaffora s.r.l.,"FRAZIONE LOC.ARONCHIO,FRAZIONE SAN MARTINO",,aree industriali in attività,9.2187104,44.81666513,POINT (9.2187104 44.81666513),bassa
MILANO,MILANO,MI146.4283,AREA VIA DEI MISSAGLIA,"VIA DEI MISSAGLIA, 89",,aree industriali dismesse,9.17523845,45.4138496,POINT (9.17523845 45.4138496),alta
MILANO,MILANO,MI146.2544,CONDOMINIO - Serbatoio,"VIALE STELVIO, 58",,altri siti non meglio specificati,9.1842833,45.49493005,POINT (9.1842833 45.49493005),alta
LODI,GRAFFIGNANA,LO028.0002,Area Ex Stabilimento Metallurgica Graffignana S.p.a.,"VIA SANT' ANGELO, 6",,aree industriali dismesse,9.450505,45.2105197,POINT (9.450505 45.2105197),alta
CREMONA,CASALMAGGIORE,CR021.0003,F.I.R. ELETTROMECCANICA,"VIA ROMA, 19",,aree industriali in attività,10.41703529,44.99285531,POINT (10.41703529 44.99285531),alta
MILANO,CALVIGNASCO,MI042.0002,EFFRAZIONE OLEODOTTO SANNAZZARO - RHO,S.P.33,,rilasci accidentali o dolosi di sostanze,9.0248738,45.32674211,POINT (9.0248738 45.32674211),bassa
BERGAMO,SERIATE,BG198.0009,PV SHELL 11.127,VIA STELLA ALPINA,,impianti di stoccaggio o adduzione carburanti,9.74219868,45.68101798,POINT (9.74219868 45.68101798),alta
MILANO,NERVIANO,MI154.0007,Ditta Fratelli Della Vedova & C. snc,"VIA TICINO, 47/49",(*),,8.96915216,45.55048509,POINT (8.96915216 45.55048509),alta
VARESE,CARONNO PERTUSELLA,VA034.0010,BENASEDO SPA,"VIA ASIAGO, 332",,aree industriali in attività,9.03844279,45.59934132,POINT (9.03844279 45.59934132),alta
PAVIA,ZERBOLO,PV189.0002,SVERSAMENTO OLIO TRASFORMATORE ENEL,LOCALITA' CASCINA CORTE GRANDE,(*),rilasci accidentali o dolosi di sostanze,9.0186246,45.20927566,POINT (9.0186246 45.20927566),bassa
MILANO,MILANO,MI146.0237,ASHLAND ITALIA SRL,"VIA GIACOMO WATT, 42",,aree industriali dismesse,9.14964736,45.44329675,POINT (9.14964736 45.44329675),alta
BRESCIA,BRESCIA,BS029.0161,PARCO COMUNALE DI VIA PARENZO LATO SUD-EST E NORD - 135-15,VIA PARENZO,,altri siti non meglio specificati,10.19608195,45.52288537,POINT (10.19608195 45.52288537),alta
MILANO,ARLUNO,MI010.0004,TIRO A VOLO ARLUNESE,VIA PER CORBETTA,,altri siti non meglio specificati,8.94878735,45.51089836,POINT (8.94878735 45.51089836),bassa
MILANO,RHO,MI182.0022,"DEPOSITO DI RHO, AGIP PETROLI SpA","VIA PREGNANA, 103",,impianti di stoccaggio o adduzione carburanti,9.02363768,45.52013737,POINT (9.02363768 45.52013737),alta
MILANO,MILANO,MI146.4325,PII MONTECITY ROGOREDO - EX MONTEDISON NUOVO PROCEDIMENTO DI BONIFICA - MILANO SANTA GIULIA,"VIA ROMUALDO BONFADINI, 148",,aree industriali dismesse,9.25330269,45.4443845,POINT (9.25330269 45.4443845),alta
MILANO,MILANO,MI146.4015,ZARA EXPO LOTTO 1/B EX CAVA TRIBONIANO,VIA TRIBONIANO,,discariche abusive o incontrollate,9.12303641,45.50886241,POINT (9.12303641 45.50886241),alta
PAVIA,PIEVE PORTO MORONE,PV114.0002,EX DISCARICA,VIA PONTE VECCHIO,,smaltimenti non autorizzati - abbandono rifiuti,9.4407747,45.1067902,POINT (9.4407747 45.1067902),alta
VARESE,CASTELLANZA,VA042.0017,Area di Via Campo Sportivo,VIA CAMPO SPORTIVO,(*),smaltimenti non autorizzati - abbandono rifiuti,8.88232743,45.61493452,POINT (8.88232743 45.61493452),alta
MILANO,MILANO,MI146.1032,PUNTO VENDITA IP 2348,"VIA PAOLO REMBRANDT, 70",,impianti di stoccaggio o adduzione carburanti,9.13273501,45.46790491,POINT (9.13273501 45.46790491),alta
MILANO,MILANO,MI146.2838,IMPIANTO API 40976 CANTALUPA EST,"VIA DEL MARE, 35",,impianti di stoccaggio o adduzione carburanti,9.15843108,45.42124438,POINT (9.15843108 45.42124438),alta
MONZA E DELLA BRIANZA,CERIANO LAGHETTO,MI069.0003,AREA EX ACNA,LOCALITA' GROANE,,aree industriali dismesse,9.08071924,45.62963352,POINT (9.08071924 45.62963352),bassa
MILANO,SAN GIULIANO MILANESE,MI195.0006,"IMMOBILIARE ASSAGO, EX ANTIBIOTICOS","VIA DELLA LIBERAZIONE, 1",,aree industriali dismesse,9.26194764,45.39719346,POINT (9.26194764 45.39719346),alta
MILANO,MILANO,MI146.4248,AREA VIALE TROYA,"VIALE CARLO TROYA, 19",,aree industriali dismesse,9.1554001,45.45071635,POINT (9.1554001 45.45071635),alta
MILANO,SESTO SAN GIOVANNI,MI209.0042,AREA COFELY EX DEPOSITO ELIO,"VIA BARCELLONA, 3",(*),aree industriali in attività,9.26327587,45.53831454,POINT (9.26327587 45.53831454),alta
MILANO,MILANO,MI146.0810,EX DEPOSITO OLI MINERALI,"VIA PADOVA, 401",,impianti di stoccaggio o adduzione carburanti,9.26238235,45.5129693,POINT (9.26238235 45.5129693),alta
PAVIA,TROMELLO,PV164.0006,SVERSAMENTO IDROCARBURI DA EFFRAZIONE DOLOSA OLEODOTTO ENI,LOCALITA' BORGO SAN SIRO,,rilasci accidentali o dolosi di sostanze,8.8765692,45.2101285,POINT (8.8765692 45.2101285),alta
MILANO,ABBIATEGRASSO,MI002.0014,P.V. SHELL 49031,"VIALE GIUSEPPE MAZZINI, 179/B",,impianti di stoccaggio o adduzione carburanti,8.93229897,45.39959288,POINT (8.93229897 45.39959288),alta
MANTOVA,BORGO MANTOVANO,MN049.0002,PV 1278 - REVERE,VIA BRENNERO 73,,impianti di stoccaggio o adduzione carburanti,,,,nd
LECCO,DOLZAGO,LC031.0005,CARPROMETAL - REALIZZAZIONE DEL NUOVO IMPIANTO DI DEPURAZIONE,"VIA PROVINCIALE, 80",(*),operazioni di recupero rifiuti,9.33191205,45.76767863,POINT (9.33191205 45.76767863),alta
MILANO,MILANO,MI146.3876,"AREA ""EX ALCEA""","VIA SIMONE SCHIAFFINO, 25",,aree industriali dismesse,9.16715182,45.50693191,POINT (9.16715182 45.50693191),alta
MILANO,VIMODRONE,MI242.0009,Area di Via S. Anna,"VIA SANT' ANNA, 20",(*),,9.28264042,45.51433228,POINT (9.28264042 45.51433228),alta
MILANO,MILANO,MI146.4317,EX INALCO SPA,"VIA ARCIVESCOVO CALABIANA, 18",,aree industriali dismesse,9.20950479,45.44213049,POINT (9.20950479 45.44213049),alta
MILANO,SENAGO,MI206.0028,"CEP, Area Coede","VIA PIETRO MASCAGNI, 38",,operazioni di recupero rifiuti,9.10283854,45.5758468,POINT (9.10283854 45.5758468),alta
VARESE,CARDANO AL CAMPO,VA032.0006,AREA CARABELLI-ex centrale idrocarburi,"VIA AL PARCO, 48",,aree industriali dismesse,8.76976409,45.64568368,POINT (8.76976409 45.64568368),alta
MANTOVA,SUSTINENTE,MN064.0003,Impianto distribuzione carburanti,STRADA STATALE 482 ALTA POLESANA,(*),impianti di stoccaggio o adduzione carburanti,11.027392,45.08497,POINT (11.027392 45.08497),bassa
MILANO,PESCHIERA BORROMEO,MI171.0023,IMM.RE MARILISA,"VIA SANTA CATERINA DA SIENA, 14",,serbatoi carburante per riscaldamento,9.29813573,45.42733247,POINT (9.29813573 45.42733247),alta
VARESE,VENEGONO SUPERIORE,VA137.0006,P.V. IP N° 40943,"VIA GIULIO CESARE, 36/A",,impianti di stoccaggio o adduzione carburanti,8.90152173,45.74575624,POINT (8.90152173 45.74575624),alta
BRESCIA,TEMU,BS184.0006,PERDITA DI GASOLIO DA SERBATOIO IN AREA SITA IN VIA PREVALE',VIA PREVALE',,rilasci accidentali o dolosi di sostanze,10.47102741,46.24377384,POINT (10.47102741 46.24377384),alta
MILANO,MILANO,MI146.3030,PETITTI5,"VIA CARLO ILARIONE PETITTI, 5",(*),aree industriali dismesse,9.15300714,45.48873949,POINT (9.15300714 45.48873949),alta
MILANO,TREZZANO SUL NAVIGLIO,MI220.0003,"ALGAFINA, AREA ALGALITE",VIALE LEONARDO DA VINCI,(*),aree industriali dismesse,9.06495766,45.42377091,POINT (9.06495766 45.42377091),alta
MILANO,GARBAGNATE MILANESE,MI105.0022,EX FORNACE,VIA MONTE BIANCO,(*),aree industriali dismesse,9.08100046,45.58003754,POINT (9.08100046 45.58003754),alta
BERGAMO,BERGAMO,BG024.0037,ZANI 1951 SRL,"VIA PAOLO BERLENDIS, 5",,aree industriali dismesse,9.67308492,45.70825441,POINT (9.67308492 45.70825441),alta
COMO,OLGIATE COMASCO,CO165.0003,PV Q8 0912,S.P.PER BIZZARRONE,,impianti di stoccaggio o adduzione carburanti,8.95769314,45.78888895,POINT (8.95769314 45.78888895),alta
MILANO,CORMANO,MI086.0023,Area EX NYMCO,"VIA DEI GIOVI, 6",,aree industriali dismesse,9.15915701,45.53990767,POINT (9.15915701 45.53990767),alta
BERGAMO,LOVERE,BG128.0003,P.V. SHELL 11095,"VIA GUGLIELMO MARCONI, 55",,impianti di stoccaggio o adduzione carburanti,10.07971014,45.82102444,POINT (10.07971014 45.82102444),alta
MILANO,BUSSERO,MI040.0002,MODERCROMO SRL,"VIA GENOVA, 3",,aree industriali in attività,9.36418505,45.52958056,POINT (9.36418505 45.52958056),alta
COMO,COMO,CO075.0029,AREA ADIBITA A PARCHEGGIO,"VIA GIOVANNI BATTISTA SCALABRINI, 46",,discariche abusive o incontrollate,9.07877435,45.7844605,POINT (9.07877435 45.7844605),alta
MILANO,MILANO,MI146.4340,"IRCCS CÀ GRANDA OSPEDALE MAGGIORE POLICLINICO, scavo per realizzazione scala antincendio","VIA FRANCESCO SFORZA, 35",,altri siti non meglio specificati,9.19506867,45.45926203,POINT (9.19506867 45.45926203),alta
BRESCIA,NAVE,BS117.0011,TRAFILERIE NAVE,"VIA SORELLE MINOLA, 43",,aree industriali dismesse,10.2840346,45.58472794,POINT (10.2840346 45.58472794),alta
VARESE,BRENTA,VA019.0001,AREA EX CONCERIA FRASCHINI,"VIA SOTTO SASSO, 2",,aree industriali dismesse,8.68765885,45.90691108,POINT (8.68765885 45.90691108),bassa
MILANO,MILANO,MI146.2236,AREA EX TIRO A VOLO,"VIA MACCONAGO, 50",(*),altri siti non meglio specificati,9.21417592,45.41523306,POINT (9.21417592 45.41523306),alta
MONZA E DELLA BRIANZA,NOVA MILANESE,MI156.0008,SPEEDOIL,"VIA CARAVAGGIO, 56",,aree industriali dismesse,9.19126758,45.58343585,POINT (9.19126758 45.58343585),alta
MILANO,MEDIGLIA,MI139.0005,AZIENDA AGRICOLA - AREA CA' DEL LAMBRO,CASCINA CA' DEL LAMBRO,,smaltimenti non autorizzati - abbandono rifiuti,9.31538021,45.39572229,POINT (9.31538021 45.39572229),alta
MILANO,MILANO,MI146.3062,Area di Via Gallarate,"VIA GALLARATE, 263-265-267-269-271-273",,altri siti non meglio specificati,9.11995203,45.50144221,POINT (9.11995203 45.50144221),alta
SONDRIO,MESE,SO043.0001,Area proprietà privata,LOCALITA' BOTTIGIA,(*),altri siti non meglio specificati,9.37917655,46.30220499,POINT (9.37917655 46.30220499),alta
BRESCIA,CORTE FRANCA,BS062.0003,SISA PV,"VIA ROMA, 22",,impianti di stoccaggio o adduzione carburanti,10.00953357,45.63426587,POINT (10.00953357 45.63426587),alta
MILANO,ARESE,MI009.0036,"soc. Promez srl, ex TRE FIORI",OSPIATE-RHO,,discariche abusive o incontrollate,9.07257615,45.55294567,POINT (9.07257615 45.55294567),bassa
MILANO,MILANO,MI146.1331,"STABILE VIA BORDONE PARIS, serbatoio","VIA PARIS BORDONE, 13",,,9.1457166,45.47383778,POINT (9.1457166 45.47383778),alta
LODI,LODI,LO031.0009,EX EUROTECNO - FALLIMENTO MADITAL,CASCINA CARAZZINA,,altri siti non meglio specificati,9.46763562,45.31228465,POINT (9.46763562 45.31228465),alta
VARESE,CASTELLANZA,VA042.0016,AGROLINZ MELAMIN ITALIA SRL ora CHEMISOL ITALIA SRL,"VIA DEL SEMPIONE, 13",,aree industriali in attività,8.88163056,45.61580483,POINT (8.88163056 45.61580483),alta
MILANO,MILANO,MI146.2724,"Ospedale Maggiore Policlinico di Milano, Riqualificazione area LOTTO 1B","VIA FRANCESCO SFORZA, 28",,altri siti non meglio specificati,9.19630915,45.460597,POINT (9.19630915 45.460597),alta
BRESCIA,LENO,BS088.0014,Area FERROROTTAMI,VIA BIVIO RISPARMIO 2,,aree industriali dismesse,10.2162728,45.36545393,POINT (10.2162728 45.36545393),bassa
LECCO,LECCO,LC042.0002,Area Centro Sportivo Bione,CENTRO SPORTIVO BIONE,,altri siti non meglio specificati,9.40064192,45.84212172,POINT (9.40064192 45.84212172),alta
MILANO,BINASCO,MI024.0002,RESINDION SRL,"VIA ROMA, 55",,aree industriali in attività,9.0900611,45.33308217,POINT (9.0900611 45.33308217),alta
VARESE,SOLBIATE OLONA,VA122.0004,DITTA BAKELITE ITALIA SPA,"VIA GIUSEPPE MAZZINI, 104",,aree industriali in attività,8.88814297,45.65053719,POINT (8.88814297 45.65053719),alta
BERGAMO,TREVIGLIO,BG219.0025,AREE ESTERNE BASLINI - AREA C PROPRIETÀ CARIOLI,VIA DI MEZZO,(*),altri siti non meglio specificati,9.58520442,45.51833767,POINT (9.58520442 45.51833767),alta
MILANO,MILANO,MI146.4254,SOLIDARNOSC MARTESANA,"VIA ERODOTO, 4",,aree industriali dismesse,9.222054,45.50895238,POINT (9.222054 45.50895238),alta
MONZA E DELLA BRIANZA,BRUGHERIO,MI034.0025,Area del comparto D.2.5,VIA QUARTO,,aree industriali dismesse,9.30277963,45.54653396,POINT (9.30277963 45.54653396),alta
COMO,VERTEMATE CON MINOPRIO,CO242.0002,GALVANICA BOSAZZI - EX AREA INDUSTRIALE DISMESSA,VIA PAPA GIOVANNI XXIII,,aree industriali dismesse,9.0795788,45.7226815,POINT (9.0795788 45.7226815),alta
MILANO,MILANO,MI146.4177,UNITÀ IMMOBILIARI,"VIA GIAN FRANCESCO PIZZI, 29",,aree industriali dismesse,9.20391004,45.43704349,POINT (9.20391004 45.43704349),alta
MILANO,RHO,MI182.0094,AREA INDUSTRIALE,"VIA PACE, 72",,aree industriali dismesse,9.05822653,45.52947921,POINT (9.05822653 45.52947921),alta
VARESE,GALLARATE,VA070.0040,AREA EX CHECCHI,VIA BENVENUTO CELLINI,,aree industriali dismesse,8.79560018,45.67265778,POINT (8.79560018 45.67265778),alta
MILANO,SAN GIULIANO MILANESE,MI195.0061,ECO ERIDANIA EX GHIBECA,"VIA LOMBARDIA, 17",,aree industriali in attività,9.25369068,45.39715946,POINT (9.25369068 45.39715946),alta
MILANO,MILANO,MI146.2255,INSEDIAMENTO AMSA,"VIA FRANCESCO PRIMATICCIO, 205",,altre operazioni di gestione rifiuti,9.12844429,45.46179959,POINT (9.12844429 45.46179959),alta
MILANO,PERO,MI170.0019,OXON ITALIA SPA,STRADA SS.DEL SEMPIONE 195,,aree industriali in attività,9.0812011,45.51337189,POINT (9.0812011 45.51337189),alta
MILANO,MILANO,MI146.4059,SVERSAMENTO OLEODOTTO FERRERA-RHO - 14/08/2015 - ENI - HUB NORD,LOCALITA' ASSIANO,,aree agricole oggetto di spandimento incontrollato,9.05656821,45.45385877,POINT (9.05656821 45.45385877),alta
MILANO,PARABIAGO,MI168.0031,AREA VIA TINTORETTO,"VIA TINTORETTO, 11",,aree industriali dismesse,8.96488266,45.57204578,POINT (8.96488266 45.57204578),alta
MILANO,MILANO,MI146.2742,Area presso Condominio - Sversamento accidentale in fase di carico serbaoio,"VIA ALBERTO MARIO, 6",,rilasci accidentali o dolosi di sostanze,9.15191137,45.4720904,POINT (9.15191137 45.4720904),alta
MILANO,MILANO,MI146.4336,AREA DI VIA CEVEDALE 5,"VIA CEVEDALE, 5",,altri siti non meglio specificati,9.17421709,45.50677684,POINT (9.17421709 45.50677684),alta
MILANO,ROZZANO,MI189.0092,AREA VERDE PUBBLICO,PIAZZA GIOVANNI FOGLIA,,altri siti non meglio specificati,9.15349833,45.3813485,POINT (9.15349833 45.3813485),alta
MILANO,MILANO,MI146.4229,STABILE PRIVATO,"VIA SANTA MARIA ALLA PORTA, 2",,altri siti non meglio specificati,9.1818827,45.46490009,POINT (9.1818827 45.46490009),alta
LECCO,BARZANO,LC006.0003,PUNTO VENDITA CARBURANTI ESSO,"VIA ROMA, 58",,impianti di stoccaggio o adduzione carburanti,9.31637276,45.72654569,POINT (9.31637276 45.72654569),alta
MILANO,SESTO SAN GIOVANNI,MI209.0121,AREA COMUNALE,"VIALE RIMEMBRANZE, 245",,serbatoi carburante per riscaldamento,9.24102147,45.5227017,POINT (9.24102147 45.5227017),alta
BRESCIA,BRESCIA,BS029.0084,Baratti di Eredi Inselvini s.r.l.,"VIA PADOVA, 7",,aree industriali in attività,10.19490212,45.5264602,POINT (10.19490212 45.5264602),alta
MILANO,MORIMONDO,MI150.0001,AREA EX SIECAM S.r.l.,VIA PER CASELLE 10,,aree industriali dismesse,8.95467795,45.34977915,POINT (8.95467795 45.34977915),bassa
PAVIA,SOMMO,PV151.0003,SCARICO DITTA ALAN IN FOSSO COLATORE,LOCALITA' CASCINA VOLPARA,,altre operazioni di gestione rifiuti,9.08059482,45.11901758,POINT (9.08059482 45.11901758),alta
MILANO,CORNAREDO,MI087.0018,SERBATOIO C/O DITTA STMICROELECTRONICS,"VIA TOLOMEO, 1",(*),aree industriali in attività,9.02843061,45.46882247,POINT (9.02843061 45.46882247),alta
MILANO,PESCHIERA BORROMEO,MI171.0002,CARBODOLL s.r.l,VIA F.LLI BANDIERA/V.PUCCINI 21,,aree industriali in attività,9.28531655,45.43981198,POINT (9.28531655 45.43981198),alta
MILANO,SESTO SAN GIOVANNI,MI209.0051,Scuola Media VII,"VIA FRATELLI DI DIO, 101",,altri siti non meglio specificati,9.24804362,45.5252641,POINT (9.24804362 45.5252641),alta
MILANO,MILANO,MI146.3809,AREA COMUNALE,"VIA PRESOLANA, 6",,aree industriali dismesse,9.2065452,45.45674306,POINT (9.2065452 45.45674306),alta
MILANO,VIMODRONE,MI242.0004,AREA NOVA - ELFE - EX DISCARICA E.C.A.,VIA MIRAZZANO-S.P.PER COLOGNO,,discariche abusive o incontrollate,9.28720479,45.51454179,POINT (9.28720479 45.51454179),bassa
MILANO,PIEVE EMANUELE,MI173.0011,P.V. SHELL 49424,VIA DEI PLATANI,,impianti di stoccaggio o adduzione carburanti,9.19583001,45.34897585,POINT (9.19583001 45.34897585),alta
MILANO,MILANO,MI146.0877,EX PLASMON,"VIA GIOVANNI CADOLINI, 26",,aree industriali dismesse,9.2212699,45.44768454,POINT (9.2212699 45.44768454),alta
COMO,COMO,CO075.0059,Area Soc. CARIM,VIA GIOVANNI BATTISTA SCALABRINI,,aree industriali dismesse,9.08410434,45.79010625,POINT (9.08410434 45.79010625),alta
VARESE,LAVENO - MOMBELLO,VA087.0006,DISTRIBUTORE CARBURANTI - DISMISSIONE IMPIANTO,VIA RENO-FRAZIONE CERESOLO,(*),impianti di stoccaggio o adduzione carburanti,8.59854959,45.89600707,POINT (8.59854959 45.89600707),alta
MILANO,TREZZANO SUL NAVIGLIO,MI220.0001,BRENNTAG SPA,"VIA GIOVANNI BOCCACCIO, 3",,aree industriali in attività,9.05523406,45.41763063,POINT (9.05523406 45.41763063),alta
BERGAMO,BERGAMO,BG024.0079,TRUSSARDI PETROLI S.P.A.,"VIA DEL LAZZARETTO, 8",,impianti di stoccaggio o adduzione carburanti,9.67897145,45.70829812,POINT (9.67897145 45.70829812),alta
BRESCIA,MACLODIO,BS097.0001,Piombifera Italiana SpA,"VIA MOLINO EMILI, 26",,aree industriali in attività,10.04713322,45.47365747,POINT (10.04713322 45.47365747),alta
MILANO,MILANO,MI146.4288,INFRASTRUTTURE LOMBARDE,"VIA MANZANO, 4",,altri siti non meglio specificati,9.1292918,45.44638035,POINT (9.1292918 45.44638035),alta
BERGAMO,CISERANO,BG075.0005,EX Discarica,VIA PROVINCIALE FRANCESCA VECCHIA,(*),discariche abusive o incontrollate,9.60948552,45.58968604,POINT (9.60948552 45.58968604),alta
MONZA E DELLA BRIANZA,MONZA,MI149.0091,Area via Monviso,VIA MONVISO,,aree industriali dismesse,9.25069355,45.58480987,POINT (9.25069355 45.58480987),alta
MILANO,CERRO AL LAMBRO,MI071.0002,"Saronio, subarea",VIA DELLA VECCHIA CHIMICA,,aree industriali dismesse,9.31682641,45.34915712,POINT (9.31682641 45.34915712),alta
MILANO,MILANO,MI146.3275,COLLETTORE FOGNARIO EMISSARIO NOSEDO,VIA SAN DIONIGI,,altri siti non meglio specificati,9.21733055,45.43695337,POINT (9.21733055 45.43695337),alta
MILANO,MILANO,MI146.1041,AREA EX SILBAR,"VIA ANDREA PONTI, 5",(*),aree industriali dismesse,9.15604472,45.44680036,POINT (9.15604472 45.44680036),alta
BRESCIA,MONTICHIARI,BS113.0005,ex cava Baratti loc. Ponchioni,LOCALITA' PONCHIONI,,smaltimenti non autorizzati - abbandono rifiuti,10.38811479,45.40366539,POINT (10.38811479 45.40366539),bassa
BERGAMO,TREVIGLIO,BG219.0003,Farchemia S.R.L.,"VIA BERGAMO, 121",,aree industriali in attività,9.6064378,45.5558807,POINT (9.6064378 45.5558807),alta
BRESCIA,LUMEZZANE,BS096.0023,DITTA GPL,FRAZIONE GAZZOLO,,aree industriali dismesse,10.2725358,45.64450949,POINT (10.2725358 45.64450949),bassa
MILANO,BOLLATE,MI027.0019,EX BRENNTAG DEPOSITO - SIOCHEM SRL,"VIA SAN GOTTARDO, 19-OSPIATE19",,aree industriali in attività,9.10267587,45.53378984,POINT (9.10267587 45.53378984),alta
LECCO,VALMADRERA,LC083.0002,AREA EX DITTA FOMP FONDERIE S.P.A.,S.P.LECCO-COMO,,aree industriali dismesse,9.36828759,45.8467263,POINT (9.36828759 45.8467263),alta
BRESCIA,CASTENEDOLO,BS043.0001,EX CAVA LAGO BORGO,"VIA RISORGIMENTO, 114",,smaltimenti non autorizzati - abbandono rifiuti,10.26319342,45.46322126,POINT (10.26319342 45.46322126),alta
LODI,CASALPUSTERLENGO,LO010.0015,UNTOUCHABLE ENERGY S.R.L.,CASCINA COSTE FORNACI,(*),operazioni di recupero rifiuti,9.62701934,45.17038559,POINT (9.62701934 45.17038559),alta
MONZA E DELLA BRIANZA,VEDUGGIO CON COLZANO,MB047.0003,ESSO PV N 1628,VIA NUOVA VALASSINA,(*),impianti di stoccaggio o adduzione carburanti,9.26167505,45.72847126,POINT (9.26167505 45.72847126),bassa
BERGAMO,ALMENNO SAN BARTOLOMEO,BG006.0003,DEROCCA,LOCALITA' DEROCCA,(*),attività minerarie o estrattive,9.59269705,45.72802067,POINT (9.59269705 45.72802067),alta
VARESE,TRADATE,VA127.0012,P.V. ESSO TRADATE,"VIALE GUGLIELMO MARCONI, 2",,impianti di stoccaggio o adduzione carburanti,8.90954978,45.70934388,POINT (8.90954978 45.70934388),alta
LODI,MULAZZANO,LO041.0001,AREA INDUSTRIALE DISMESSA EX CROMOTIME E ROGGIA VISTARINA,"VIA ALESSANDRINI, 12-Z.I.CASSINOD'ALBERI",,aree industriali dismesse,9.38983567,45.38941561,POINT (9.38983567 45.38941561),alta
MILANO,PADERNO DUGNANO,MI166.0035,LARES COZZI subambito2,"VIA ROMA, 88",,aree industriali dismesse,9.15926436,45.56300513,POINT (9.15926436 45.56300513),alta
MILANO,CALVIGNASCO,MI042.0001,ditta Sodimec S.r.l.,"VIA DEL COMMERCIO, 2",,aree industriali in attività,9.0282204,45.32066725,POINT (9.0282204 45.32066725),alta
PAVIA,BRONI,PV024.0007,ITALCEMENTI S.P.A.,"VIA CIRCONVALLAZIONE, 23",,aree industriali in attività,9.25600283,45.06309995,POINT (9.25600283 45.06309995),alta
CREMONA,CREMONA,CR036.0078,WONDER SPA,"VIA NAZARIO SAURO, 12",,aree industriali in attività,10.02198015,45.1505895,POINT (10.02198015 45.1505895),alta
MILANO,MILANO,MI146.3379,AREA PRIVATA,"VIA FABIO MANGONE, 4",,aree industriali dismesse,9.1721771,45.45680925,POINT (9.1721771 45.45680925),alta
MANTOVA,PEGOGNAGA,MN039.0002,PV CARBURANTI,"STRADA PROVINCIALE OVEST, 45",,impianti di stoccaggio o adduzione carburanti,10.80275824,44.98646212,POINT (10.80275824 44.98646212),alta
VARESE,MALNATE,VA096.0005,"AREA EX SIOME, ex RONCORONI",VIA I MAGGIO,,aree industriali dismesse,8.88137347,45.80137519,POINT (8.88137347 45.80137519),alta
MILANO,MILANO,MI146.4201,AREA VIA MASSIMIANO,"VIA MASSIMIANO IMPERATORE, 23",,aree industriali dismesse,9.15933654,45.46819153,POINT (9.15933654 45.46819153),bassa
MILANO,POGLIANO MILANESE,MI176.0005,Ditta Marbo Italia S.p.a.,"VIA TORQUATO TASSO, 25/27",,aree industriali in attività,9.00652121,45.54136856,POINT (9.00652121 45.54136856),alta
MONZA E DELLA BRIANZA,LIMBIATE,MI121.0004,CAVA MANARA,VIA SALERNO,,attività minerarie o estrattive,9.13508816,45.60649775,POINT (9.13508816 45.60649775),alta
MILANO,CUGGIONO,MI096.0003,SVERSAMENTO OLEODOTTO,LOCALITA' CASTELLETTO DI CUGGIONO,,rilasci accidentali o dolosi di sostanze,8.79551005,45.48819503,POINT (8.79551005 45.48819503),bassa
MILANO,MILANO,MI146.4262,AREA ORTI 25 S.R.L.,"VIA LEONE TOLSTOI, 87",,aree industriali dismesse,9.14734005,45.45730025,POINT (9.14734005 45.45730025),alta
MILANO,ROZZANO,MI189.0030,AREA TRIFARMA SPA,"VIA PAVESE, 2",,aree industriali in attività,9.14442873,45.382374,POINT (9.14442873 45.382374),alta
MILANO,MILANO,MI146.4124,MIPHRAM PARCO SERBATOI,"VIA BERNARDO QUARANTA, 12",,aree industriali in attività,9.20422479,45.43640339,POINT (9.20422479 45.43640339),alta
MONZA E DELLA BRIANZA,MONZA,MI149.0047,Philips - Sede Operativa,"VIA GAETANO CASATI, 23",,aree industriali dismesse,9.26654367,45.5708419,POINT (9.26654367 45.5708419),alta
MONZA E DELLA BRIANZA,VILLASANTA,MI239.0002,DELCHI CARRIER spa,"VIA RAFFAELLO SANZIO, 9",,aree industriali in attività,9.31810534,45.60104787,POINT (9.31810534 45.60104787),alta
MILANO,MILANO,MI146.4328,AREA VIA COMELICO,"VIA COMELICO, 39",,aree industriali dismesse,9.21502359,45.45405159,POINT (9.21502359 45.45405159),alta
MILANO,RHO,MI182.0001,Ex Cava Bossi,VIALE ALCIDE DE GASPERI,,smaltimenti non autorizzati - abbandono rifiuti,9.05988246,45.52945469,POINT (9.05988246 45.52945469),alta
MILANO,SOLARO,MI213.0012,PV SHELL SOLARO,"VIA ROMA, 286",,impianti di stoccaggio o adduzione carburanti,9.10848659,45.62071995,POINT (9.10848659 45.62071995),alta
VARESE,CASTELLANZA,VA042.0012,Impianto di lavaggio Ditta Landini,"VIALE DON GIOVANNI MINZONI, 52",(*),impianti di stoccaggio o adduzione carburanti,8.89315176,45.60391644,POINT (8.89315176 45.60391644),alta
VARESE,SARONNO,VA119.0005,"Area industriale dismessa ""ex Manifattura Ceramica Pozzi"" - soc. I.R.I.D. Srl","VIA INGEGNERE PIETRO BALASSO, 11",,aree industriali dismesse,9.02573191,45.61888062,POINT (9.02573191 45.61888062),alta
VARESE,GERENZANO,VA075.0004,AREA DISCARICHE DI GERENZANO (AMSA),VIALE RISORGIMENTO,,discariche autorizzate,8.99766152,45.64493336,POINT (8.99766152 45.64493336),alta
MANTOVA,GONZAGA,MN027.0002,CLAIPA SPA IMPIANTO DISTRIBUZIONE CARBURANTI,"STRADA DELLE LEGHE CONTADINE, 4",,altri siti non meglio specificati,10.86785892,44.94176623,POINT (10.86785892 44.94176623),alta
MILANO,LEGNANO,MI118.0066,PENSOTTI FASE 2,VIE SAN BERNARDO-SABOTINO,,,8.91219124,45.58859005,POINT (8.91219124 45.58859005),alta
MONZA E DELLA BRIANZA,BRIOSCO,MI033.0004,EX NFA,"VIA GUGLIELMO MARCONI, 9",(*),aree industriali dismesse,9.2551341,45.72074276,POINT (9.2551341 45.72074276),alta
MILANO,MILANO,MI146.3737,Area Via Porretta,VIA PORRETTA,(*),,9.14862318,45.50854141,POINT (9.14862318 45.50854141),alta
MILANO,MELZO,MI142.0024,Area Ex Rebuscini,VIA GAVAZZI-TRIVULZI-TORRIANI-,(*),aree industriali dismesse,9.42196213,45.50317871,POINT (9.42196213 45.50317871),alta
MILANO,MILANO,MI146.3559,AREA PARCO DELLA VETTABBIA,VIA SAN DIONIGI-SANT'ARIALDO,,altri siti non meglio specificati,9.21733055,45.43695337,POINT (9.21733055 45.43695337),alta
MILANO,MILANO,MI146.0053,"MAX MAYER-DUCO, PPG Industries Italia Srl","VIA COMASINA, 121",,aree industriali in attività,9.16187292,45.53177797,POINT (9.16187292 45.53177797),alta
PAVIA,PAVIA,PV110.0009,BORGO SNIA SRL - TRADITAL SPA,VIALE MONTEGRAPPA (QUARTIERE SAN PIETRO IN VERZOLO),,aree industriali dismesse,9.18126967,45.18095902,POINT (9.18126967 45.18095902),alta
COMO,CARUGO,CO048.0006,AREA EX TAMBURINI,VIA ENRICO TAZZOLI,,aree industriali dismesse,9.1937608,45.71152148,POINT (9.1937608 45.71152148),alta
BERGAMO,CAMERATA CORNELLO,BG048.0001,SEMEA S.N.C.,LOCALITA' VALLE SECCA-POLO ESTRATTIVO AP3M,,discariche autorizzate,9.64098979,45.91517091,POINT (9.64098979 45.91517091),bassa
BERGAMO,CANONICA D ADDA,BG049.0001,SCHLUMBERGER ITALIANA SPA-EX DOWELL,"VIA DEL LAVORO, 1",(*),aree industriali in attività,9.53405943,45.56461478,POINT (9.53405943 45.56461478),alta
BRESCIA,PISOGNE,BS143.0005,DISCARICA PIZZO - DEPOSITO DI RIFIUTI ABBANDONATI,LOCALITA' PITTINGHELLO,,discariche abusive o incontrollate,10.10753507,45.81444058,POINT (10.10753507 45.81444058),alta
LODI,MARUDO,LO036.0001,Stabilimento Dobfar Holding,"VIA VIGNAZZE, 39",,aree industriali dismesse,9.37719877,45.25412898,POINT (9.37719877 45.25412898),alta
BERGAMO,COSTA DI SERINA,BG247.0001,area via S. Erasmo,VIA SANT' ERASMO,(*),smaltimenti non autorizzati - abbandono rifiuti,9.75905506,45.81770713,POINT (9.75905506 45.81770713),alta
SONDRIO,MAZZO DI VALTELLINA,SO040.0001,DISMISSIONE SERBATOI,"VIA PROVINCIALE, 14",,aree industriali in attività,10.25817028,46.26371884,POINT (10.25817028 46.26371884),alta
BRESCIA,VILLANUOVA SUL CLISI,BS201.0002,P.V. ESSO 1032,"VIALE BRESCIA, 17",,impianti di stoccaggio o adduzione carburanti,10.45082205,45.59967049,POINT (10.45082205 45.59967049),alta
MONZA E DELLA BRIANZA,ARCORE,MI008.0005,DEVERO - LOTTO B (EX FALCK),VIA BESTETTI,,aree industriali dismesse,9.32991085,45.6259233,POINT (9.32991085 45.6259233),alta
MANTOVA,ACQUANEGRA SUL CHIESE,MN001.0002,DISCARICA ABUSIVA EX FLUCOSIT,LOCALITA' VALLI DI MOSIO,(*),smaltimenti non autorizzati - abbandono rifiuti,10.44091357,45.16302282,POINT (10.44091357 45.16302282),alta
BERGAMO,SCANZOROSCIATE,BG194.0005,EX FULGET,"VIA GUGLIELMO MARCONI, 44",,aree industriali dismesse,9.72791616,45.70812377,POINT (9.72791616 45.70812377),alta
MILANO,MILANO,MI146.4298,AREA CAMM,"VIA GAUDENZIO FANTOLI, 32",,altri siti non meglio specificati,9.25837775,45.45428389,POINT (9.25837775 45.45428389),alta
COMO,FINO MORNASCO,CO102.0019,Piano Attuativo ATRC-PA3,"VIALE RISORGIMENTO, 34",,aree industriali dismesse,9.04493125,45.74749444,POINT (9.04493125 45.74749444),alta
MILANO,SEDRIANO,MI204.0013,CARTOTECNICA RISI,VIALE EUROPA,,aree industriali dismesse,8.97720443,45.48877743,POINT (8.97720443 45.48877743),alta
MANTOVA,CURTATONE,MN021.0004,MARCONI INDUSTRIAL SERVICES S.P.A. - FOSSETTO,"VIA LEOPOLDO PILLA, 8",,aree industriali in attività,10.71492137,45.1532185,POINT (10.71492137 45.1532185),alta
BERGAMO,BERGAMO,BG024.0124,A2A TERMOVALORIZZATORE - AREA IMPIANTO ACCUMULO CALORE,"VIA LUIGI GOLTARA, 23",,operazioni di recupero rifiuti,9.63930519,45.67002462,POINT (9.63930519 45.67002462),alta
MILANO,MILANO,MI146.0378,"PALAZZO AVEROLDI SRL EX INIZIATIVE INDUSTRIALI MILANO S.P.A., AREA MAGNAGHI AEROSPACE SPA","VIA STAMIRA D' ANCONA, 27",,aree industriali dismesse,9.2284433,45.50138944,POINT (9.2284433 45.50138944),alta
BRESCIA,PISOGNE,BS143.0018,AREA EX DEPOSITO PULMAN,VIA GIACOMO MANELLA,,aree industriali dismesse,10.1067702,45.80584174,POINT (10.1067702 45.80584174),alta
MILANO,CINISELLO BALSAMO,MI077.0031,Carrozzeria,"VIA ROBECCO, 69",,aree industriali in attività,9.22479659,45.55874005,POINT (9.22479659 45.55874005),alta
MILANO,TURBIGO,MI226.0029,METELLI,"VIA SANTA MARIA, 6",,aree industriali dismesse,8.72407451,45.52534202,POINT (8.72407451 45.52534202),alta
MILANO,MILANO,MI146.0911,"società TRIANTO, AREA EX ARCHIFAR","VIA ANTONIO TOLOMEO TRIVULZIO, 18",(*),aree industriali dismesse,9.14509527,45.46559992,POINT (9.14509527 45.46559992),alta
MILANO,MILANO,MI146.4326,AREA VIA BISTOLFI,"VIA LEONARDO BISTOLFI, 7",,altri siti non meglio specificati,9.24533454,45.47282241,POINT (9.24533454 45.47282241),alta
PAVIA,PARONA,PV109.0016,SVERSAMENTO IDROCARBURI DA EFFRAZIONE OLEODOTTO SARPOM DEL 25/04/2016,VIA CASE SPARSE PER ALBONESE,,rilasci accidentali o dolosi di sostanze,8.72467557,45.28580519,POINT (8.72467557 45.28580519),alta
MILANO,MILANO,MI146.4271,AREA VIA LEPONTINA,"VIA LEPONTINA, 7",,aree industriali dismesse,9.18343725,45.49344658,POINT (9.18343725 45.49344658),alta
VARESE,GAVIRATE,VA072.0001,AREA EX P.V. IP N. 6474 LOC. VOLTORRE,S.P.N.36 36,,impianti di stoccaggio o adduzione carburanti,8.72494165,45.84389392,POINT (8.72494165 45.84389392),bassa
COMO,COMO,CO075.0115,PIANO DI INDAGINE AMBIENTALE RIMOZIONE SERBATOI INTERRATI EX P.V. TOTAL ERG,"VIA GIOVANNI BATTISTA SCALABRINI, 82",,impianti di stoccaggio o adduzione carburanti,9.07301526,45.77749949,POINT (9.07301526 45.77749949),alta
MILANO,MELEGNANO,MI140.0028,TAMINI TRASFORMATORI S.R.L.,"VIA EMILIA, 37",,aree industriali in attività,9.32330642,45.36382863,POINT (9.32330642 45.36382863),alta
MILANO,SEGRATE,MI205.0011,AREA LUCCHINI ARTONI SRL,"VIA GIAMBATTISTA TIEPOLO, 16",(*),aree industriali in attività,9.3006159,45.48639455,POINT (9.3006159 45.48639455),alta
COMO,VERCANA,CO239.0001,Terreno agricolo proprietà privata,LOCALITA' CAVAGNANA,,rilasci accidentali o dolosi di sostanze,9.3396761,46.1716303,POINT (9.3396761 46.1716303),bassa
MILANO,GARBAGNATE MILANESE,MI105.0001,EX MASIDEF SPA,"VIALE CARLO FORLANINI, 92",(*),aree industriali in attività,9.08950204,45.58114869,POINT (9.08950204 45.58114869),alta
MILANO,TURBIGO,MI226.0015,CAVA ARBUSTA,"VIA XXV APRILE 1945, 10",,attività minerarie o estrattive,8.74124725,45.53092239,POINT (8.74124725 45.53092239),alta
BERGAMO,BERGAMO,BG024.0141,DISMISSIONE SERBATOIO,VIA GASPARINO DA BARZIZZA,,serbatoi carburante per riscaldamento,9.69026221,45.70838807,POINT (9.69026221 45.70838807),alta
BERGAMO,COLZATE,BG080.0001,HUNI ITALIANA S.P.A.,"VIA GUGLIELMO MARCONI, 12",,aree industriali in attività,9.85696976,45.81653548,POINT (9.85696976 45.81653548),alta
PAVIA,TROMELLO,PV164.0008,SVERSAMENTO ENEL,LOCALITA' BALZE',,rilasci accidentali o dolosi di sostanze,8.85040359,45.20425168,POINT (8.85040359 45.20425168),bassa
MONZA E DELLA BRIANZA,MONZA,MI149.0004,F.LLI RE S.A.S.,"VIA TORQUATO TASSO, 11",,aree industriali dismesse,9.28868077,45.58197144,POINT (9.28868077 45.58197144),alta
MANTOVA,BORGO MANTOVANO,MN067.0004,FOSSO GALENE IN FREGIO ALLA DITTA LA VETRI,FOSSO GALENE,,altri siti non meglio specificati,,,,nd
MILANO,VIMODRONE,MI242.0010,Cà Azzurra,"VIA ACHILLE GRANDI, 32",(*),,9.29588674,45.51163547,POINT (9.29588674 45.51163547),alta
VARESE,CARNAGO,VA033.0002,EX RESINE SINTETICHE ADAMOLI -EX ADAM,"VIA MONTE GRAPPA, 58",,aree industriali dismesse,8.83350941,45.72838286,POINT (8.83350941 45.72838286),alta
PAVIA,PAVIA,PV110.0060,EX SIAD SOCIETÀ ITALIANA ACETILENE E DERIVATI S.P.A.,"VIALE GIUSEPPE MARIA GIULIETTI, 425",,aree industriali dismesse,9.14616386,45.17446786,POINT (9.14616386 45.17446786),alta
MILANO,MILANO,MI146.4316,"A2A SERVIZI, CENTRALE FAMAGOSTA","VIA ROSA BIANCA, 2",,aree industriali in attività,9.15933654,45.46819153,POINT (9.15933654 45.46819153),bassa
MILANO,SESTO SAN GIOVANNI,MI209.0112,Area ECIS,VIA MILANO,(*),,9.24288953,45.52646734,POINT (9.24288953 45.52646734),alta
MILANO,MILANO,MI146.4318,AREA UNIVERSITARIA,"VIA EDOARDO BASSINI, 16",,altri siti non meglio specificati,9.23366105,45.48004264,POINT (9.23366105 45.48004264),alta
MANTOVA,CASTIGLIONE DELLE STIVIERE,MN017.0001,HUNTSMAN (EX ALBRIGHT & WILSON),"VIA CONTE CAMILLO BENSO DI CAVOUR, 50",,aree industriali in attività,10.47993537,45.39003444,POINT (10.47993537 45.39003444),alta
BERGAMO,PONTE NOSSA,BG168.0002,"Enirisorse ex Ditta Nuova Samin, Ponte Nossa S.p.A.",LOCALITA' PONTE RISO,(*),discariche abusive o incontrollate,9.8858494,45.861607,POINT (9.8858494 45.861607),bassa
BRESCIA,GARDONE VALTROMPIA,BS075.0001,TRW ITALIA S.P.A.,"VIA VALTROMPIA, 125",,aree industriali in attività,10.19970461,45.69954963,POINT (10.19970461 45.69954963),alta
MANTOVA,ASOLA,MN002.0004,ex Ditta Ghisleri e Domaschio,VIA LUIGI PIRANDELLO,,altri siti non meglio specificati,10.40440097,45.22383417,POINT (10.40440097 45.22383417),alta
CREMONA,CREMONA,CR036.0072,KEROPETROL SpA,"VIA BOSCHETTO, 12",,impianti di stoccaggio o adduzione carburanti,10.02297989,45.15137397,POINT (10.02297989 45.15137397),alta
MILANO,MILANO,MI146.4220,AREA DI VIA SERLIO 7,"STRADA PRIVATA SEBASTIANO SERLIO, 7",,aree industriali dismesse,9.22167146,45.44209309,POINT (9.22167146 45.44209309),alta
LODI,LODI,LO031.0048,AREA EX CONSORZIO AGRARIO,"VIA GIOVANNI GANDINI, 3",,aree industriali dismesse,9.49447555,45.31106214,POINT (9.49447555 45.31106214),alta
BERGAMO,BOLTIERE,BG029.0002,ex Cava Francesca,LOCALITA' FOPPA DEL FIRMI',(*),discariche abusive o incontrollate,9.58308778,45.60357131,POINT (9.58308778 45.60357131),alta
MILANO,LEGNANO,MI118.0087,Sito di via Genova,"VIA GENOVA, 34/36",(*),,8.90382943,45.59380315,POINT (8.90382943 45.59380315),alta
MILANO,PERO,MI170.0002,CARBOTERMO SPA,"VIA FILIPPO TURATI, 25",,impianti di stoccaggio o adduzione carburanti,9.09279288,45.51124489,POINT (9.09279288 45.51124489),alta
BERGAMO,TRESCORE BALNEARIO,BG218.0003,AREA VALFERRO SNC,"VIA ANTONIO GRAMSCI, 35",,aree industriali in attività,9.83843837,45.68516963,POINT (9.83843837 45.68516963),alta
MILANO,CORNAREDO,MI087.0027,EFFRAZIONE OLEODOTTO ENI,S.P.214,,rilasci accidentali o dolosi di sostanze,9.02468384,45.48787748,POINT (9.02468384 45.48787748),bassa
BERGAMO,BERGAMO,BG024.0067,"ROTAFRIGO, CONTAMINAZIONE FALDA",LOCALITA' LONGUELO-,,aree industriali in attività,9.63565722,45.69600347,POINT (9.63565722 45.69600347),alta
MILANO,MILANO,MI146.0388,CROMATURA ANGELINI EX AREA INDUSTRIALE,"VIA MECENATE, 76",,aree industriali dismesse,9.2463881,45.45185935,POINT (9.2463881 45.45185935),alta
VARESE,SOMMA LOMBARDO,VA123.0023,AREA A SW DISCARICA DI VERGIATE,STRADA PROVINCIALE 47,,discariche autorizzate,8.69927384,45.70427594,POINT (8.69927384 45.70427594),alta
MILANO,COLOGNO MONZESE,MI081.0120,AREA VIA POLONIA,VIA POLONIA,,aree industriali dismesse,9.27055124,45.544389,POINT (9.27055124 45.544389),alta
BERGAMO,MAPELLO,BG132.0004,Ex deposito petrolifero SADOM,"VIA DEGLI ALPINI, 1",,aree industriali dismesse,9.56126221,45.71320633,POINT (9.56126221 45.71320633),alta
MILANO,MILANO,MI146.4296,AREA DISMESSA VIA CRESPI,"VIA DANIELE CRESPI, 16",,aree industriali dismesse,9.17310089,45.45655892,POINT (9.17310089 45.45655892),alta
MANTOVA,POGGIO RUSCO,MN042.0006,SVERSAMENTO ACCIDENTALE CARBURANTE C/O BANCHINA STRADALE,"VIA ABETONE BRENNERO, 20-22B/C",,rilasci accidentali o dolosi di sostanze,11.12071665,44.98222593,POINT (11.12071665 44.98222593),alta
MILANO,MILANO,MI146.2408,NUOVO DEPOSITO AUTOBUS ATM,VIA IMPASTATO (GIA' VIA MARIGNANO),(*),,9.25611823,45.42800639,POINT (9.25611823 45.42800639),alta
MONZA E DELLA BRIANZA,SEVESO,MB040.0003,PEDEMONTANA TRATTA B2 - AREE INFLUENZATE DA INCIDENTE ICMESA,,,altri siti non meglio specificati,9.1424819,45.6464554,POINT (9.1424819 45.6464554),bassa
BRESCIA,PADERNO FRANCIACORTA,BS130.0002,EX CAVA VIANELLI,VIA A.DE GASPERI-LOC.SANTELLA 35,,discariche abusive o incontrollate,10.07580982,45.58633296,POINT (10.07580982 45.58633296),alta
MILANO,SETTALA,MI210.0013,SETTALLA STOCAGGIO- CENTRALE STOCCAGGIO GAS,LOCALITA' CASCINA BAIALUPA,,aree industriali in attività,9.39729633,45.45396027,POINT (9.39729633 45.45396027),alta
MILANO,MILANO,MI146.3058,AREA VIA PECORI GIRALDI,"VIA GUGLIELMO PECORI GIRALDI, 5",,aree industriali dismesse,9.23246714,45.44093674,POINT (9.23246714 45.44093674),alta
BERGAMO,GANDINO,BG108.0002,TAMOIL - P.V. N.1035 - DISMISSIONE DEFINITIVA,"VIA CESARE BATTISTI, 24",,impianti di stoccaggio o adduzione carburanti,9.92882604,45.82379707,POINT (9.92882604 45.82379707),bassa
MILANO,MILANO,MI146.1130,Area di Largo Giambellino,"LARGO GIAMBELLINO, 129",,altri siti non meglio specificati,9.13428345,45.44717293,POINT (9.13428345 45.44717293),alta
MILANO,BARANZATE,MI250.0035,"COSTRUZIONI AGRICOLE E INDUSTRIALI Srl, ex WEISS","VIA CRISTINA BELGIOIOSO, 13/15",,aree industriali in attività,9.10422873,45.52275969,POINT (9.10422873 45.52275969),alta
LECCO,OLGIATE MOLGORA,LC058.0004,SVERSAMENTO GASOLIO DA CISTERNA INTERRATA,"VIA MONDONICO, 13",(*),rilasci accidentali o dolosi di sostanze,9.39866288,45.73753021,POINT (9.39866288 45.73753021),alta
VARESE,MALNATE,VA096.0001,AREA EX SIOME - FOLLA DI MALNATE,VIA GORIZIA,,aree industriali dismesse,8.87069192,45.80094961,POINT (8.87069192 45.80094961),alta
PAVIA,BRONI,PV024.0001,P.V. TAMOIL 4207,PIAZZA VITTORIO VENETO,,impianti di stoccaggio o adduzione carburanti,9.26030917,45.0627426,POINT (9.26030917 45.0627426),alta
COMO,GERA LARIO,CO107.0004,Area proprietà privata,S.P.340DIR,,discariche abusive o incontrollate,9.3867708,46.15342681,POINT (9.3867708 46.15342681),bassa
MILANO,SESTO SAN GIOVANNI,MI209.0082,IMMOBILIARE VIALE ITALIA SRL Area BC41,"VIALE ITALIA, 936",,aree industriali dismesse,9.2582497,45.55047585,POINT (9.2582497 45.55047585),alta
VARESE,VENEGONO SUPERIORE,VA137.0005,POZZO AREA DITTA ALENIA AERMACCHI SPA,VIA FORESIO 1,,aree industriali in attività,8.90143345,45.75472205,POINT (8.90143345 45.75472205),bassa
MILANO,BUCCINASCO,MI036.0004,GALVANICA GENTILE S.r.l.,"VIA PIEMONTE, 38",,aree industriali in attività,9.12136317,45.41610335,POINT (9.12136317 45.41610335),alta
MILANO,MILANO,MI146.4192,BORLETTI EX,VIA CECCHI 18,,aree industriali dismesse,9.15211869,45.46057836,POINT (9.15211869 45.46057836),alta
BERGAMO,VERDELLINO,BG232.0007,IMM.RE LA RODIOLA - AREA EURODOLCIARIA S.R.L.,"VIALE BERLINO, 1",,aree industriali in attività,9.60662436,45.59533168,POINT (9.60662436 45.59533168),alta
BRESCIA,VILLA CARCINA,BS199.0004,EFFEBIESSE S.p.A. - CONTAMINAZIONE FALDA DA CROMO ESAVALENTE,"VIA VENETO, 142",,aree industriali in attività,10.19519074,45.62902399,POINT (10.19519074 45.62902399),alta
MILANO,RHO,MI182.0019,ROTTURA OLEODOTTO LUCERNATE,FRAZIONE LUCERNATE,(*),rilasci accidentali o dolosi di sostanze,9.05141614,45.53067483,POINT (9.05141614 45.53067483),bassa
MONZA E DELLA BRIANZA,LESMO,MI120.0002,PV SHELL 49.022,"VIA XXV APRILE, 18",,impianti di stoccaggio o adduzione carburanti,9.30869667,45.65234672,POINT (9.30869667 45.65234672),alta
MILANO,MILANO,MI146.1031,P.V. ESSO 0428,"VIALE LIGURIA, 52",(*),impianti di stoccaggio o adduzione carburanti,9.17579459,45.4435668,POINT (9.17579459 45.4435668),alta
COMO,MOZZATE,CO159.0005,ECONORD- DISCARICA GORLA-MOZZATE -CAVA SATIMA,SP 37 LOCALITA' EX CAVA SATIMA,,discariche autorizzate,8.94927475,45.6714305,POINT (8.94927475 45.6714305),bassa
VARESE,GALLARATE,VA070.0007,TI.FI.TEX. S.R.L.,"VIA ADIGE, 12",,aree industriali in attività,8.81469716,45.64536014,POINT (8.81469716 45.64536014),alta
MILANO,LAINATE,MI116.0008,"P.V. AGIP 51905, A8 ""Villoresi Ovest""",AUTOSTRADA A8,,impianti di stoccaggio o adduzione carburanti,9.02565695,45.56596031,POINT (9.02565695 45.56596031),bassa
COMO,COMO,CO075.0055,TICOSA - EX AREA INDUSTRIALE,VIA GRANDI/ROOSVELT,,aree industriali dismesse,9.0858007,45.79971599,POINT (9.0858007 45.79971599),alta
PAVIA,PINAROLO PO,PV115.0001,EX CHIMICA PONTE ALTO,LOCALITA' CA' DE' GIORGI,,aree industriali dismesse,9.18766751,45.09532087,POINT (9.18766751 45.09532087),alta
BRESCIA,DESENZANO DEL GARDA,BS067.0002,FEDERAL MOGUL,"VIALE GUGLIELMO MARCONI, 131",,aree industriali dismesse,10.52745502,45.46708352,POINT (10.52745502 45.46708352),alta
MILANO,SAN GIULIANO MILANESE,MI195.0001,"Sito Air Product, proprietà Ashaland Italia spa","VIA UMBRIA, 4",,aree industriali in attività,9.24960127,45.39854631,POINT (9.24960127 45.39854631),alta
LECCO,CALOLZIOCORTE,LC013.0023,ZINCOFUOCO,"VIA LAGO VECCHIO, 22",,aree industriali dismesse,9.43882057,45.77926313,POINT (9.43882057 45.77926313),alta
LODI,VALERA FRATTA,LO059.0001,EX DISCARICA VALERA FRATTA,,,discariche autorizzate,9.3347303,45.25794108,POINT (9.3347303 45.25794108),bassa
MONZA E DELLA BRIANZA,RONCELLO,MB055.0001,L'ISOLANTE K-FLEX S.P.A.,"VIA LEONARDO DA VINCI, 36",,aree industriali in attività,9.46702191,45.60129224,POINT (9.46702191 45.60129224),alta
MILANO,MEDIGLIA,MI139.0002,AREA S.P. 39 - MEDIGLIA SERVIZI ECOLOGICI (BIOTECH),S.S.PAULLESE (LOC.CERCA-MEDIGLIA),,operazioni di recupero rifiuti,9.34159255,45.41167773,POINT (9.34159255 45.41167773),bassa
BERGAMO,URGNANO,BG222.0006,PIANO ATTUATIVO RESIDENZIALE ATRE2,VIA DON FADINI,,altri siti non meglio specificati,9.72069627,45.61891583,POINT (9.72069627 45.61891583),alta
MILANO,VANZAGO,MI229.0003,EX CAVA VALDARENNE,CASCINA VALDARENNE,,discariche abusive o incontrollate,8.98541555,45.51930662,POINT (8.98541555 45.51930662),bassa
MILANO,CINISELLO BALSAMO,MI077.0045,"SCUOLA MATERNA ""IL GIRASOLE"", serbatoio interrato","VIALE ABRUZZI, 21",(*),altri siti non meglio specificati,9.23193045,45.54874257,POINT (9.23193045 45.54874257),alta
LECCO,LECCO,LC042.0046,P.V. FREMAR,VIA VALSUGANA ANGOLO CORSO ALBERTO,,impianti di stoccaggio o adduzione carburanti,9.41074455,45.83989179,POINT (9.41074455 45.83989179),alta
MILANO,CANEGRATE,MI046.0008,"ITS, FIOR-GIEFFE",VIA RAVENNA,(*),aree industriali dismesse,8.91032283,45.56303938,POINT (8.91032283 45.56303938),alta
MILANO,MILANO,MI146.0529,PUNTO VENDITA AGIP 54367,"VIA GALLARATE, 391",,impianti di stoccaggio o adduzione carburanti,9.10891537,45.50409169,POINT (9.10891537 45.50409169),alta
BERGAMO,TREVIGLIO,BG219.0024,AREE ESTERNE BASLINI - AREA E PROPRIETÀ TONINI,VIA DI MEZZO,(*),altri siti non meglio specificati,9.58520442,45.51833767,POINT (9.58520442 45.51833767),alta
MILANO,MILANO,MI146.4285,Area proprietà privata,"VIA RAIMONDO MONTECUCCOLI, 15",,altri siti non meglio specificati,9.13185509,45.45874562,POINT (9.13185509 45.45874562),alta
BERGAMO,BAGNATICA,BG018.0004,FRATELLI NICOLI - DISMISSIONE SERBATOIO,VIA SAN PIETRO,,serbatoi carburante per riscaldamento,9.78537876,45.66048234,POINT (9.78537876 45.66048234),alta
LODI,CASTELGERUNDO,LO016.0002,"OLEODOTTO ENI 26 "" BERTONICO-CREMONA IN COMUNE DI CAVACURTA",FG.2 MAPPALE 4,,rilasci accidentali o dolosi di sostanze,,,,nd
MILANO,VANZAGO,MI229.0007,EFFRAZIONE OLEODOTTO ENI RHO-MALPENSA VANZAGO,CASCINA,,rilasci accidentali o dolosi di sostanze,8.98541555,45.51930662,POINT (8.98541555 45.51930662),bassa
MANTOVA,SUZZARA,MN065.0007,DISMISSIONE IMPIANTO PV TAMOIL N.8042,"VIA FRATELLI MONTECCHI, 4/A",,impianti di stoccaggio o adduzione carburanti,10.74385475,44.9901313,POINT (10.74385475 44.9901313),alta
MILANO,MILANO,MI146.3381,AREA VIA E.T. MONETA,VIA MONETA,,aree industriali dismesse,9.18501726,45.46387446,POINT (9.18501726 45.46387446),alta
VARESE,CARONNO PERTUSELLA,VA034.0031,DIPHARMA FRANCIS S.R.L.,"VIA ORIGGIO, 23",(*),aree industriali in attività,9.03447909,45.5958025,POINT (9.03447909 45.5958025),alta
BERGAMO,CISERANO,BG075.0003,EX CASTELCROM ORA MAIER CROMOPLASTICA,"VIA MARTIN LUTHER KING, 5",,aree industriali in attività,9.59265733,45.58436709,POINT (9.59265733 45.58436709),alta
MILANO,PESCHIERA BORROMEO,MI171.0009,Stabilimento SIRPI S.p.a.,"VIA ACHILLE GRANDI, 8",,aree industriali in attività,9.28732809,45.44169799,POINT (9.28732809 45.44169799),alta
MILANO,MILANO,MI146.0233,AREA ex PIRELLI,"VIA ENRICO CAVIGLIA, 3",,aree industriali dismesse,9.22991228,45.44291117,POINT (9.22991228 45.44291117),alta
BRESCIA,BRESCIA,BS029.0166,PUNTO 5 S.R.L.,SCALO MERCI,,altri siti non meglio specificati,10.22054132,45.54017089,POINT (10.22054132 45.54017089),alta
MILANO,MILANO,MI146.3273,AREA DI VIA LORENTEGGIO 170,"VIA LORENTEGGIO, 170",(*),aree industriali dismesse,9.1331725,45.44894839,POINT (9.1331725 45.44894839),alta
MANTOVA,MANTOVA,MN030.0077,P.V. ERG,CORSO PORTA MULINA-,,impianti di stoccaggio o adduzione carburanti,10.81353615,45.15706081,POINT (10.81353615 45.15706081),bassa
LODI,SECUGNAGO,LO052.0001,Ex Società SCAR S.r.l.,LOCALITA' MULINO POLENZONE,,aree industriali dismesse,9.59645355,45.23156176,POINT (9.59645355 45.23156176),bassa
CREMONA,SERGNANO,CR094.0001,STOGIT SPA CENTRALE DI SERGNANO 2,"STRADA VALLARSA, 18",,attività minerarie o estrattive,9.69827341,45.42629883,POINT (9.69827341 45.42629883),alta
MILANO,MILANO,MI146.0326,EX PUNTO VENDITA API,"VIA BERNARDO RUCELLAI, 50",(*),impianti di stoccaggio o adduzione carburanti,9.21538021,45.51105106,POINT (9.21538021 45.51105106),alta
SONDRIO,VILLA DI TIRANO,SO078.0003,EMME CASE SRL 1,VIA BREBBIA,(*),altri siti non meglio specificati,10.13754441,46.20594289,POINT (10.13754441 46.20594289),alta
VARESE,CASTRONNO,VA047.0001,AREA DI SERVIZIO AUTOSTRADA A8 - BRUGHIERA OVEST - P.V. ESSO 0665,"AUTOSTRADA A8 MILANO LAGHI KM 42,900",,impianti di stoccaggio o adduzione carburanti,8.81086654,45.75217363,POINT (8.81086654 45.75217363),bassa
MILANO,MILANO,MI146.2289,Sito Galileo Avionica ora Finmeccanica Group Real Estate S.p.A.,"VIA GIOVANNI BATTISTA GRASSI, 93",,aree industriali dismesse,9.1184209,45.5189951,POINT (9.1184209 45.5189951),alta
PAVIA,CASTEGGIO,PV037.0001,P.V. AGIP 2554,PIAZZA VITTORIO VENETO,,impianti di stoccaggio o adduzione carburanti,9.12882549,45.015738,POINT (9.12882549 45.015738),alta
MILANO,CORMANO,MI086.0010,SU.PER SRL,"VIA ANTONIO GRAMSCI, 41",,aree industriali dismesse,9.16703267,45.53902218,POINT (9.16703267 45.53902218),alta
MILANO,MILANO,MI146.2942,AREA DI VIA RIZZARDI,"VIA FRATELLI RIZZARDI, 45",,aree industriali dismesse,9.10045323,45.49496451,POINT (9.10045323 45.49496451),alta
MILANO,OZZERO,MI165.0005,EFFRAZIONE OLEODOTTO SANNAZZARO,STRADA PROVINCIALE 183,,rilasci accidentali o dolosi di sostanze,8.9238774,45.36560765,POINT (8.9238774 45.36560765),alta
MONZA E DELLA BRIANZA,CESANO MADERNO,MI075.0005,Discariche ex SNIA - Aree esterne di proprietà NYLSTAR - Immobiliare SNIA,VIA GROANE,,discariche abusive o incontrollate,9.1173619,45.62942749,POINT (9.1173619 45.62942749),alta
MILANO,BOLLATE,MI027.0011,AREA EX SILPA,"VIA MILANO, 50",(*),aree industriali dismesse,9.10310475,45.53867293,POINT (9.10310475 45.53867293),alta
SONDRIO,NOVATE MEZZOLA,SO046.0002,"CAVA BUSAN, LARIO SCAVI SRL",LOCALITA' BUSAN,(*),attività minerarie o estrattive,9.5003856,46.19062757,POINT (9.5003856 46.19062757),bassa
MILANO,CASTANO PRIMO,MI062.0006,AREA DI VIA MARCONI 1,"VIA GUGLIELMO MARCONI, 1",(*),aree industriali dismesse,8.78220109,45.55536412,POINT (8.78220109 45.55536412),alta
MILANO,MILANO,MI146.4250,ANTICA RIPA SRL,"VIA MONTI SABINI, 11",,aree industriali dismesse,9.20137678,45.4297863,POINT (9.20137678 45.4297863),alta
MILANO,MILANO,MI146.4160,PLESSO SCOLASTICO SCROSATI,"VIA LUIGI SCROSATI, 3",,serbatoi carburante per riscaldamento,9.1405602,45.45406379,POINT (9.1405602 45.45406379),alta
PAVIA,FERRERA ERBOGNONE,PV062.0006,DEPOSITO PRAOIL OLEODOTTI ITALIANI S.P.A.,STRADA PROVINCIALE 28 PER PIEVE DEL CAIRO,(*),aree industriali in attività,8.85450175,45.08000726,POINT (8.85450175 45.08000726),bassa
BRESCIA,CAPRIANO DEL COLLE,BS037.0001,Discarica Raffineria Metalli Capra,LOCALITA' MONTE NETTO,,discariche autorizzate,10.12473608,45.45546409,POINT (10.12473608 45.45546409),alta
MILANO,MILANO,MI146.1875,P.V. ESSO 0172,"VIA GALLARATE, 392",(*),impianti di stoccaggio o adduzione carburanti,9.10573074,45.50485544,POINT (9.10573074 45.50485544),alta
MILANO,ABBIATEGRASSO,MI002.0013,P.V. ESSO 0425,VIA MAZZINI/ANGOLO VIA DANTE,,impianti di stoccaggio o adduzione carburanti,8.92616109,45.3948899,POINT (8.92616109 45.3948899),alta
MILANO,MILANO,MI146.4346,AREA CR71 PROJECT SRL,"VIA GIOVANNI BATTISTA PRANDINA, 4",,aree industriali dismesse,9.23727037,45.50633513,POINT (9.23727037 45.50633513),alta
BRESCIA,NAVE,BS117.0006,Area EX AFIM - ACCIARIA FENOTTI E COMINI,"VIA TRENTO, 26",,aree industriali dismesse,10.28950884,45.58610643,POINT (10.28950884 45.58610643),alta
MONZA E DELLA BRIANZA,VIMERCATE,MI241.0017,OSPEDALE NUOVO VIMERCATE,"VIA SANTI COSMA E DAMIANO, 10",(*),rilasci accidentali o dolosi di sostanze,9.3580982,45.6084494,POINT (9.3580982 45.6084494),alta
LECCO,BELLANO,LC008.0001,"Presidio Ospedaliero Umberto I, sversamento olio","VIA CARLO ALBERTO, 25",,rilasci accidentali o dolosi di sostanze,9.30687709,46.0479647,POINT (9.30687709 46.0479647),alta
MILANO,TREZZANO SUL NAVIGLIO,MI220.0024,SERBATOIO GASOLIO,VIA L.DA VINCI ANGOLO MARONCELLI,(*),serbatoi carburante per riscaldamento,9.06495766,45.42377091,POINT (9.06495766 45.42377091),alta
MILANO,MILANO,MI146.3929,"STABILE, DISMISSIONE SERBATOI","VIALE TOSCANA, 9",(*),serbatoi carburante per riscaldamento,9.19667642,45.44632346,POINT (9.19667642 45.44632346),alta
BRESCIA,BERZO DEMO,BS016.0006,SELCA SPA IN FALLIMENTO,LOCALITA' FORNO D' ALLIONE,,operazioni di recupero rifiuti,10.31878762,46.08838811,POINT (10.31878762 46.08838811),alta
MILANO,MILANO,MI146.2521,AREA EX PARABIAGHI spa,"VIA GIOVANNI BATTISTA FAUCHE', 13",,aree industriali dismesse,9.16467999,45.48528739,POINT (9.16467999 45.48528739),alta
PAVIA,VIGEVANO,PV177.0050,DEPOSITO FISCATECH,"VIA GENERALE RODOLFO MONTEVECCHIO, 35",,aree industriali dismesse,8.86648458,45.306311,POINT (8.86648458 45.306311),alta
MILANO,SESTO SAN GIOVANNI,MI209.0049,P.V. ESSO 0072,"VIALE RIMEMBRANZE, 191",,impianti di stoccaggio o adduzione carburanti,9.24093335,45.52466266,POINT (9.24093335 45.52466266),alta
MILANO,MILANO,MI146.3986,M4 EX CAVA TRE CASTELLI AREA STRALCIO,VIA GUIDO MARTINELLI,,altri siti non meglio specificati,9.13534415,45.44136294,POINT (9.13534415 45.44136294),alta
BERGAMO,SERIATE,BG198.0020,EX PV CARBURANTI,"VIA NAZIONALE, 33",,impianti di stoccaggio o adduzione carburanti,9.72914254,45.68518595,POINT (9.72914254 45.68518595),alta
LECCO,VERDERIO,LC087.0003,"TERNA SPA GRUPPO ENEL, CON CORNATE D'ADDA",LOCALITA' ROGGIA ANNONI-STAZIONE ELETTRICA,(*),rilasci accidentali o dolosi di sostanze,9.43545403,45.66264095,POINT (9.43545403 45.66264095),alta
LODI,FOMBIO,LO026.0009,AKZO NOBEL COATINGS - FOMBIO,"VIA EMILIA, 2",,aree industriali dismesse,9.67411171,45.14891494,POINT (9.67411171 45.14891494),alta
VARESE,DAVERIO,VA064.0002,P.V. TOTAL,"VIA CESARE BATTISTI, 75",,impianti di stoccaggio o adduzione carburanti,8.76956784,45.76560414,POINT (8.76956784 45.76560414),alta
MILANO,NOVATE MILANESE,MI157.0006,Area I.Pi.Ci,"VIA FRATELLI BELTRAMI, 11",,aree industriali in attività,9.13472392,45.52499655,POINT (9.13472392 45.52499655),alta
VARESE,LUINO,VA092.0005,Area di compostaggio,LOCALITA' CUCCO DI VOLDOMINO,,altri siti non meglio specificati,8.74484375,45.99980794,POINT (8.74484375 45.99980794),alta
MONZA E DELLA BRIANZA,MONZA,MB033.0045,EX TESSITURA,"VIA VAL D' OSSOLA, 17",,aree industriali dismesse,9.27117842,45.57067147,POINT (9.27117842 45.57067147),alta
VARESE,VARESE,VA133.0008,P.V. ESSO 673,"VIALE EUROPA, 82",,impianti di stoccaggio o adduzione carburanti,8.8322473,45.80490705,POINT (8.8322473 45.80490705),alta
MILANO,RHO,MI182.0093,EX ROTOINCISA,"VIA ENRICO MATTEI, 7",,aree industriali dismesse,9.02349243,45.53228791,POINT (9.02349243 45.53228791),alta
BRESCIA,SAREZZO,BS174.0012,OTTOMAN,"VIA MAESTRI DEL LAVORO, 1",,aree industriali in attività,10.2023739,45.6585188,POINT (10.2023739 45.6585188),bassa
CREMONA,CASTELLEONE,CR025.0001,EX STABILIMENTO BIC ITALIA,STRADA STATALE 415,(*),aree industriali dismesse,9.75080714,45.30593009,POINT (9.75080714 45.30593009),alta
BRESCIA,CONCESIO,BS061.0001,"CAFFARO SPA - SOTTOSTAZIONE ELETTRICA ""STOCCHETTA""","VIA GIUSEPPE ZANARDELLI, 50",,aree industriali dismesse,10.22492632,45.58875517,POINT (10.22492632 45.58875517),alta
MILANO,ARLUNO,MI010.0024,SOLLES SRL,VIA SANTO STEFANO TICINO,,attività minerarie o estrattive,8.94878735,45.51089836,POINT (8.94878735 45.51089836),bassa
MILANO,MILANO,MI146.1046,"AREA EX STAZIONE DI PORTA VITTORIA - SETTORE UCP5, UCP3 e BEIC",VIE CENA/UMBRIA/MONTE ORTIGARA/MOLISE,,altri siti non meglio specificati,9.2176166,45.45859438,POINT (9.2176166 45.45859438),alta
VARESE,SARONNO,VA119.0055,AREA VIA FRUA,"VIA GIUSEPPE FRUA, 19",,aree industriali dismesse,9.04112549,45.62979894,POINT (9.04112549 45.62979894),alta
VARESE,LONATE POZZOLO,VA090.0004,FONDERIA BOTTARINI EX AREA INDUSTRIALE,"VIA SILVIO PELLICO, 8",,aree industriali dismesse,8.75742769,45.59751056,POINT (8.75742769 45.59751056),alta
MILANO,SAN GIULIANO MILANESE,MI195.0060,AGIP PV 2516,AUTOSTRADA A50 TANGENZIALE OVEST DI MILANO,,impianti di stoccaggio o adduzione carburanti,9.2780372,45.3838531,POINT (9.2780372 45.3838531),bassa
MILANO,MILANO,MI146.4001,"PARCO BADEN PAWELL, GIÀ ""AREA ARGELATI-TORRE- LOMBARDINI""",VIE AUTARI E LOBARDINI,,aree industriali dismesse,9.1664468,45.44865373,POINT (9.1664468 45.44865373),alta
BRESCIA,MARONE,BS106.0001,"EX CASA DI RIPOSO, rimozione cisterna","VIA BATTISTA CRISTINI, 27",,serbatoi carburante per riscaldamento,10.09082746,45.73432479,POINT (10.09082746 45.73432479),alta
MILANO,CUSANO MILANINO,MI098.0005,IMMOBILIARE C.B. - AREA EX METALLVAKUUM POLIPLASTIC SPA,"VIA ABELE MERLI, 10",(*),aree industriali dismesse,9.1848095,45.54598998,POINT (9.1848095 45.54598998),alta
MONZA E DELLA BRIANZA,MONZA,MB033.0039,EX FELTRIFICIO,"VIALE CESARE BATTISTI, 40",,aree industriali dismesse,9.26598991,45.59234508,POINT (9.26598991 45.59234508),alta
PAVIA,PAVIA,PV110.0062,ex P.V. Agip n. 2569,"VIALE CREMONA, 64/73",,impianti di stoccaggio o adduzione carburanti,9.18785414,45.17970464,POINT (9.18785414 45.17970464),alta
MILANO,PADERNO DUGNANO,MI166.0088,AREA VIA PEPE,"VIA GUGLIELMO PEPE, 56",,aree industriali dismesse,9.15316251,45.56340091,POINT (9.15316251 45.56340091),alta
MILANO,SENAGO,MI206.0004,AREA EX PLASTECO MILANO S.r.l. - zona b (proprietà Londra s.r.l.),VIA VINCENZO MONTI,,aree industriali dismesse,9.12158616,45.57350674,POINT (9.12158616 45.57350674),alta
MANTOVA,ACQUANEGRA SUL CHIESE,MN001.0001,EX AMBROSIANA ITALFER,VIA MORO-LOC.MOSIO,,aree industriali dismesse,10.48510915,45.14867774,POINT (10.48510915 45.14867774),alta
VARESE,BIANDRONNO,VA014.0002,Stabilimento SWM,"VIA NINO BIXIO, 8",,aree industriali in attività,8.70557956,45.79872859,POINT (8.70557956 45.79872859),alta
MONZA E DELLA BRIANZA,MONZA,MB033.0031,EX CASERMA IV NOVEMBRE,VIA MONTEVECCHIA,(*),altri siti non meglio specificati,9.24970912,45.59347655,POINT (9.24970912 45.59347655),alta
MILANO,MILANO,MI146.0667,PUNTO VENDITA SHELL N. 49.491,"VIALE ALCIDE DE GASPERI, 2/1",,impianti di stoccaggio o adduzione carburanti,9.14007438,45.48973518,POINT (9.14007438 45.48973518),alta
VARESE,CASSANO MAGNAGO,VA040.0013,"AREA EX PREVIATI VIA BONICALZA, 132","VIA MARIO ALBINO BONICALZA, 132",(*),altri siti non meglio specificati,8.8441712,45.65884899,POINT (8.8441712 45.65884899),alta
LECCO,COLICO,LC023.0009,A.T.L. SPA (IVECO),"VIA AL CONFINE, 19/21",,rilasci accidentali o dolosi di sostanze,9.39413457,46.14006101,POINT (9.39413457 46.14006101),alta
MILANO,MILANO,MI146.1642,Area Via Quarto Cagnino,"VIA QUARTO CAGNINO, 39",(*),aree industriali dismesse,9.11569985,45.47325352,POINT (9.11569985 45.47325352),alta
MILANO,CORSICO,MI093.0001,PVF 0469 ESSO ITALIANA Srl,"VIALE DELLA RESISTENZA, 50",,impianti di stoccaggio o adduzione carburanti,9.10765785,45.42751199,POINT (9.10765785 45.42751199),alta
MANTOVA,MANTOVA,MN030.0128,EX IMPIANTO DI LAVAGGIO AUTOCISTERNE,"STRADA GHISIOLO, 2",,impianti di stoccaggio o adduzione carburanti,10.83190675,45.1754223,POINT (10.83190675 45.1754223),alta
BRESCIA,MONTICHIARI,BS113.0027,"SCARICHI IDRICI NEL TERRENO, DITTA NORMALIEN SPA",VIA GRAZIA DELEDDA,,aree industriali in attività,10.32883784,45.45083957,POINT (10.32883784 45.45083957),alta
MILANO,MILANO,MI146.4280,AD SOLUZIONI SRL,"VIA ANNA NEERA, 10",,aree industriali dismesse,9.17505329,45.43297832,POINT (9.17505329 45.43297832),alta
MANTOVA,GUIDIZZOLO,MN028.0005,"SINISTRO CON CONSEGUENTE SVERSAMENTO DI BENZINA E GASOLIO, SS 236 KM 26+250",STRADA STATALE 236 GOITESE,(*),rilasci accidentali o dolosi di sostanze,10.5706747,45.31021799,POINT (10.5706747 45.31021799),bassa
LECCO,LECCO,LC042.0005,PUNTO VENDITA TAMOIL (EX AGIP) 1873,"CORSO BERGAMO, 157",,impianti di stoccaggio o adduzione carburanti,9.41972379,45.81688436,POINT (9.41972379 45.81688436),alta
BERGAMO,ALMENNO SAN SALVATORE,BG007.0002,Area proprietà privata,"VIA DEI ROCCOLI, 12",,serbatoi carburante per riscaldamento,9.58130553,45.75410298,POINT (9.58130553 45.75410298),alta
LODI,PIEVE FISSIRAGA,LO045.0005,Itelyum Regeneration (ex VISCOLUBE),"VIA TAVERNELLE, 19",,aree industriali in attività,9.45696628,45.26942747,POINT (9.45696628 45.26942747),alta
PAVIA,VOGHERA,PV182.0016,AREA DITTA MATTI S.P.A.,"STRADA DI ORIOLO, 85",(*),operazioni di recupero rifiuti,9.01910549,45.02488078,POINT (9.01910549 45.02488078),alta
MILANO,MILANO,MI146.3341,CENTRO SPORTIVO COLOMBO,VIA CARDELLINO ANG.DELLA RONDINE,,serbatoi carburante per riscaldamento,9.1238035,45.4484308,POINT (9.1238035 45.4484308),alta
MILANO,MILANO,MI146.0353,AREA EX SQUEO AUTODEMOLIZIONI,VIALE PUGLIE 26/28,,smaltimenti non autorizzati - abbandono rifiuti,9.22383041,45.4495714,POINT (9.22383041 45.4495714),alta
MILANO,MILANO,MI146.0113,AREA ALER - ZAMA SALOMONE,VIE ZAMA/SALOMONE,,altri siti non meglio specificati,9.23777468,45.45377266,POINT (9.23777468 45.45377266),alta
LODI,BORGHETTO LODIGIANO,LO004.0003,EX COOPERATIVA EDILIZIA EUROPEA 2000,"VIA GIUSEPPE GARIBALDI, 59",,altri siti non meglio specificati,9.49806813,45.21256033,POINT (9.49806813 45.21256033),alta
BERGAMO,URGNANO,BG222.0003,"Azienda agricola, demolizione edificio",VIA DEI CURTI,,aree industriali dismesse,9.6940477,45.60289628,POINT (9.6940477 45.60289628),alta
MILANO,PESSANO CON BORNAGO,MI172.0004,Area Cna Novellana,LOCALITA' C.NA NOVELLANA,(*),discariche abusive o incontrollate,9.38538649,45.54792285,POINT (9.38538649 45.54792285),bassa
VARESE,MORNAGO,VA106.0001,"ex ""Galstaff Multiresine"" ora ""Hickson Coasting S.r.l.""","VIA STAZIONE, 90",,aree industriali in attività,8.73378074,45.73131769,POINT (8.73378074 45.73131769),alta
COMO,CASTELMARTE,CO058.0003,GAL.FOR. - EX AREA INDUSTRIALE,"VIA TAGLIAMENTO, 14",,aree industriali dismesse,9.24341414,45.8360783,POINT (9.24341414 45.8360783),bassa
BERGAMO,CASAZZA,BG058.0001,PV Agip - ENI S.p.A. P.V. 1522,"VIA NAZIONALE, 42",(*),impianti di stoccaggio o adduzione carburanti,9.90865072,45.74633376,POINT (9.90865072 45.74633376),alta
MILANO,PREGNANA MILANESE,MI179.0002,DEPOSITO KUWAIT,"VIALE LOMBARDIA, 38",(*),impianti di stoccaggio o adduzione carburanti,9.01433788,45.5182713,POINT (9.01433788 45.5182713),alta
MILANO,MILANO,MI146.1559,Area ex ELECTROCLEANING S.r.l.,"VIA GIOVANNI MELI, 30",,aree industriali dismesse,9.23970957,45.50521957,POINT (9.23970957 45.50521957),alta
MILANO,TREZZANO SUL NAVIGLIO,MI220.0002,MANULI AUTOMOTIVE SPA ORA MAFLOW SPA,"VIA GIOVANNI BOCCACCIO, 1",,aree industriali in attività,9.05725774,45.41841466,POINT (9.05725774 45.41841466),alta
MILANO,MILANO,MI146.2754,AREA DI VIA FREIKOFEL,"VIA FREIKOFEL, 26",,aree industriali dismesse,9.24582538,45.43231716,POINT (9.24582538 45.43231716),alta
MILANO,ROZZANO,MI189.0036,ATTIVITA' COMMERCIALE,"VIA EUGENIO CURIEL, 25",,impianti di stoccaggio o adduzione carburanti,9.17311589,45.39688008,POINT (9.17311589 45.39688008),alta
MILANO,MILANO,MI097.0010,OLEODOTTO ENI FERRERA-RHO,S.P.114 ALTEZZA DEVIAZIONE CASCINA SCARIONA,,rilasci accidentali o dolosi di sostanze,9.15118787,45.51565367,POINT (9.15118787 45.51565367),alta
MILANO,MILANO,MI146.4332,PIO ISTITUTO SORDI,"VIA JESI, 2",,aree industriali in attività,9.23194644,45.50074081,POINT (9.23194644 45.50074081),alta
COMO,,CO215.0001,"P.V. TOTALERG, ex CO178",S.S.342 KM 73+350,,impianti di stoccaggio o adduzione carburanti,,,,nd
MILANO,MILANO,MI146.4132,"PLESSO SCOLASTICO COMUNALE, rimozione due cisterne interrate asservite all'impianto riscaldamento","VIA PIERO STROZZI, 11",,altri siti non meglio specificati,9.14333557,45.45999649,POINT (9.14333557 45.45999649),alta
VARESE,VARESE,VA133.0030,MV Agusta Motors spa,"VIA GIOVANNI MACCHI, 144",,aree industriali in attività,8.77994544,45.80259427,POINT (8.77994544 45.80259427),alta
MONZA E DELLA BRIANZA,VILLASANTA,MI239.0003,LOMBARDA PETROLI S.P.A.,"VIA RAFFAELLO SANZIO, 4",,aree industriali in attività,9.30401321,45.60152561,POINT (9.30401321 45.60152561),alta
MILANO,SAN GIORGIO SU LEGNANO,MI194.0004,EX CHICO SNC e CROMATURA MODERNA SRL,VIA EISTEIN SNC,,aree industriali dismesse,8.9096922,45.57241436,POINT (8.9096922 45.57241436),bassa
MILANO,RHO,MI182.0013,CROMATURA RHODENSE,"VIA DELLA SENNA, 11",,aree industriali in attività,9.04399564,45.51878324,POINT (9.04399564 45.51878324),alta
MILANO,MILANO,MI146.4231,AREA VIA CAVALCABO',"VIA PIETRO CAVALCABO', 4",,aree industriali dismesse,9.15124377,45.46168544,POINT (9.15124377 45.46168544),alta
VARESE,SARONNO,VA119.0020,AREA EX CANTONI,"VIA DON SILVIO MARZORATI, 22",,aree industriali dismesse,9.04469918,45.62916919,POINT (9.04469918 45.62916919),alta
MILANO,CESANO BOSCONE,MI074.0011,AREA VIA MONEGHERIO,"VIA MARIA MONEGHERIO, 3/5",,aree industriali dismesse,9.09266673,45.44788368,POINT (9.09266673 45.44788368),alta
LODI,LODI,LO031.0006,P.V. TotalErg (ex AGIP N. 2168),VIALE SANT' ANGELO,,impianti di stoccaggio o adduzione carburanti,9.50176833,45.30575794,POINT (9.50176833 45.30575794),alta
MILANO,PESCHIERA BORROMEO,MI171.0007,RAM 1 - AEREOPORTO LINATE,LOCALITA' AEREOPORTO DI LINATE,,impianti di stoccaggio o adduzione carburanti,9.27207334,45.44535786,POINT (9.27207334 45.44535786),alta
CREMONA,SERGNANO,CR094.0005,P.V. TAMOIL 6086,"VIA SANT' ANTONIO, 5",,impianti di stoccaggio o adduzione carburanti,9.70229992,45.42523433,POINT (9.70229992 45.42523433),alta
MILANO,MILANO,MI146.2700,EX PV Q8 N. 1156,"VIA LORENTEGGIO, 243",,aree industriali dismesse,9.12146072,45.44517163,POINT (9.12146072 45.44517163),alta
BRESCIA,DELLO,BS066.0002,Ex tintoria ECO-NEPROMA,"VIA SAN ZENONE, 191",,aree industriali dismesse,10.09693882,45.42672507,POINT (10.09693882 45.42672507),alta
PAVIA,CASTEGGIO,PV037.0002,EX PV SHELL,"VIA EMILIA, 107",,impianti di stoccaggio o adduzione carburanti,9.13214983,45.01723305,POINT (9.13214983 45.01723305),alta
MONZA E DELLA BRIANZA,BOVISIO MASCIAGO,MI030.0011,INDUSTRIA CHIMICA BOVISIO (ICSAM) - EX AREA INDUSTRIALE,"VIA TOLMINO, 56",,aree industriali dismesse,9.1587292,45.61210324,POINT (9.1587292 45.61210324),alta
MILANO,MILANO,MI146.3593,AREA RCS Media Group SpA,"VIA ANGELO RIZZOLI, 2-4-6-8",(*),altri siti non meglio specificati,9.24929496,45.50383172,POINT (9.24929496 45.50383172),alta
MILANO,MILANO,MI146.3824,"SHELL, PV N. 49.088","VIALE CASSALA, 4/A",,impianti di stoccaggio o adduzione carburanti,9.15998583,45.44593814,POINT (9.15998583 45.44593814),alta
VARESE,TRAVEDONA - MONATE,VA128.0001,EX DISCARICA COMUNALE,LOCALITA' BOSCO GROSSO,,discariche abusive o incontrollate,8.67920101,45.80177754,POINT (8.67920101 45.80177754),alta
MILANO,BOFFALORA SOPRA TICINO,MI026.0021,RDM _MAGENTA,S.P.,,aree industriali dismesse,8.83265169,45.46311237,POINT (8.83265169 45.46311237),bassa
BRESCIA,GIANICO,BS079.0001,FORGIATURA MODERNA ARESE - EX ACCIAIERIE E FERRIERE SEBINO S.p.A.,"VIA CAROBE, 9",,aree industriali in attività,10.17544224,45.86605338,POINT (10.17544224 45.86605338),alta
MILANO,BUCCINASCO,MI036.0017,VIA GUIDO ROSSA-VIA ROMA,VIA GUIDO ROSSA,,smaltimenti non autorizzati - abbandono rifiuti,9.12846638,45.41562245,POINT (9.12846638 45.41562245),alta
MONZA E DELLA BRIANZA,BRUGHERIO,MI034.0020,GGG SARDI & C. EX AREA INDUSTRIALE,VIE SAN GIUSEPPE-GALBIATI,(*),aree industriali dismesse,9.2951018,45.55083395,POINT (9.2951018 45.55083395),alta
MILANO,MILANO,MI146.4251,EX TECNINOX,"VIA BULLONA, 5",,aree industriali dismesse,9.16203738,45.48577548,POINT (9.16203738 45.48577548),alta
MILANO,MILANO,MI146.0930,FONDAZIONE E.A FIERA INTERNAZIONALE DI MILANO AREA CERNIERA,"LARGO DOMODOSSOLA, 1",,aree industriali dismesse,9.15979996,45.48002938,POINT (9.15979996 45.48002938),alta
PAVIA,PAVIA,PV110.0008,PV AGIP 2569,"VIALE CREMONA, 69",,impianti di stoccaggio o adduzione carburanti,9.19069595,45.17915206,POINT (9.19069595 45.17915206),alta
PAVIA,SANNAZZARO DE BURGONDI,PV138.0001,RAFFINERIA DI SANNAZZARO ENI S.P.A.,"VIA ENRICO MATTEI, 46",,aree industriali in attività,8.89798961,45.10227839,POINT (8.89798961 45.10227839),alta
COMO,VERTEMATE CON MINOPRIO,CO242.0012,ABET LAMINATI SPA,STRADA PROVINCIALE PER BULGAROGRASSO 3,,aree industriali dismesse,9.06312744,45.72487246,POINT (9.06312744 45.72487246),alta
BRESCIA,PAVONE DEL MELLA,BS137.0004,AREA EX DISCOTECA,"VIA PER PRALBOINO, 20",,serbatoi carburante per riscaldamento,10.21122755,45.2914056,POINT (10.21122755 45.2914056),alta
MONZA E DELLA BRIANZA,MONZA,MI149.0064,EX AREA INDUSTRIALE,VIE BORGAZZI-CAMPANIA,,aree industriali dismesse,9.2593038,45.56508504,POINT (9.2593038 45.56508504),alta
BERGAMO,FILAGO,BG098.0003,DSM COMPOSITE RESINS ITALIA SRL,"VIA RODI, 5",,aree industriali in attività,9.53958896,45.63938608,POINT (9.53958896 45.63938608),alta
MILANO,MILANO,MI146.4042,AREA VIA PIRANESI,"VIA GIOVANNI BATTISTA PIRANESI, 18",,aree industriali dismesse,9.22783891,45.46070869,POINT (9.22783891 45.46070869),alta
MILANO,SETTALA,MI210.0003,HENKEL,"VIA DON GIOVANNI MINZONI, 1",,aree industriali in attività,9.39456574,45.42585203,POINT (9.39456574 45.42585203),alta
MILANO,MILANO,MI146.4258,AREA DI VIA BOVIO,"VIA GIOVANNI BOVIO, 10/12/14/16",,aree industriali dismesse,9.18429267,45.50290152,POINT (9.18429267 45.50290152),alta
MILANO,MILANO,MI146.4319,SCUOLA COMUNALE oggetto di riqualificazione edilizia,VIA BROCCHI 5,,altri siti non meglio specificati,9.12101918,45.49271634,POINT (9.12101918 45.49271634),alta
SONDRIO,LANZADA,SO036.0002,Area Proprietà privata,VIA SAN GIOVANNI,,altri siti non meglio specificati,9.86851019,46.26916219,POINT (9.86851019 46.26916219),alta
MILANO,SEGRATE,MI205.0004,EX 3B ITALIA IMMOBILIARE ARDUINA ITALIA,"VIA REDECESIO, 18",,smaltimenti non autorizzati - abbandono rifiuti,9.26981636,45.48506031,POINT (9.26981636 45.48506031),alta
BERGAMO,SCANZOROSCIATE,BG194.0003,POLYNT SPA,"VIA ENRICO FERMI, 51",,aree industriali in attività,9.73856988,45.70716201,POINT (9.73856988 45.70716201),alta
MILANO,PAULLO,MI169.0006,P.V. AGIP 51919,VIA MILANO,(*),impianti di stoccaggio o adduzione carburanti,9.40061467,45.4160419,POINT (9.40061467 45.4160419),alta
MANTOVA,CASTIGLIONE DELLE STIVIERE,MN017.0003,Cava del PIRATA,LOCALITA' CASCINA FONTANELLA,(*),smaltimenti non autorizzati - abbandono rifiuti,10.4656673,45.3964913,POINT (10.4656673 45.3964913),alta
BERGAMO,BERGAMO,BG024.0128,EX OSPEDALI RIUNITI - AREA UMI3 BONIFICA,LARGO GIOVANNI BAROZZI,,altri siti non meglio specificati,9.65367386,45.69921943,POINT (9.65367386 45.69921943),alta
VARESE,BUSTO ARSIZIO,VA026.0126,SOCIETÀ ATT S.R.L,VIA MONTI ANGOLO VIA BAZZECCA,,aree industriali dismesse,8.85207199,45.60664654,POINT (8.85207199 45.60664654),alta
MILANO,SESTO SAN GIOVANNI,MI209.0086,EX PV Q8 1126,"VIA PADRE ERNESTO RAVASI, 19",,impianti di stoccaggio o adduzione carburanti,9.24028935,45.53520594,POINT (9.24028935 45.53520594),alta
MANTOVA,ASOLA,MN002.0017,EX FLUCOSIT - ACQUE SOTTERRANEE,S.P.CASTELNUOVO 68,,altri siti non meglio specificati,10.4301371,45.22176028,POINT (10.4301371 45.22176028),bassa
BRESCIA,PONTEVICO,BS149.0009,FAI-FTC SPA,VIA ENRICO MATTEI,,aree industriali dismesse,10.12306344,45.26621576,POINT (10.12306344 45.26621576),alta
MILANO,SESTO SAN GIOVANNI,MI209.0163,LAGHETTO PARCO CARLO MARX,VIA CARLO MARX,,altri siti non meglio specificati,9.24749644,45.5254154,POINT (9.24749644 45.5254154),alta
VARESE,CASTELLANZA,VA042.0025,RESCOL ora CHIMICA POMPONESCO,"VIA DEL SEMPIONE, 13",,aree industriali dismesse,8.88163056,45.61580483,POINT (8.88163056 45.61580483),alta
MILANO,LISCATE,MI122.0009,AIR LIQUIDE ITALIA SERVICE,"VIA DEL LAGO, 8/10",,aree industriali dismesse,9.39637405,45.47900344,POINT (9.39637405 45.47900344),alta
BRESCIA,BRESCIA,BS029.0022,Area Ex-Pietra s.p.a. - FINSIBI S.p.A. (SIN Brescia-Caffaro per Falda),"VIA ORZINUOVI, 8",,aree industriali dismesse,10.19500336,45.52751441,POINT (10.19500336 45.52751441),alta
MILANO,ARESE,MI009.0032,Area industriale Officine Saspe S.r.l.,"VIA SENATO, 10",,aree industriali dismesse,9.08319369,45.5436525,POINT (9.08319369 45.5436525),alta
MILANO,VIMODRONE,MI242.0029,RIQUALIFICA EDILIZIA IMMOBILIARE ROMA,"STRADA STATALE 11 PADANA SUPERIORE, 133",,altri siti non meglio specificati,9.28720479,45.51454179,POINT (9.28720479 45.51454179),bassa
MILANO,LEGNANO,MI118.0040,AREA EX STASER,"VIA PISA, 21",,aree industriali dismesse,8.89989189,45.5871857,POINT (8.89989189 45.5871857),alta
LODI,MALEO,LO035.0001,EX DISCARICA R.S.U.,LOCALITA' CASCINA SESSA,,discariche autorizzate,9.75180968,45.17481891,POINT (9.75180968 45.17481891),alta
MANTOVA,OSTIGLIA,MN038.0015,AREA EXPO DI PIAZZA MAZZINI,PIAZZA GIUSEPPE MAZZINI,,aree industriali dismesse,11.133076,45.06818624,POINT (11.133076 45.06818624),alta
BERGAMO,GAZZANIGA,BG111.0001,AREA EX MASSERINI RIPORTI INDUSTRIALI - AREA VIA CRISPI,VIA FRANCESCO CRISPI,,aree industriali dismesse,9.83027584,45.79495885,POINT (9.83027584 45.79495885),alta
BERGAMO,SERIATE,BG198.0016,EX FRATTINI,"VIA COMONTE, 15",(*),aree industriali in attività,9.73852111,45.68560033,POINT (9.73852111 45.68560033),alta
CREMONA,CREMA,CR035.0002,BOSCH VHIT S.P.A.,"VIA FRANCESCO CAVALLI, 53/A",,aree industriali dismesse,9.68339821,45.36732294,POINT (9.68339821 45.36732294),alta
MILANO,ROZZANO,MI189.0007,P.V. SHELL ITALIA SPA,"VIA EUGENIO CURIEL, 25",,impianti di stoccaggio o adduzione carburanti,9.17311589,45.39688008,POINT (9.17311589 45.39688008),alta
COMO,CUCCIAGO,CO084.0004,EREDI BIANCHI (PARTE EX GUGLIELMETTI),"VIA PER CANTU', 29/A",,aree industriali dismesse,9.11049719,45.74222525,POINT (9.11049719 45.74222525),alta
MONZA E DELLA BRIANZA,VAREDO,MI231.0011,GLOBAL CIRCUIT,"VIA VITTORIO EMANUELE ORLANDO, 40",,aree industriali dismesse,9.16312593,45.59534005,POINT (9.16312593 45.59534005),alta
COMO,GUANZATE,CO114.0003,SINISTRO DEL 12/05/03 S.P. 25 RIBALTAMENTO AUTOCISTERNA,VIA PATRIOTI,,rilasci accidentali o dolosi di sostanze,9.00823909,45.72688506,POINT (9.00823909 45.72688506),alta
MILANO,ASSAGO,MI011.0010,AUTODEMOLITORE,"VIA ALESSANDRO VOLTA, 9",,smaltimenti non autorizzati - abbandono rifiuti,9.12419962,45.41179107,POINT (9.12419962 45.41179107),alta
MILANO,MILANO,MI146.0370,AREA CONDOMINIO - Serbatoio,"CORSO MAGENTA, 65",,rilasci accidentali o dolosi di sostanze,9.17127767,45.46570412,POINT (9.17127767 45.46570412),alta
BERGAMO,BERGAMO,BG024.0119,"GRUPEDIL SPA (AREE EX OTE, EX ZURCHER, EX NORIS&FIGLI)",VIE BIANZANA/SERASSI,,aree industriali dismesse,9.6888541,45.7062481,POINT (9.6888541 45.7062481),alta
MILANO,MILANO,MI146.4327,AREA VIA CIALDINI,"VIA ENRICO CIALDINI, 67",,aree industriali dismesse,9.1708068,45.51112537,POINT (9.1708068 45.51112537),alta
MILANO,CERRO AL LAMBRO,MI071.0001,CASCINA GAZZERA,LOCALITA' CASCINA GAZZERA,,smaltimenti non autorizzati - abbandono rifiuti,9.34704067,45.32178087,POINT (9.34704067 45.32178087),alta
MILANO,SOLARO,MI213.0011,AREA EX CROMOSYSTEM,"VIA DELLA FERROVIA, 3",,aree industriali dismesse,9.05499235,45.62174909,POINT (9.05499235 45.62174909),alta
MILANO,MILANO,MI146.3227,AREA DI VIA PASTORELLI,"VIA GIOVANNI PASTORELLI, 13",,aree industriali dismesse,9.16120013,45.4467846,POINT (9.16120013 45.4467846),alta
PAVIA,STRADELLA,PV153.0006,"P.V. IP 44018, Area di Servizio Stradella Sud",AUTOSTRADA A21 DIREZIONE PIACENZA,,impianti di stoccaggio o adduzione carburanti,9.3096862,45.07323109,POINT (9.3096862 45.07323109),bassa
MILANO,MILANO,MI146.1084,AREA EX FIERA Contractor TRE TORRI,"LARGO DOMODOSSOLA, 1A",,altri siti non meglio specificati,9.15979996,45.48002938,POINT (9.15979996 45.48002938),alta
BRESCIA,LUMEZZANE,BS096.0020,CIMITERO UNICO,VIA MASSIMO D' AZEGLIO,,smaltimenti non autorizzati - abbandono rifiuti,10.26896043,45.6486214,POINT (10.26896043 45.6486214),alta
MILANO,BELLINZAGO LOMBARDO,MI016.0002,Ditta NE.MA. Di Negri e Manzoni S.n.c.,"VIA PADANA SUPERIORE, 122",,aree industriali dismesse,9.45298367,45.54692244,POINT (9.45298367 45.54692244),alta
MILANO,MILANO,MI146.1280,AREA DEGRADATA VIA ZECCA VECCHIA,"VIA ZECCA VECCHIA, 2",,altri siti non meglio specificati,9.18459979,45.46286726,POINT (9.18459979 45.46286726),alta
MILANO,MILANO,MI146.4307,sversamento accidentale di gasolio,"VIA GIUSEPPE BOTTELLI, 11",,rilasci accidentali o dolosi di sostanze,9.20983815,45.50343436,POINT (9.20983815 45.50343436),alta
PAVIA,CARBONARA AL TICINO,PV030.0001,Inquinamento da gasolio del 7/9/2006 Cascina dei Frati,VIA CASCINA DEI FRATI,(*),impianti di stoccaggio o adduzione carburanti,9.08275595,45.16079901,POINT (9.08275595 45.16079901),bassa
MILANO,BUSTO GAROLFO,MI041.0031,EFFRAZIONE OLEODOTTO ENI,VIA PER FURATO,,rilasci accidentali o dolosi di sostanze,8.87703795,45.53620294,POINT (8.87703795 45.53620294),alta
MILANO,PERO,MI170.0027,PETRONAS LUBRIFICANTS ITALY,"VIA SEMPIONE, 191",,impianti di stoccaggio o adduzione carburanti,9.0812011,45.51337189,POINT (9.0812011 45.51337189),alta
MILANO,MILANO,MI146.4213,AREA VIA PIZZI,"VIA GIAN FRANCESCO PIZZI, 5",,aree industriali dismesse,9.20136955,45.43683533,POINT (9.20136955 45.43683533),alta
VARESE,LAVENA PONTE TRESA,VA086.0002,AREA EX SVIT,VIALE UNGHERIA,,altri siti non meglio specificati,8.85853706,45.96548211,POINT (8.85853706 45.96548211),alta
BERGAMO,CALCIO,BG044.0010,CEPAV DUE AV/AC MILANO-VERONA - LOTTO FUNZIONALE TREVIGLIO-BRESCIA,,,altri siti non meglio specificati,9.84531095,45.50224366,POINT (9.84531095 45.50224366),bassa
MONZA E DELLA BRIANZA,ALBIATE,MI006.0002,TERRITORIO COMUNALE (EX ATHENA),"VIALE LOMBARDIA, 26",,aree industriali in attività,9.25063897,45.65991692,POINT (9.25063897 45.65991692),alta
MILANO,BAREGGIO,MI012.0019,ENI S.P.A. AREA HUB NORD - OLEODOTTO SANNAZZARO-RHO,VIA GIOVANNI FALCONE,,rilasci accidentali o dolosi di sostanze,9.00039276,45.48731219,POINT (9.00039276 45.48731219),alta
MILANO,SESTO SAN GIOVANNI,MI209.0063,AREA PARCO DELLE TORRI,VIA CARLO MARX,,smaltimenti non autorizzati - abbandono rifiuti,9.24749644,45.5254154,POINT (9.24749644 45.5254154),alta
MILANO,PIOLTELLO,MI175.0036,TELECOM ITALIA,VIA ERODOTO,(*),,9.32383845,45.51221899,POINT (9.32383845 45.51221899),alta
MILANO,MILANO,MI146.2841,BNP PARIBAS REAL ESTATE - IMMOBILE,"VIA FEDERICO DE ROBERTO, 5",(*),serbatoi carburante per riscaldamento,9.13773052,45.51505678,POINT (9.13773052 45.51505678),alta
BRESCIA,SAN FELICE DEL BENACO,BS171.0001,ESSO ITALIANA SRL,"VIALE ITALIA, 14",,impianti di stoccaggio o adduzione carburanti,10.55008585,45.58709788,POINT (10.55008585 45.58709788),alta
MILANO,MILANO,MI146.0717,Area EX ITALVER,VIE PARABIAGO 19/BUSTO ARSIZIO 36 19,(*),aree industriali dismesse,9.10939736,45.50102649,POINT (9.10939736 45.50102649),alta
VARESE,ALBIZZATE,VA002.0003,LAMBERTI SPA,"VIA PIAVE, 18",,aree industriali in attività,8.80638206,45.72744471,POINT (8.80638206 45.72744471),alta
BERGAMO,BERGAMO,BG024.0052,ITIB,VIA CRISTOFORO BAIONI,,impianti di stoccaggio o adduzione carburanti,9.67745725,45.70609664,POINT (9.67745725 45.70609664),alta
MILANO,TREZZO SULL ADDA,MI221.0003,DITTA FORNACE LATERIZI,VIA FRANCESCO GUARNERIO,,smaltimenti non autorizzati - abbandono rifiuti,9.51467495,45.60951752,POINT (9.51467495 45.60951752),alta
BERGAMO,TREVIGLIO,BG219.0002,EX STABILIMENTO BASLINI S.P.A. ORA HABITA SRL,"PIAZZALE ERNESTO BASLINI, 1",,aree industriali in attività,9.58461189,45.51636049,POINT (9.58461189 45.51636049),alta
COMO,COMO,CO075.0102,EX STAMPERIA DI CAMERIATA,"VIA MARCO CUMANO, 16",,aree industriali dismesse,9.08785739,45.78581696,POINT (9.08785739 45.78581696),alta
MILANO,CORBETTA,MI085.0006,RITROVAMENTO RIFIUTI INTERRATI,CASCINA MALPAGA,,smaltimenti non autorizzati - abbandono rifiuti,8.90991446,45.46867438,POINT (8.90991446 45.46867438),alta
MANTOVA,SAN GIACOMO DELLE SEGNATE,MN056.0003,C.A.L.V. CONSORZIO AGRARIO LOMBARDO VENETO - DISMISSIONE DEPOSITO OLI MINERALI,"VIA UGO RONCADA, 3",,altri siti non meglio specificati,11.03454254,44.97069841,POINT (11.03454254 44.97069841),alta
MILANO,MILANO,MI146.0407,KUWAIT P.V. 1941,"VIA DEL MARE, 30",,impianti di stoccaggio o adduzione carburanti,9.15860528,45.42210363,POINT (9.15860528 45.42210363),alta
MILANO,MILANO,MI146.4290,MARMIFICIO CERTOSA EX,"VIALE CERTOSA, 135",,aree industriali dismesse,9.1390034,45.49558068,POINT (9.1390034 45.49558068),alta
MILANO,MILANO,MI146.0187,"PV 49096, SHELL ITALIA SPA","VIALE MARCHE, 62",(*),impianti di stoccaggio o adduzione carburanti,9.19159571,45.49646276,POINT (9.19159571 45.49646276),alta
MILANO,MILANO,MI146.2703,Scuola comunale - serbatoio interrato,"VIA VITTORIA COLONNA, 42",(*),serbatoi carburante per riscaldamento,9.15006606,45.46819688,POINT (9.15006606 45.46819688),alta
BRESCIA,ORZINUOVI,BS125.0004,PV ESSO 1324,"VIALE ADUA, 26",,impianti di stoccaggio o adduzione carburanti,9.93238549,45.40898434,POINT (9.93238549 45.40898434),alta
MILANO,MILANO,MI146.3044,AREA VIA ROVELLO,"VIA ROVELLO, 14",,altri siti non meglio specificati,9.18391212,45.46794032,POINT (9.18391212 45.46794032),alta
BERGAMO,CIVIDATE AL PIANO,BG076.0002,OLIFER ACP Acciaierie di Cividate,"CASCINA MOTTA ALTA, 14",,aree industriali in attività,9.8290044,45.52550657,POINT (9.8290044 45.52550657),bassa
VARESE,CARNAGO,VA033.0005,Sversamento gasolio uso civile,"VIA PROFESSORE GIOVANNI CASTIGLIONI, 6",,serbatoi carburante per riscaldamento,8.83601568,45.72181957,POINT (8.83601568 45.72181957),alta
SONDRIO,SONDRIO,SO061.0002,EX COTONIFICIO FOSSATI,"VIA FELICE FOSSATI, 1",,aree industriali dismesse,9.87200266,46.17504744,POINT (9.87200266 46.17504744),alta
PAVIA,VALEGGIO,PV167.0001,"SVERSAMENTO KEROSENE, OLEODOTTO ENI",LOCALITA' CASCINA CARDINALA,(*),rilasci accidentali o dolosi di sostanze,8.8727795,45.14913257,POINT (8.8727795 45.14913257),bassa
LODI,CRESPIATICA,LO025.0003,EX SAINT GOBAIN ISOVER ITALIA ORA DITTA OTIL,"VIA DANTE ALIGHIERI, 76",,aree industriali dismesse,9.5781108,45.34760418,POINT (9.5781108 45.34760418),alta
MILANO,MILANO,MI146.1096,Area condominiale - Serbatoi centrale termica,VIA DELLA MARNA,,altri siti non meglio specificati,9.17256654,45.52449563,POINT (9.17256654 45.52449563),alta
LECCO,LECCO,LC042.0049,area ex discarica,VIALE DON GIOVANNI TICOZZI,,altri siti non meglio specificati,9.40776089,45.83432409,POINT (9.40776089 45.83432409),alta
MILANO,OPERA,MI159.0003,AREA EX PROTER - Proprietà RECORDATI S.P.A. - NUOVA VALLAMBROSIA - ora FARMAOPERA SPA,VIA LAMBRO,,aree industriali dismesse,9.20837989,45.36995925,POINT (9.20837989 45.36995925),alta
MILANO,MILANO,MI146.0493,"AREA I.T.I.S. ""GIORGI""","VIALE LIGURIA, 21",,altri siti non meglio specificati,9.17066979,45.44402544,POINT (9.17066979 45.44402544),alta
BRESCIA,BRESCIA,BS029.0196,SISA - PV TANGENZIALE OVEST,TANGENZIALE OVEST,,altri siti non meglio specificati,10.16804469,45.51143115,POINT (10.16804469 45.51143115),alta
MILANO,CARPIANO,MI050.0007,Stazione di Servizio SODIN SRL,S.S.PROVINCIALE BINASCO-MELEGNANO,(*),aree industriali in attività,9.2733005,45.34550468,POINT (9.2733005 45.34550468),bassa
MILANO,MILANO,MI146.4257,AREA DI VIA COLLEONI,"VIA BARTOLOMEO COLLEONI, 14",,altri siti non meglio specificati,9.15298975,45.48227174,POINT (9.15298975 45.48227174),alta
VARESE,SARONNO,VA119.0054,VIA MANTEGAZZA,"VIA PAOLO MANTEGAZZA, 9",,aree industriali dismesse,9.02166598,45.62542433,POINT (9.02166598 45.62542433),alta
MILANO,MILANO,MI146.4184,REALIZZAZIONE DI NUOVO VOLUME OSPEDALIERO - P.O. BUZZI - INDAGINI PRELIMINARI,"VIA LODOVICO CASTELVETRO, 22",,altri siti non meglio specificati,9.16494566,45.48513226,POINT (9.16494566 45.48513226),alta
BERGAMO,ZANDOBBIO,BG244.0001,M.B.A. SRL,LOC.VALLE DEL SEI,,attività minerarie o estrattive,9.8626683,45.68538127,POINT (9.8626683 45.68538127),alta
MILANO,MILANO,MI146.2469,"AREE VIA ORTLES 36, VEZZA D'OGLIO 3-8 ADAMELLO 5 E OROBIA 4-16","VIA ADAMELLO,5-7,OROBIA,4-16,VEZZA D'OGLIO 3-8,ORTLES,36",,aree industriali dismesse,9.15933654,45.46819153,POINT (9.15933654 45.46819153),bassa
CREMONA,CREMONA,CR036.0071,DITTA FRAGNI s.r.l.,"VIA DELLE INDUSTRIE, 34",,aree industriali in attività,9.99319676,45.14804437,POINT (9.99319676 45.14804437),alta
MILANO,RHO,MI182.0014,RIPA SAS,"VIA TRENTO, 41",(*),operazioni di recupero rifiuti,9.03975026,45.54818364,POINT (9.03975026 45.54818364),alta
MILANO,SEDRIANO,MI204.0005,BORLETTI EX AREA INDUSTRIALE,VIALE EUROPA,,aree industriali dismesse,8.97720443,45.48877743,POINT (8.97720443 45.48877743),alta
VARESE,GALLARATE,VA070.0066,AREA EX TESSITURA MAZZUCCHELLI,VIE PASUBIO/PACINOTTI,,aree industriali dismesse,8.80394738,45.65350489,POINT (8.80394738 45.65350489),alta
MILANO,MILANO,MI146.4035,EX PV TOTAL ERG,"VIA DELLA CHIESA ROSSA, 267",,impianti di stoccaggio o adduzione carburanti,9.16323454,45.41329275,POINT (9.16323454 45.41329275),alta
MILANO,MILANO,MI146.4321,EX GARAGE SAN REMO,"VIA ZECCA VECCHIA, 3",,altri siti non meglio specificati,9.18441485,45.4623794,POINT (9.18441485 45.4623794),alta
MILANO,MILANO,MI146.2946,RIMOZIONE RIFIUTI INTERRATI,"VIA POMPEO MARIANI, 10",,aree industriali dismesse,9.23315648,45.51084871,POINT (9.23315648 45.51084871),alta
MONZA E DELLA BRIANZA,CONCOREZZO,MI084.0002,DITTA ICROM,"VIA DELLE ARTI, 33",,aree industriali in attività,9.32594817,45.58282448,POINT (9.32594817 45.58282448),alta
VARESE,CISLAGO,VA050.0004,Area Via Vismara,VIA VISMARA-S.P.N.21 S.N.,,discariche abusive o incontrollate,8.96611085,45.66343639,POINT (8.96611085 45.66343639),alta
LECCO,CALOLZIOCORTE,LC013.0012,EX AREA STOCCAGGIO ROTTAMI,"VIA PADRI SERVITI, 11",,operazioni di recupero rifiuti,9.43381228,45.7919708,POINT (9.43381228 45.7919708),alta
BRESCIA,CASTEGNATO,BS040.0005,FONDERIA F.LLI GERVASONI SPA,"VIA MOLINO, 16",,aree industriali dismesse,10.10445325,45.55963745,POINT (10.10445325 45.55963745),alta
MILANO,CERNUSCO SUL NAVIGLIO,MI070.0037,EX COOPERATIVA INTERMEDIA,"VIA PASUBIO, 4",,aree industriali dismesse,9.3348895,45.5338693,POINT (9.3348895 45.5338693),alta
PAVIA,TROMELLO,PV164.0011,SVERSAMENTO OLIO TRASFORMATORE ENEL PER FURTO DEL 03/04/2017,S.P.GAMBOLO'/TROMELLO,(*),rilasci accidentali o dolosi di sostanze,8.87300239,45.21298147,POINT (8.87300239 45.21298147),alta
MONZA E DELLA BRIANZA,MONZA,MI149.0001,EX CAVA NEL CIMITERO CENTRALE DI MONZA,VIA MENTANA,,smaltimenti non autorizzati - abbandono rifiuti,9.27597923,45.57752093,POINT (9.27597923 45.57752093),alta
MILANO,MILANO,MI146.4331,AREA VIA TORTONA,"VIA TORTONA, 31",,aree industriali dismesse,9.16306428,45.45186825,POINT (9.16306428 45.45186825),alta
MILANO,SESTO SAN GIOVANNI,MI209.0044,AREA EX ENICHEM / soc. AREE srl,"VIA BERNARDINO LUINI, 241",,aree industriali dismesse,9.24701479,45.54966045,POINT (9.24701479 45.54966045),alta
PAVIA,CASTEGGIO,PV037.0005,EX P.V. ESSO N. 0236,"VIA EMILIA, 103",,impianti di stoccaggio o adduzione carburanti,9.13202475,45.01708754,POINT (9.13202475 45.01708754),alta
MILANO,MILANO,MI146.3861,AREA IMMOBILIARE BILANCIAPRIMA SRL,"VIA ADAMELLO, 10",,altri siti non meglio specificati,9.20308475,45.4441492,POINT (9.20308475 45.4441492),alta
MANTOVA,VIADANA,MN066.0001,TAMOIL P.V. N. 1276,"VIA ARGINE CERIANA, 46",(*),impianti di stoccaggio o adduzione carburanti,10.5825609,44.99683464,POINT (10.5825609 44.99683464),alta
VARESE,FAGNANO OLONA,VA067.0020,AREA ARTIGIANALE DISMESSA,VIA VENEGONI ANGOLO VIA TRIESTE,,aree industriali dismesse,8.86754634,45.66853497,POINT (8.86754634 45.66853497),alta
MONZA E DELLA BRIANZA,BOVISIO MASCIAGO,MI030.0004,MINGARDI & FERRARA SRL (area ex RELUB),"VIA DELL'INDUSTRIE,15",,aree industriali dismesse,9.10770278,45.62361372,POINT (9.10770278 45.62361372),alta
BERGAMO,CISERANO,BG075.0002,ex depuratore,,(*),altri siti non meglio specificati,9.59696745,45.58586509,POINT (9.59696745 45.58586509),bassa
MANTOVA,MANTOVA,MN030.0080,Sponda destra Lago Inferiore nel tratto compreso tra Porto Catena e Diga Masetti,LOCALITA' LAGO INFERIORE,,altri siti non meglio specificati,10.81353615,45.15706081,POINT (10.81353615 45.15706081),bassa
BERGAMO,BOLGARE,BG028.0004,MARMI MECCA S.R.L. - AREA S2BIS,"VIA EUROPA, 38",,aree industriali dismesse,9.80787722,45.63377533,POINT (9.80787722 45.63377533),alta
VARESE,VARESE,VA133.0074,AREA SISTEMAZIONE IDRAULICA DEL FIUME OLONA,VIA FRIULI,,altri siti non meglio specificati,8.85395397,45.81181548,POINT (8.85395397 45.81181548),alta
LODI,LODI,LO031.0037,P.V. Q8 1027 VIALE DALMAZIA,"VIALE DALMAZIA, 7",,impianti di stoccaggio o adduzione carburanti,9.49792956,45.31318359,POINT (9.49792956 45.31318359),alta
BRESCIA,VILLA CARCINA,BS199.0003,AREA P.A.5,VIA GUGLIELMO MARCONI,,aree industriali dismesse,10.19874861,45.63209878,POINT (10.19874861 45.63209878),alta
MILANO,PESSANO CON BORNAGO,MI172.0009,SVERSAMENTO OLIO DIATERMICO,CASCINA CASTIONA,,aree agricole oggetto di spandimento incontrollato,9.4014146,45.55476283,POINT (9.4014146 45.55476283),alta
MILANO,BUCCINASCO,MI036.0007,BRUSSA S.r.l.,"VIA DELLA RESISTENZA, 62",,aree industriali in attività,9.11514563,45.41751254,POINT (9.11514563 45.41751254),alta
MILANO,CORMANO,MI086.0020,OROPRESS SPA,"STRADA STATALE 35 DEI GIOVI, 102/104",(*),aree industriali in attività,9.15980123,45.53810457,POINT (9.15980123 45.53810457),alta
COMO,MONGUZZO,CO153.0001,P.V. AGIP 1902,VIA VALASSINA 26,,impianti di stoccaggio o adduzione carburanti,9.23008192,45.77442378,POINT (9.23008192 45.77442378),alta
BERGAMO,MARTINENGO,BG133.0005,AREA PROPRIETÀ PRIVATA,"VIA VALLERE, 23",,altri siti non meglio specificati,9.77609612,45.57272848,POINT (9.77609612 45.57272848),alta
BRESCIA,ERBUSCO,BS069.0005,BERMUGAS SRL,"VIA ISEO, 34",,impianti di stoccaggio o adduzione carburanti,10.00314944,45.58377049,POINT (10.00314944 45.58377049),alta
MILANO,PADERNO DUGNANO,MI166.0014,"AREA PARCHI SERBATOI INTERRATI C/O DITTA CONDEA AUGUSTA spa, SASOL ITALY spa","VIA REALI, 4",,aree industriali dismesse,9.1485828,45.56963214,POINT (9.1485828 45.56963214),alta
MILANO,GAGGIANO,MI103.0002,P.V. TAMOIL 6126,"VIA ALESSANDRO MANZONI, 3/5",(*),impianti di stoccaggio o adduzione carburanti,9.0224152,45.40597352,POINT (9.0224152 45.40597352),alta
COMO,COMO,CO075.0042,Area Bellaria,VIA MUGGIO',,aree industriali dismesse,9.09090209,45.7874331,POINT (9.09090209 45.7874331),alta
BRESCIA,NAVE,BS117.0001,OASI IMMOBILIARE - AFIM S.P.A. EX AREA INDUSTRIALE,"VIA SORELLE MINOLA, 23",,aree industriali dismesse,10.28670122,45.58512179,POINT (10.28670122 45.58512179),alta
MILANO,TURBIGO,MI226.0011,AREA VIA MOLINARA,VIA MOLINARA,,aree agricole oggetto di spandimento incontrollato,8.72842869,45.54115484,POINT (8.72842869 45.54115484),alta
MILANO,MARCALLO CON CASONE,MI134.0004,EX DISCARICA DI RIFIUTI SOLIDI URBANI LUNGO TRATTA CAV TO-MI,STRADA VICINALE DELLA SERRA,(*),discariche autorizzate,8.8645013,45.48245822,POINT (8.8645013 45.48245822),bassa
MONZA E DELLA BRIANZA,SEREGNO,MB039.0005,CENTRALE TELECOM - SERBATOIO INTERRATO,VIA STEFANO DA SEREGNO,(*),aree industriali in attività,9.20502328,45.64738273,POINT (9.20502328 45.64738273),alta
MONZA E DELLA BRIANZA,MONZA,MI149.0094,EX P.V SHELL 49.143,"VIALE LOMBARDIA, 127",(*),impianti di stoccaggio o adduzione carburanti,9.24895969,45.57831304,POINT (9.24895969 45.57831304),alta
BERGAMO,BERGAMO,BG024.0005,AREA EX REGGIANI MACCHINERESIDENZA DEL GUERINO SRL,"VIA DEL GUERINO, 8",(*),aree industriali dismesse,9.6801579,45.71277129,POINT (9.6801579 45.71277129),alta
BERGAMO,BERGAMO,BG024.0016,P.V. ERG BG096,"VIA BROSETA, 75/B",,impianti di stoccaggio o adduzione carburanti,9.65264355,45.69359769,POINT (9.65264355 45.69359769),alta
BERGAMO,TREVIGLIO,BG219.0016,TEAM -CAVA VAILATA,VIA PALAZZO,,discariche abusive o incontrollate,9.58262202,45.50834521,POINT (9.58262202 45.50834521),alta
MILANO,MILANO,MI146.4287,AREA VIA VASARI,"VIA GIORGIO VASARI, 3",,aree industriali dismesse,9.2055117,45.45198687,POINT (9.2055117 45.45198687),alta
MANTOVA,CASTELLUCCHIO,MN016.0002,P.V. TAMOIL 8279,S.S.S.S.10 KM + 110,,impianti di stoccaggio o adduzione carburanti,10.6311958,45.14635479,POINT (10.6311958 45.14635479),bassa
BRESCIA,GARDONE VALTROMPIA,BS075.0002,AREA EX CROMOPLAST,"VIA GIACOMO MATTEOTTI, 345",,aree industriali dismesse,10.18702777,45.67765251,POINT (10.18702777 45.67765251),alta
BERGAMO,PEDRENGO,BG160.0001,CHEMTURA MANUFACTURING ITALY SRL (EX GREAT LAKE),"VIA GIUSEPPE MAZZINI, 11",,aree industriali in attività,9.74951555,45.69274293,POINT (9.74951555 45.69274293),alta
VARESE,LONATE POZZOLO,VA090.0014,STAMPERIA DI LONATE,"VIA PIEMONTE, 17",,aree industriali in attività,8.74038605,45.58717662,POINT (8.74038605 45.58717662),bassa
MILANO,CISLIANO,MI078.0002,FUORIUSCITA DI IDROCARBURI PER DERIVAZIONE ABUSIVA,VIA PER CORBETTA,,rilasci accidentali o dolosi di sostanze,8.98168936,45.44494112,POINT (8.98168936 45.44494112),alta
LECCO,MOLTENO,LC051.0002,DITTA KONIG SPA,"VIALE LOMBARDIA, 8",,aree industriali in attività,9.29288619,45.78240749,POINT (9.29288619 45.78240749),alta
LODI,CODOGNO,LO019.0006,Area HEXION CHEMICALS,"VIALE TEODORO TRIVULZIO, 2",,aree industriali dismesse,9.70033044,45.15517051,POINT (9.70033044 45.15517051),alta
MILANO,MILANO,MI146.0165,ex Schlumberger,"VIA SAVONA, 97",,aree industriali dismesse,9.15157759,45.45014864,POINT (9.15157759 45.45014864),alta
MILANO,MILANO,MI146.3491,ex pv esso 0055 pbl 105041,VIA BISTOLFI ANG.VIA TANZI,,impianti di stoccaggio o adduzione carburanti,9.24550347,45.47200224,POINT (9.24550347 45.47200224),alta
CREMONA,PIANENGO,CR072.0001,PADANIA ACQUE S.P.A. - COLLETTORE FOGNARIO,STRADA VICINALE DEL RO,,altri siti non meglio specificati,9.69992635,45.40226137,POINT (9.69992635 45.40226137),bassa
MILANO,RHO,MI182.0028,GIUSEPPE CAMBIAGHI S.P.A.,"VIA SESIA, 8/12",,aree industriali in attività,9.04585989,45.5133087,POINT (9.04585989 45.5133087),alta
VARESE,SARONNO,VA119.0048,EX BORSANI,"VIA ALESSANDRO VOLTA, 49",,aree industriali dismesse,9.03535215,45.6336214,POINT (9.03535215 45.6336214),alta
MILANO,MILANO,MI146.2290,LOTTO A E B DEL PII ISOLA GIOVANNINA,"VIE FROSINONE,SEGURO E RIETI",,altri siti non meglio specificati,9.08223457,45.46264325,POINT (9.08223457 45.46264325),alta
MONZA E DELLA BRIANZA,LESMO,MI120.0001,ex Soc. Nobel Chemicals,LOCALITA' PEREGALLO,,aree industriali dismesse,9.30565105,45.64235899,POINT (9.30565105 45.64235899),bassa
LODI,SOMAGLIA,LO054.0005,"P.V. SHELL 49.230, Ads Somaglia Est",AUTOSTRADA A1,,impianti di stoccaggio o adduzione carburanti,9.64030424,45.14718371,POINT (9.64030424 45.14718371),bassa
MILANO,COLOGNO MONZESE,MI081.0121,RIGOLDI SRL,"VIA FILIPPO BRUNELLESCHI, 24",,operazioni di recupero rifiuti,9.2705088,45.53599145,POINT (9.2705088 45.53599145),alta
VARESE,FAGNANO OLONA,VA067.0005,EX CAVA PIGNI,VIA PER GORLA,(*),smaltimenti non autorizzati - abbandono rifiuti,8.87201725,45.66945888,POINT (8.87201725 45.66945888),bassa
PAVIA,ROBBIO,PV123.0001,P.V. ERG PV082,"VIA MORTARA, 11",,impianti di stoccaggio o adduzione carburanti,8.60047395,45.28297285,POINT (8.60047395 45.28297285),alta
MILANO,SAN GIULIANO MILANESE,MI195.0047,GALVANO STAMPI SAS,"VIA CREMONA, 43",,aree industriali in attività,9.26747868,45.3986383,POINT (9.26747868 45.3986383),alta
MILANO,BOLLATE,MI027.0016,EX TAMA FOTO S.R.L.,"VIA GIUSTI 2,4,6,8",(*),aree industriali dismesse,9.11534154,45.54731776,POINT (9.11534154 45.54731776),bassa
MILANO,MILANO,MI146.4241,Area industriale dismessa,"VIA PIERO DELLA FRANCESCA, 29",,aree industriali dismesse,9.16469016,45.4834131,POINT (9.16469016 45.4834131),alta
MILANO,MILANO,MI146.4175,"AREE ESTERNE AD AREA DI SERVIZIO AGIP N. 2527 ""MUGGIANO EST"", TERRENI PROPRIETÀ MUGGIANA SRL",LOCALITA' MUGGIANO SNC,,aree agricole oggetto di spandimento incontrollato,9.06872191,45.44892702,POINT (9.06872191 45.44892702),alta
BERGAMO,VERDELLINO,BG232.0003,Cromoplastica Immobiliare spa,"VIALE OSLO, 3",,aree industriali in attività,9.61379162,45.59915584,POINT (9.61379162 45.59915584),alta
MILANO,SOLARO,MI213.0010,AREA DI VIA BERNINI,"VIA GIAN LORENZO BERNINI, 17",,aree industriali dismesse,9.08777838,45.60749142,POINT (9.08777838 45.60749142),alta
LECCO,BOSISIO PARINI,LC009.0007,ME.A.L. SRL - EX THULE - EX KOENIG,VIA PUCCINI CON ACCESSO DA VIALE LOMBARDIA N.8 DEL COMUNE DI MOLTENO,,altri siti non meglio specificati,9.30130193,45.79386877,POINT (9.30130193 45.79386877),alta
PAVIA,ALBAREDO ARNABOLDI,PV002.0002,Ditta Zeta Petroli - OIL TERMICA,STRADA COMUNALE DEI BRONZI-CASCINA BRONZI,,impianti di stoccaggio rifiuti,9.22890649,45.0934383,POINT (9.22890649 45.0934383),alta
MANTOVA,BORGO VIRGILIO,MN005.0005,Deposito Oli minerali Carburanti,VIA MANTOVA 418,,impianti di stoccaggio o adduzione carburanti,10.76083158,45.07065709,POINT (10.76083158 45.07065709),alta
BRESCIA,PONTOGLIO,BS150.0001,TOTALERG NI003005,"VIA PALAZZOLO, 14",,impianti di stoccaggio o adduzione carburanti,9.85777947,45.57766455,POINT (9.85777947 45.57766455),alta
MANTOVA,MANTOVA,MN030.0010,TEA SPA,VICOLO VICOLO STRETTO 12,,aree industriali dismesse,10.79753864,45.15546032,POINT (10.79753864 45.15546032),alta
MILANO,MILANO,MI146.4087,EX AEREA SPA,"VIA CEFALONIA, 18",(*),aree industriali dismesse,9.1269868,45.50457979,POINT (9.1269868 45.50457979),alta
MONZA E DELLA BRIANZA,BRUGHERIO,MI034.0011,ex insediamento Stoppani Coatings,"VIALE LOMBARDIA, 2",,aree industriali dismesse,9.30741962,45.56668153,POINT (9.30741962 45.56668153),alta
MILANO,MILANO,MI146.0410,Ditta Lorenzi S.r.l.,"VIA CARLO BAZZI, 12",,aree industriali dismesse,9.18772565,45.44389615,POINT (9.18772565 45.44389615),alta
MANTOVA,SERMIDE E FELONICA,MN061.0009,SVERSAMENTO ACCIDENTALE GASOLIO SP 34 AL KM 21+100 SERMIDE,S.P.SP 34 AL KM 21,,rilasci accidentali o dolosi di sostanze,11.269949,44.98485432,POINT (11.269949 44.98485432),bassa
MILANO,MILANO,MI146.0115,ZINCHERIA ORIGONI,"VIA GIUSEPPE LA MASA, 1",,aree industriali dismesse,9.15858854,45.50150451,POINT (9.15858854 45.50150451),alta
PAVIA,SAN GIORGIO DI LOMELLINA,PV136.0001,"Tratto S.S. 211, SVERSAMENTO ACCIDENTALE RESINA UREICA PER INCIDENTE",S.P.211 KM 43+600,(*),rilasci accidentali o dolosi di sostanze,8.79109647,45.17425596,POINT (8.79109647 45.17425596),alta
MILANO,LEGNANO,MI118.0053,SITO INDUSTRIALE DISMESSO,VIA RESEGONE/MOSCOVA 2,,aree industriali dismesse,8.91575317,45.60224347,POINT (8.91575317 45.60224347),alta
BERGAMO,CASTELLI CALEPIO,BG062.0001,AREA EX FONDERIA DEL QUINTANO,LOCALITA' QUINTANO,,aree industriali dismesse,9.8989259,45.63532599,POINT (9.8989259 45.63532599),bassa
COMO,COMO,CO075.0014,P.V. AGIP 1919,"VIALE FRATELLI ROSSELLI, 19",,impianti di stoccaggio o adduzione carburanti,9.0726592,45.81253022,POINT (9.0726592 45.81253022),alta
PAVIA,SAN MARTINO SICCOMARIO,PV137.0005,AREA EX PRESCAV,VIA ANTONIO GRAMSCI,,smaltimenti non autorizzati - abbandono rifiuti,9.12013317,45.14554024,POINT (9.12013317 45.14554024),alta
LODI,LODI VECCHIO,LO032.0015,ESSO ITALIA SRL PVF 0685 PBL 105421 ESSO LODI VECCHIO (LO),STRADA PROVINCIALE 115,,impianti di stoccaggio o adduzione carburanti,9.40655474,45.307443,POINT (9.40655474 45.307443),alta
BRESCIA,PISOGNE,BS143.0001,"ex Officine Laminatoi Sebino S.p.A. (EX OLS), CON COSTA VOLPINO",VIA MILANO,,aree industriali dismesse,10.10824723,45.80945211,POINT (10.10824723 45.80945211),alta
BERGAMO,BREMBATE DI SOPRA,BG038.0001,"READY LINE SRL, CON PONTE SAN PIETRO E PRESEZZO","VIA GAETANO DONIZETTI, 114",,aree industriali in attività,9.58508646,45.70905298,POINT (9.58508646 45.70905298),alta
BERGAMO,GAZZANIGA,BG111.0002,RIPORTI INDUSTRIALI SRL,"VIA SALICI, 45",,aree industriali in attività,9.83052959,45.79191232,POINT (9.83052959 45.79191232),alta
PAVIA,MONTICELLI PAVESE,PV099.0001,Ex AGRICHIMICA/COLLA,CASCINA ARSENALE,,aree industriali dismesse,9.51108139,45.11446579,POINT (9.51108139 45.11446579),bassa
MILANO,LACCHIARELLA,MI115.0009,INCIDENTE 9/5/2013 FUORIUSCITA DI GASOLIO,LOCALITA' CAMPO TAMBURINI,,rilasci accidentali o dolosi di sostanze,9.13702429,45.32209352,POINT (9.13702429 45.32209352),alta
SONDRIO,GROSIO,SO033.0001,SVERSAMENTO PISTA CICLABILE,VIA TIRANO,,altri siti non meglio specificati,10.22482215,46.35506082,POINT (10.22482215 46.35506082),bassa
COMO,SORICO,CO216.0002,STOCCAGGIO ABUSIVO RIFIUTI ALL'INTERNO DELL'AREA EX DISCARICA FALCK - CAGIVA,LOCALITA' PIAN DI SPAGNA,(*),aree industriali dismesse,9.37868571,46.17332179,POINT (9.37868571 46.17332179),alta
COMO,LUISAGO,CO135.0001,Stabilimento Lechler SpA,"VIA ALCIDE DE GASPERI, 1",,aree industriali in attività,9.0407476,45.76034031,POINT (9.0407476 45.76034031),alta
BERGAMO,BERGAMO,BG024.0130,EX OSPEDALI RIUNITI BERGAMO _ ORA NUOVA ACCADEMIA DI FINANZA_ AREA UMI2 AMBITO R,"LARGO GIOVANNI BAROZZI, 1",,aree industriali dismesse,9.65367386,45.69921943,POINT (9.65367386 45.69921943),alta
MILANO,MELEGNANO,MI140.0025,AREA EX CHIMICA SARONIO,LOCALITA' MELEGNANO E CERRO AL LAMBRO,,aree industriali in attività,9.3181219,45.35701872,POINT (9.3181219 45.35701872),bassa
MONZA E DELLA BRIANZA,VAREDO,MI231.0004,"DISCARICA EX SNIA FIBRE, E AREA INDUSTRIALE NYLSTAR, CON VAREDO",STRADA STATALE 35 DEI GIOVI,,aree industriali dismesse,9.17323895,45.59120695,POINT (9.17323895 45.59120695),alta
VARESE,BESOZZO,VA013.0004,SMURFIT Munksjo Paper Decor S.r.l. - ex-Cartiera Besozzo,"VIA GUGLIELMO MARCONI, 50",,aree industriali dismesse,8.67518511,45.85119321,POINT (8.67518511 45.85119321),alta
LODI,TAVAZZANO CON VILLAVESCO,LO056.0002,SOCIETA' ELETTROCHIMICA SOLFURI E CLORODERIVATI S.P.A.,"VIA LODIVECCHIO, 10",,aree industriali in attività,9.40561701,45.31939029,POINT (9.40561701 45.31939029),alta
VARESE,ARCISATE,VA004.0005,AREA EX ATAG,"VIA CONTE CAMILLO BENSO DI CAVOUR, 35",,aree industriali in attività,8.86000352,45.85851176,POINT (8.86000352 45.85851176),alta
MILANO,CESANO BOSCONE,MI074.0001,P.V. IP 42635,VIA PASUBIO,,impianti di stoccaggio o adduzione carburanti,9.08801019,45.44760165,POINT (9.08801019 45.44760165),alta
MILANO,MILANO,MI146.0983,P.V. ESSO 0562,VIA VISMARA ANG.LOMBROSO,(*),impianti di stoccaggio o adduzione carburanti,9.22920641,45.45396734,POINT (9.22920641 45.45396734),alta
MILANO,VANZAGHELLO,MI249.0006,OLEODOTTO ENI - PRELIEVO ABUSIVO IN COMUNE DI VANZAGHELLO,VIA SANT'ANTONINO,,rilasci accidentali o dolosi di sostanze,8.78232226,45.57938847,POINT (8.78232226 45.57938847),alta
MILANO,MILANO,MI146.4281,IMMOBILE USO RESIDENZIALE,"VIA PAOLO SEGNERI, 3",,altri siti non meglio specificati,9.13057754,45.44643992,POINT (9.13057754 45.44643992),alta
MANTOVA,MANTOVA,MN030.0087,AGIP P.V. N°12092 - RIMOZIONE SERBATOI,STRADA DOSSO DEL CORSO,,impianti di stoccaggio o adduzione carburanti,10.77108449,45.1538038,POINT (10.77108449 45.1538038),alta
CREMONA,VESCOVATO,CR113.0001,"PIADENA 25, ENI SPA",LOCALITA' AREA POZZO PIADENA 25,,attività minerarie o estrattive,10.15835786,45.16260121,POINT (10.15835786 45.16260121),alta
MILANO,ABBIATEGRASSO,MI002.0047,IMPIANTO DI SOLLEVAMENTO DA POZZO IDROPOTABILE,VIA GIROLAMO SAVONAROLA,,altri siti non meglio specificati,8.9215521,45.40519018,POINT (8.9215521 45.40519018),alta
BRESCIA,CELLATICA,BS048.0004,ESSO PV N. 1357,"VIA CAPORALINO, 11",,impianti di stoccaggio o adduzione carburanti,10.17016864,45.58298644,POINT (10.17016864 45.58298644),alta
LECCO,VERDERIO,LC087.0002,AREA IMPIANTO DI DEPURAZIONE ECOSYSTEM,STRADA CONSORZIALE GRILLI,,altri siti non meglio specificati,9.4284829,45.66301237,POINT (9.4284829 45.66301237),alta
LODI,CASALETTO LODIGIANO,LO008.0001,DITTA PROCHISA S.p.A - LOC. MAIRANO,VIA RIMEMBRANZE-FRAZ.NE MAIRANO 1,,aree industriali in attività,9.35029365,45.28865538,POINT (9.35029365 45.28865538),bassa
BERGAMO,ARCENE,BG011.0001,EX CAVA CASCINA DAZIO,LOCALITA' CASCINA DAZIO,,discariche abusive o incontrollate,9.61105365,45.57273903,POINT (9.61105365 45.57273903),bassa
MANTOVA,CASTIGLIONE DELLE STIVIERE,MN017.0017,PERDITA GASOLIO DA SERBATOIO INTERRATO,"PIAZZALE SAN PIO X, 15",,rilasci accidentali o dolosi di sostanze,10.4854911,45.3878178,POINT (10.4854911 45.3878178),alta
BRESCIA,LUMEZZANE,BS096.0001,Cromatura Rivadossi poi Erregi,"VIA AMEDEO AVOGADRO, 9",,aree industriali dismesse,10.24724937,45.65545916,POINT (10.24724937 45.65545916),alta
VARESE,LUINO,VA092.0017,AREA EX DOGANA,VIA VOLDOMINO,,aree industriali dismesse,8.74484376,45.99980794,POINT (8.74484376 45.99980794),alta
PAVIA,BORGO SAN SIRO,PV018.0005,EFFRAZIONE OLEODOTTO ENI,LOCALITA' TORRAZZA,,rilasci accidentali o dolosi di sostanze,8.93186335,45.24853044,POINT (8.93186335 45.24853044),bassa
BRESCIA,MONTICHIARI,BS113.0033,LOCALITÀ FASCIA D'ORO (IMMOBILIARE ZETA 5),"VIA GABRIELE D' ANNUNZIO, 6/8",,rilasci accidentali o dolosi di sostanze,10.33200352,45.44599932,POINT (10.33200352 45.44599932),alta
MILANO,BOFFALORA SOPRA TICINO,MI026.0009,Sversamento a seguito Sinistro,STRADA STATALE 11,,rilasci accidentali o dolosi di sostanze,8.83162305,45.4565568,POINT (8.83162305 45.4565568),alta
MILANO,MILANO,MI146.3361,P.V. SHELL N. 49.304 P.ZZA DURANTE,PIAZZA FRANCESCO DURANTE,,impianti di stoccaggio o adduzione carburanti,9.2225553,45.4887063,POINT (9.2225553 45.4887063),alta
LODI,SAN ROCCO AL PORTO,LO049.0001,Area agricola - spandimento incontrollato,LOCALITA' ISOLONE,,aree agricole oggetto di spandimento incontrollato,9.6925381,45.08128814,POINT (9.6925381 45.08128814),bassa
MILANO,BUSTO GAROLFO,MI041.0020,Area Pessina & Sala,"VIA GIUSEPPE VERDI, 1",,aree industriali dismesse,8.88040884,45.5468343,POINT (8.88040884 45.5468343),alta
BERGAMO,TREVIOLO,BG220.0003,NUOVO POLO SCOLASTICO - EDIFICIO POLIFUNZIONALE,VIALE PAPA GIOVANNI XXIII,,altri siti non meglio specificati,9.60688687,45.66620931,POINT (9.60688687 45.66620931),alta
PAVIA,CANDIA LOMELLINA,PV027.0003,"EFFRAZIONE OLEODOTTO SANNAZZARO-VOLPIANO10"" A CANDIA LOMELLINA",AREA AGRICOLA,,rilasci accidentali o dolosi di sostanze,8.58526225,45.17568192,POINT (8.58526225 45.17568192),bassa
COMO,VILLA GUARDIA,CO245.0002,Leucadia S.p.a.,"VIA MONTE BIANCO, 14",,aree industriali in attività,9.01443234,45.76721975,POINT (9.01443234 45.76721975),alta
MILANO,MILANO,MI146.0332,"EX SAPONIFICIO, AREA DISMESSA SIRIO S.P.A.","VIA GIUSEPPE CANDIANI, 151",,aree industriali dismesse,9.16901148,45.50445432,POINT (9.16901148 45.50445432),alta
VARESE,FAGNANO OLONA,VA067.0028,AREA EX STABILIMENTO INDUSTRIALE,"VIA SABOTINO, 19/21",,rilasci accidentali o dolosi di sostanze,8.86692612,45.66346004,POINT (8.86692612 45.66346004),alta
MILANO,MILANO,MI146.1796,Area Ex Marangoni,"VIA IMPERIA, 34/36",,aree industriali dismesse,9.16909998,45.44198406,POINT (9.16909998 45.44198406),alta
MONZA E DELLA BRIANZA,MEZZAGO,MB031.0001,API PV N. 41871,"VIA CONCORDIA, 35",,impianti di stoccaggio o adduzione carburanti,9.44239456,45.6274455,POINT (9.44239456 45.6274455),alta
MILANO,RHO,MI182.0017,FOSFANTARTIGLIO-LEI,"VIA LIVENZA, 11/15",,aree industriali in attività,9.05552746,45.52204326,POINT (9.05552746 45.52204326),media
MILANO,GAGGIANO,MI103.0018,DEPURATORE DI GAGGIANO,,,altre operazioni di gestione rifiuti,9.02106535,45.39615871,POINT (9.02106535 45.39615871),bassa
PAVIA,PAVIA,PV110.0067,EX IPIESSE,"VIA PONTE DI PIETRA, 34",,aree industriali dismesse,9.14441473,45.19083453,POINT (9.14441473 45.19083453),alta
MILANO,PADERNO DUGNANO,MI166.0075,AREA VIA GENERALE DALLA CHIESA N. 64/66 CAPANNONE 62,"VIA GENERALE CARLO ALBERTO DALLA CHIESA, 64/6664/66",,aree industriali dismesse,9.17232259,45.56058492,POINT (9.17232259 45.56058492),alta
MILANO,MILANO,MI146.4149,IMMOBILE,"CORSO DI PORTA ROMANA, 10",,altri siti non meglio specificati,9.19026874,45.45943931,POINT (9.19026874 45.45943931),alta
MILANO,SENAGO,MI206.0021,Area di Via Brodolini soc. Enel Distribuzione,VIA GIACOMO BRODOLINI,,altri siti non meglio specificati,9.12557483,45.56335963,POINT (9.12557483 45.56335963),alta
MILANO,TREZZANO ROSA,MI219.0001,CAVA GERA EX CAVA DE LUCCHI,VIA ALCIDE DE GASPERI,,discariche abusive o incontrollate,9.48156375,45.57858714,POINT (9.48156375 45.57858714),alta
BRESCIA,BRESCIA,BS029.0009,EX DEPOSITO ITALIANA PETROLI - PUNTO VENDITA 6977,"VIA SOSTEGNO, 2",,impianti di stoccaggio o adduzione carburanti,10.20911542,45.53265113,POINT (10.20911542 45.53265113),alta
MONZA E DELLA BRIANZA,VIMERCATE,MB050.0005,EX CENTRO EDILE SCAVI S.R.L.,STRADA COMUNALE ALLA CASCINA ROSE',,operazioni di recupero rifiuti,9.38766061,45.61350234,POINT (9.38766061 45.61350234),alta
MANTOVA,BAGNOLO SAN VITO,MN003.0003,P.V. ESSO 12A9,AUTOSTRADA A22 KM 45+600,,impianti di stoccaggio o adduzione carburanti,10.89801695,45.0762976,POINT (10.89801695 45.0762976),bassa
VARESE,CASTELLANZA,VA042.0019,ABC TESSILE EX RAYTOR COMPOUNDS SPA - EX MONTEDISON,"VIA DEL SEMPIONE, 13",,aree industriali in attività,8.88163056,45.61580483,POINT (8.88163056 45.61580483),alta
VARESE,SARONNO,VA119.0045,AREA EX IMPIANTO RIFIUTI,"VIA DON ROBERTO MONTOLI, 22",,operazioni di recupero rifiuti,9.03917896,45.6344393,POINT (9.03917896 45.6344393),alta
MILANO,MAGENTA,MI130.0004,Incidente S.S. 11 km 107+800,S.S.11 KM 117+800,(*),rilasci accidentali o dolosi di sostanze,8.86222705,45.46060929,POINT (8.86222705 45.46060929),bassa
MILANO,CORSICO,MI093.0034,EX CARTIERA BURGO - AREA DI SVILUPPO A PARCHEGGIO,VIA GUGLIELMO OBERDAN,,aree industriali dismesse,9.1049818,45.4304389,POINT (9.1049818 45.4304389),alta
MILANO,NERVIANO,MI154.0004,SVERSAMENTO DI GASOLIO A SEGUITO SINISTRO,VIA MILANO,(*),rilasci accidentali o dolosi di sostanze,8.97861574,45.5568144,POINT (8.97861574 45.5568144),alta
PAVIA,STRADELLA,PV153.0003,AREA DI SERVIZIO AGIP N.12561,"AUTOSTRADA A21-STAZIONE SERVIZIO ""STRADELLA SUD""-DIREZIONE PIACENZA",,impianti di stoccaggio o adduzione carburanti,9.3096862,45.07323109,POINT (9.3096862 45.07323109),bassa
MILANO,TREZZO SULL ADDA,MI221.0005,ECOZINDER,"VIALE LOMBARDIA, 58",,aree industriali in attività,9.51025678,45.59457453,POINT (9.51025678 45.59457453),alta
MILANO,VIMODRONE,MI242.0002,TAMOIL IMPIANTO STOCCAGGIO EX BRENTAG,VIA PADANA SUPERIORE,(*),impianti di stoccaggio o adduzione carburanti,9.26841713,45.51221822,POINT (9.26841713 45.51221822),alta
MILANO,MILANO,MI146.1088,MAGNIFICAE DOMUS S.r.l. - AREA EX OFFICINE MECCANICHE SACERDOTI,"VIA ERNESTO BREDA, 120",,aree industriali dismesse,9.21900258,45.51592829,POINT (9.21900258 45.51592829),alta
MILANO,ASSAGO,MI011.0022,P.V. ENI N. 2542,TANGENZIALE OVEST,,impianti di stoccaggio o adduzione carburanti,9.11573074,45.40527226,POINT (9.11573074 45.40527226),alta
MILANO,MILANO,MI146.4305,BETTINELLI 3 S.R.L.,"VIA FRATELLI ANGELO E MARIA BETTINELLI, 3",,aree industriali dismesse,9.17837975,45.4511956,POINT (9.17837975 45.4511956),alta
MILANO,MILANO,MI146.0008,"Società Sviluppo Linate - Montedison, ex area industriale",VIE CANDIANI 144 ANGOLO VIA BOVISASCA,,aree industriali dismesse,9.16901148,45.50445432,POINT (9.16901148 45.50445432),alta
SONDRIO,SONDRIO,SO061.0005,EX CONCESSIONARIO ALPICAR,"VIA TOMMASO NANI, 29",,altri siti non meglio specificati,9.88487937,46.16989709,POINT (9.88487937 46.16989709),alta
MILANO,MILANO,MI146.0192,Area Pirelli Bicocca-Collina dei Ciliegi,"VIALE SARCA, 136",(*),aree industriali dismesse,9.2063741,45.51135344,POINT (9.2063741 45.51135344),alta
MILANO,MILANO,MI146.4108,AREA VIA SILVA,"VIA GUGLIELMO SILVA, 27",,serbatoi carburante per riscaldamento,9.14839695,45.47927835,POINT (9.14839695 45.47927835),alta
MILANO,PERO,MI170.0036,EX VASCHE RHYTON,"VIA SEMPIONE, 195",,aree industriali dismesse,9.0812011,45.51337189,POINT (9.0812011 45.51337189),alta
MILANO,MILANO,MI146.0935,P.V. ERG MI192,"VIA SANTA RITA DA CASCIA, 60",,impianti di stoccaggio o adduzione carburanti,9.15271627,45.43884656,POINT (9.15271627 45.43884656),alta
VARESE,LAVENO - MOMBELLO,VA087.0005,"EX CERAMIFICIO RICHARD GINORI ""PONTE""",VIA BRUNO BUOZZI,,aree industriali dismesse,8.62329539,45.90473532,POINT (8.62329539 45.90473532),alta
MILANO,TREZZANO SUL NAVIGLIO,MI220.0027,BORMIOLO ROCCO SPA - VETROPACK,"VIA SAN CRISTOFORO, 51",,aree industriali in attività,9.08246322,45.41636948,POINT (9.08246322 45.41636948),alta
PAVIA,PAVIA,PV110.0006,PV 49080 AGIP,S.S.N 35 KM 88,,impianti di stoccaggio o adduzione carburanti,9.16560375,45.20076006,POINT (9.16560375 45.20076006),bassa
BRESCIA,MAZZANO,BS107.0002,Discarica di Ciliverghe,LOCALITA' CASCINA VIRLA NUOVA,,discariche autorizzate,10.3525919,45.50054737,POINT (10.3525919 45.50054737),bassa
BERGAMO,CURNO,BG089.0005,PVQ8 N. 0977,"S.S.S.S.342 BRIANTEA KM 4.885/VIA BERGAMO,36 36",,rilasci accidentali o dolosi di sostanze,9.59800964,45.69507798,POINT (9.59800964 45.69507798),alta
BERGAMO,BERGAMO,BG024.0114,SVERSAMENTO FURTO N.2 TAMOIL,VIA PER ZANICA,,aree agricole oggetto di spandimento incontrollato,9.6732206,45.68626323,POINT (9.6732206 45.68626323),alta
COMO,CADORAGO,CO036.0008,SVERSAMENTO GASOLIO ADS LARIO EST AUTOSTRADA A9 -Q8 -PETROLEUM,AUTOSTRADA A9 KM 27,,impianti di stoccaggio o adduzione carburanti,9.04788239,45.71029682,POINT (9.04788239 45.71029682),bassa
CREMONA,CREMA,CR035.0025,SMART BUILDINGS SRL,"VIA FRANCESCO CAVALLI, 53",,aree industriali dismesse,9.68339821,45.36732294,POINT (9.68339821 45.36732294),alta
PAVIA,VOGHERA,PV182.0001,SHELL NETMA UNO S.R.L. P.V. (CODICE 58.071),"PIAZZALE FRANCO QUARLERI, 5",(*),impianti di stoccaggio o adduzione carburanti,9.01630783,44.99643939,POINT (9.01630783 44.99643939),alta
BERGAMO,SPIRANO,BG206.0001,Area di Via Pace - ex Piazzola Ecologica,VIA PACE,,discariche autorizzate,9.6730342,45.58186924,POINT (9.6730342 45.58186924),alta
BERGAMO,SARNICO,BG193.0002,INDUSTRIE BRUNO STOPPANI RPS,"VIA MONTE GRAPPA, 3",,aree industriali dismesse,9.9634256,45.66834535,POINT (9.9634256 45.66834535),alta
COMO,DONGO,CO090.0003,A.F.L. DONGO S.p.A. - Sversamento Nafta del 09.08.2004,LOCALITA' BARBIGNANO,,rilasci accidentali o dolosi di sostanze,9.27180035,46.12555532,POINT (9.27180035 46.12555532),bassa
MANTOVA,,MN009.0003,RECUPERI INDUSTRIALI S.R.L.,VIA CASTELTRIVELLINO 13/15,,aree industriali in attività,,,,nd
MILANO,SEGRATE,MI205.0006,CENTRO DIREZIONALE MILANO DUE,VIA FRATELLI CERVI,,altri siti non meglio specificati,9.26658004,45.50409805,POINT (9.26658004 45.50409805),alta
MILANO,MILANO,MI146.0371,AREA CONDOMINIO - Serbatoio,"PIAZZALE VINCENZO CUOCO, 4",,rilasci accidentali o dolosi di sostanze,9.2244864,45.45086183,POINT (9.2244864 45.45086183),alta
VARESE,BUSTO ARSIZIO,VA026.0087,SOCIETÀ MANARA,VIA LUCIANO MANARA,,aree industriali dismesse,8.85480625,45.6103364,POINT (8.85480625 45.6103364),alta
MILANO,MILANO,MI146.3160,AREA FERRARI,VIA LAMPEDUSA ANGOLO CAMPAZZINO,,altri siti non meglio specificati,9.18772925,45.435916,POINT (9.18772925 45.435916),alta
MILANO,CERNUSCO SUL NAVIGLIO,MI070.0054,AREA SNAM RETE GAS ALLACCIAMENTO 3° PRESA,,(*),discariche abusive o incontrollate,9.33338365,45.52734238,POINT (9.33338365 45.52734238),bassa
MILANO,MILANO,MI146.1376,SCUOLE COMUNALI,"VIA PIER ALESSANDRO PARAVIA, 3",(*),serbatoi carburante per riscaldamento,9.1272235,45.46945095,POINT (9.1272235 45.46945095),alta
BRESCIA,BAGNOLO MELLA,BS009.0010,AUTOSTRADA A21 KM 227+175 - CARREGGIATA NORD - SVERSAMENTO OLIO IDRAULICO,AUTOSTRADA A21 KM 227+175,,rilasci accidentali o dolosi di sostanze,10.18457205,45.42124719,POINT (10.18457205 45.42124719),bassa
BRESCIA,DARFO BOARIO TERME,BS065.0016,DARFO TRADE RISULTANTE DA RETTIFICA CONFINI CON SITO LINEA ENERGIA (EX SAGETER),"VIA AGOSTINO BONARA, 12",,aree industriali dismesse,10.17946374,45.88458226,POINT (10.17946374 45.88458226),alta
LODI,LODI,LO031.0002,BAERLOCHER ITALIA SPA,"VIA SAN COLOMBANO, 62/A",,aree industriali in attività,9.50200661,45.30590683,POINT (9.50200661 45.30590683),alta
LECCO,LECCO,LC042.0009,DEPOSITO DI ROTTAMI FERROSI NELL'AREA DELLA DITTA RIVA,"VIA BELFIORE, 26",,operazioni di recupero rifiuti,9.40686065,45.85264085,POINT (9.40686065 45.85264085),alta
MILANO,ABBIATEGRASSO,MI002.0008,AUTODEMO,VIA PASCOLI ANG.FOGAZZARO,,aree industriali dismesse,8.92021186,45.38721539,POINT (8.92021186 45.38721539),alta
MILANO,MILANO,MI146.2616,AREA DI VIALE FORLANINI,"VIALE ENRICO FORLANINI, 65-75",,aree industriali dismesse,9.25481033,45.46198592,POINT (9.25481033 45.46198592),alta
PAVIA,BRESSANA BOTTARONE,PV023.0004,Ex P.V. TOTAL 1527,S.S.N.35 KM 77+900,,impianti di stoccaggio o adduzione carburanti,9.12506585,45.07879952,POINT (9.12506585 45.07879952),bassa
MILANO,BAREGGIO,MI012.0024,EFFRAZIONE OLEODOTTO SANNAZZARO - RHO,"VIA SAN CARLO, 1",,rilasci accidentali o dolosi di sostanze,9.00088135,45.48651339,POINT (9.00088135 45.48651339),alta
BRESCIA,GARDONE VALTROMPIA,BS075.0010,FABBRICA BERETTA - Reparto foratura Barrotti,"VIA PIETRO BERETTA, 18",,aree industriali in attività,10.18406514,45.6903106,POINT (10.18406514 45.6903106),alta
MILANO,MILANO,MI146.1200,PV CARBURANTI TOTALERG NI007763,"VIA GIOVANNI LORENZINI, 5",,impianti di stoccaggio o adduzione carburanti,9.2007206,45.44371214,POINT (9.2007206 45.44371214),alta
VARESE,UBOLDO,VA130.0003,Ditta ex LU.VE. SpA,"VIA CADUTI DELLA LIBERAZIONE, 53",,aree industriali in attività,8.996654,45.60157075,POINT (8.996654 45.60157075),alta
MILANO,BUCCINASCO,MI036.0015,"Area ""ex SOLFRENE"" Condominio","VIA BRUNO BUOZZI, 22",,aree industriali in attività,9.11386035,45.42595951,POINT (9.11386035 45.42595951),alta
BERGAMO,VERDELLINO,BG232.0004,NUOVA IGB SpA,"CORSO ITALIA, 20/G",,aree industriali in attività,9.6164397,45.59298384,POINT (9.6164397 45.59298384),alta
VARESE,SOMMA LOMBARDO,VA123.0014,SITO INDUSTRIALE DISMESSO,VIA GALILEO GALILEI,,aree industriali dismesse,8.71599865,45.68065155,POINT (8.71599865 45.68065155),alta
VARESE,MORNAGO,VA106.0004,Area VIA VITTORIO VENETO,VIA VITTORIO VENETO,,operazioni di recupero rifiuti,8.74657181,45.73110755,POINT (8.74657181 45.73110755),alta
MANTOVA,OSTIGLIA,MN038.0006,Donaldson Italia S.r.l.,VIA ABETONE BRENNERO 15,,aree industriali in attività,11.15065275,45.08532743,POINT (11.15065275 45.08532743),bassa
MILANO,PREGNANA MILANESE,MI179.0003,EX VASCHE DI SPAGLIAMENTO DELLA FOGNATURA COMUNALE,,(*),aree di spagliamento reflui fognari,9.0040884,45.51458255,POINT (9.0040884 45.51458255),bassa
MILANO,MILANO,MI146.4206,SEDE A2A,"PIAZZA TRENTO, 13",,altri siti non meglio specificati,9.20199295,45.44656374,POINT (9.20199295 45.44656374),alta
LECCO,BRIVIO,LC010.0003,"3924 Gruppo SAL spa , ex-GEPLAST, EX ITALPLASTIC",VIA MASTRO GIORGIO,,altri siti non meglio specificati,9.42679165,45.73449657,POINT (9.42679165 45.73449657),alta
MONZA E DELLA BRIANZA,MONZA,MI149.0059,AUTORICAMBIMONZA,"VIA FABIO FILZI, 4",,aree industriali dismesse,9.28136787,45.58888134,POINT (9.28136787 45.58888134),alta
MILANO,MILANO,MI146.4268,ANTIRION SGR SPA,"VIA ANTONIO TOLOMEO TRIVULZIO, 8",,aree industriali dismesse,9.14704276,45.46613501,POINT (9.14704276 45.46613501),alta
MILANO,PARABIAGO,MI168.0040,Immobiliare Fulvia S.S. del Sempione,S.S.33 DEL SEMPIONE 78,(*),aree industriali in attività,8.9432874,45.54745438,POINT (8.9432874 45.54745438),bassa
MONZA E DELLA BRIANZA,CARATE BRIANZA,MB015.0005,PUNTO VENDITA Q8 N. 1129,S.S.36,,impianti di stoccaggio o adduzione carburanti,9.2364053,45.6683385,POINT (9.2364053 45.6683385),bassa
MILANO,ROZZANO,MI189.0046,"Area Industriale Fallimento Rodacromo, Fallimento Cromos Metalli S.r.l., Soc. Italchimici spa","VIA BRENTA, 18B",,aree industriali dismesse,9.16671874,45.39784508,POINT (9.16671874 45.39784508),alta
MILANO,MILANO,MI146.2769,AREA CONDOMINIO - Serbatoio,"VIA LIUTPRANDO, 9",,altri siti non meglio specificati,9.17694376,45.43614957,POINT (9.17694376 45.43614957),alta
LECCO,CASSAGO BRIANZA,LC017.0002,area ex SALVIT - area serbatoio interrato,VIA ALESSANDRO VOLTA,(*),aree industriali dismesse,9.29156268,45.73949021,POINT (9.29156268 45.73949021),alta
MILANO,MILANO,MI146.4338,AREA VIA FONTANA 20 - FILCASA,"VIA FONTANA, 20",,altri siti non meglio specificati,9.20531491,45.46150681,POINT (9.20531491 45.46150681),alta
MILANO,MILANO,MI146.3010,"AREA ""FONTAMARCO""","VIA FELICE PERUSSIA, 1",,aree industriali dismesse,9.18507774,45.43301027,POINT (9.18507774 45.43301027),alta
MILANO,MILANO,MI146.0650,P.V. SHELL N. 49.459,"VIA CESARE LOMBROSO, 20",,impianti di stoccaggio o adduzione carburanti,9.22678531,45.45616978,POINT (9.22678531 45.45616978),alta
MILANO,CASARILE,MI055.0003,Piano recupero ZR4,"VIA BINASCO, 76",,aree industriali dismesse,9.10558845,45.31828124,POINT (9.10558845 45.31828124),alta
MILANO,SESTO SAN GIOVANNI,MI209.0009,"ex PRODEL, ditta ORVEM - rimozione serbatoi","VIA SACCO E VANZETTI, 34",(*),rilasci accidentali o dolosi di sostanze,9.25611807,45.5311065,POINT (9.25611807 45.5311065),alta
LECCO,MANDELLO DEL LARIO,LC046.0003,Insediamento industriale ex MOTO GUZZI,"VIA ERNESTO V. PARODI, 57",,aree industriali in attività,9.32078085,45.91773629,POINT (9.32078085 45.91773629),alta
VARESE,CASSANO MAGNAGO,VA040.0006,CROMATURA CASSANESE S.N.C.,"VIA ACHILLE GRANDI, 22",(*),aree industriali in attività,8.83463482,45.66859965,POINT (8.83463482 45.66859965),alta
BRESCIA,BRESCIA,BS029.0215,AMPLIAMENTO AREA INDUSTRIALE BMB,VIA ROSELLI 12,,aree industriali in attività,10.16372094,45.51600704,POINT (10.16372094 45.51600704),alta
